phone,streetAddress,name,addressState,addressCity,addressZip
(817) 920-9213,2301 Evans Ave,Church Of The Living God,TX,"Fort Worth, ",76104
(817) 332-3722,801 W Cannon St,Faith Pointe Church Of Christ,TX,"Fort Worth, ",76104
(817) 984-1100,775 W Bowie St,Travis Avenue Baptist Church Clinic,TX,"Fort Worth, ",76110
(817) 927-8619,2112 Forest Park Blvd,Second Church-Christ Scientist,TX,"Fort Worth, ",76110
(817) 927-0379,3100 Willing Ave,Templo Juan,TX,"Fort Worth, ",76110
(817) 207-8940,1911 Yuma Ave,Church Truelove,TX,"Fort Worth, ",76104
(817) 531-0306,1817 Renner Ave,Solid Rock Tabernacle,TX,"Fort Worth, ",76104
(817) 966-0633,1208 West Magnolia #106,The Rooted Church,TX,"Fort Worth, ",76104
(817) 348-9670,402 Hemphill St,Sanctuary Church,TX,"Fort Worth, ",76104
(817) 820-0300,400 Hemphill St,Tsc,TX,"Fort Worth, ",76104
(817) 336-5779,1712 Pruitt St,Holy Spirit Embassy,TX,"Fort Worth, ",76104
(817) 810-0191,1068 E Humbolt St,Baker Chapel AME Church,TX,"Fort Worth, ",76104
(817) 536-1311,2415 Bomar Ave,Evangel Temple Pentecostal Hse,TX,"Fort Worth, ",76103
(817) 451-2990,PO Box 50516,Powerteen Ministry,TX,"Fort Worth, ",76105
(817) 923-5929,1201 E Allen Ave,Hassan Masjid Of All-Islam,TX,"Fort Worth, ",76104
(817) 927-0730,2860 Evans Ave,Morningside United Methodist Church,TX,"Fort Worth, ",76104
(817) 335-3222,908 Pennsylvania Ave,Celebration Community Church,TX,"Fort Worth, ",76104
(817) 920-7767,901 Page Ave,Angel Montessori,TX,"Fort Worth, ",76110
(817) 429-9366,956 E Jefferson Ave,Fellowship Baptist Church,TX,"Fort Worth, ",76104
(817) 531-2448,4401 S Riverside Dr,Gospel Kingdom Church Of God In Christ,TX,"Fort Worth, ",76119
(817) 536-6921,4545 S Riverside Dr,Rolling Hills Church Of God In Christ,TX,"Fort Worth, ",76119
(817) 336-7185,612 Throckmorton St,First Christian Church,TX,"Fort Worth, ",76102
(817) 336-3878,1063 E Rosedale St,Antioch Missionary Baptist Church,TX,"Fort Worth, ",76104
(817) 927-8049,2828 McCart Ave,The Church In Fort Worth,TX,"Fort Worth, ",76110
(817) 332-7911,970 E Humbolt St,Bethlehem Center,TX,"Fort Worth, ",76104
(817) 338-9356,1470 E Magnolia Ave,House Of Hope,TX,"Fort Worth, ",76104
(817) 923-0058,1007 E Terrell Ave,Our Mother of Mercy Catholic School,TX,"Fort Worth, ",76104
(817) 332-1202,1200 Bessie St,Ekklesia Christian School,TX,"Fort Worth, ",76104
(817) 921-6061,1346 E Powell Ave,Harris Temple Church Of God In Christ,TX,"Fort Worth, ",76104
(817) 882-9162,1598 Sunset Ter,Central Dallas Ministries,TX,"Fort Worth, ",76102
(817) 926-1811,1125 Elmwood Ave,First Samaria Baptist Church,TX,"Fort Worth, ",76104
,,,,,
(817) 338-0372,1201 Bessie St,Greater New Life COGIC,TX,"Fort Worth, ",76104
(817) 534-9077,1745 E Davis Ave,Friendly Temple Church Of God In Christ,TX,"Fort Worth, ",76104
(817) 926-9440,1104 E Lowden St,Power House Church Of God In Christ,TX,"Fort Worth, ",76104
(817) 332-6419,1720 E Vickery Blvd,Community Christian Church,TX,"Fort Worth, ",76104
(817) 536-8490,2950 Old Mansfield Rd,The Apostolic Faith Church,TX,"Fort Worth, ",76119
(817) 923-6718,201 E Bewick St,Templo Betel Assembly Of God,TX,"Fort Worth, ",76110
(817) 534-3218,4400 Martin Luther King Fwy N,Smith Chapel Church Of God,TX,"Fort Worth, ",76102
(817) 534-2809,1027 Ash Crescent St,Greater St Stephen Baptist Church,TX,"Fort Worth, ",76104
(817) 924-8941,3001 Travis Ave,Traveis Avenue Baptist Church,TX,"Fort Worth, ",76110
(817) 923-0486,2101 Hemphill St,South Central Alliance Of Churches,TX,"Fort Worth, ",76110
(817) 581-0088,5312 Bransford St,Church of Jesus Christ of Latter-Day Saints,TX,"Fort Worth, ",76104
(817) 924-6988,901 Page Ave,Westside Unitarian Church,TX,"Fort Worth, ",76110
(817) 984-8540,400 Hemphill St,Bethel Temple Ministries Inc,TX,"Fort Worth, ",76104
(817) 923-1265,2864 Mississippi Ave,Mt Rose Baptist Church,TX,"Fort Worth, ",76104
(817) 923-4015,958 E Baltimore Ave,Pilgrim Rest Missionary Baptist Church,TX,"Fort Worth, ",76104
(817) 335-0963,1319 South Fwy,Jerusalem Missionary Baptist Church,TX,"Fort Worth, ",76104
(817) 923-6960,1125 E Jessamine St,Community Missionary Baptist Church,TX,"Fort Worth, ",76104
(817) 336-2884,1201 Mansfield Ave,Mansfield Avenue Baptist Church,TX,"Fort Worth, ",76104
(817) 926-0283,1400 College Ave,College Avenue Baptist Church,TX,"Fort Worth, ",76104
(817) 924-7617,2712 South Fwy,Macedonia Missionary Baptist,TX,"Fort Worth, ",76104
(817) 535-0848,2620 E Rosedale St,New MT Carmel Missionary Baptist,TX,"Fort Worth, ",76105
(817) 534-0581,2401 E Berry St,First St John Bapt Church,TX,"Fort Worth, ",76105
(817) 923-4060,1220 E Richmond Ave,Richmond Ave Church Of Christ,TX,"Fort Worth, ",76104
(817) 335-9810,1104 Evans Ave,Sunshine Cumberland Presbyterian,TX,"Fort Worth, ",76104
(817) 927-0322,3500 South Fwy,Worth Heights Church of Christ,TX,"Fort Worth, ",76110
(817) 536-1017,3209 Mitchell Blvd,Mitchell Blvd Church Of Christ,TX,"Fort Worth, ",76105
(817) 335-1231,1000 Penn St,First Presbyterian Church,TX,"Fort Worth, ",76102
(817) 923-1911,509 W Magnolia Ave,St Mary's Catholic Church,TX,"Fort Worth, ",76104
(817) 336-2117,522 Missouri Ave,St Andrew's United Methodist Church,TX,"Fort Worth, ",76104
,,,,,
(817) 870-1747,911 E Tucker St,Tucker Street Baptist Church,TX,"Fort Worth, ",76104
(817) 478-5811,229 W 4th St,First United Methodist Church,TX,"Fort Worth, ",76102
(817) 922-8238,2759 Ludelle St,Liberty Proclaimed Ministry,TX,"Fort Worth, ",76105
(817) 536-0505,1709 E Hattie St,Beautiful Feet Church,TX,"Fort Worth, ",76104
(817) 927-2149,1257 E Harvey Ave,Harvey Avenue Baptist Church,TX,"Fort Worth, ",76104
(817) 882-9878,1201 Verbena St,Mt Carmel Baptist Church,TX,"Fort Worth, ",76104
(817) 923-5431,1344 E Harvey Ave,Elm Grove Missionary Baptist Church,TX,"Fort Worth, ",76104
(817) 923-9761,1313 E Mulkey St,MT Ararat Missionary Baptist,TX,"Fort Worth, ",76104
(817) 531-2041,1801 S Riverside Dr,Cooper Street Baptist Church,TX,"Fort Worth, ",76104
(817) 207-8969,820 Glen Garden Dr,Greater Four Cors Mssnry Bapt,TX,"Fort Worth, ",76104
(817) 535-5511,1624 E Jessamine St,Greater United Missionary Baptist Church No 1,TX,"Fort Worth, ",76104
(817) 534-4393,1700 E Davis Ave,Pleasant Home Baptist Church,TX,"Fort Worth, ",76104
(817) 336-8416,1000 Stella St,MT Calvary Baptist Church,TX,"Fort Worth, ",76104
(817) 924-3297,2951 Evans Ave,Mt Olive Missionary Baptist Church,TX,"Fort Worth, ",76104
(817) 923-6396,957 Baker St,Morningside Missionary Baptist Church,TX,"Fort Worth, ",76104
(817) 535-2166,1021 Ash Crescent St,Greater St Stephen Missionary Baptist Church,TX,"Fort Worth, ",76104
(817) 535-7800,1412 E Cantey St,Greater Leslie Baptist Church,TX,"Fort Worth, ",76104
(817) 535-2967,1508 Talton Ave,Samuel Baptist Church,TX,"Fort Worth, ",76104
(817) 536-4386,850 Ash Crescent St,New Jerusalem Baptist Church,TX,"Fort Worth, ",76104
(817) 332-5549,2023 Wenneca Ave,Greater Friendship Missionary Baptist Churc,TX,"Fort Worth, ",76102
(817) 923-5659,2832 Townsend Dr,Park Temple Baptist Church,TX,"Fort Worth, ",76110
(817) 536-2636,2805 S Wesleyan Dr,Samuel Prince Memorial Baptist Church,TX,"Fort Worth, ",76105
(817) 535-4749,3400 Mitchell Blvd,Salem Missionary Baptist Church,TX,"Fort Worth, ",76105
(817) 923-8276,2101 Hemphill St,Southside Church of Christ,TX,"Fort Worth, ",76110
(817) 927-5341,2401 College Ave,St John's Episcopal Church,TX,"Fort Worth, ",76110
(817) 927-8411,2700 McPherson Ave,St Stephen Presbyterian Church,TX,"Fort Worth, ",76109
(817) 926-4110,1313 Marion Ave,Greater Prayer Tower Holiness Church,TX,"Fort Worth, ",76104
(817) 870-9066,601 S Kentucky Ave,Outland Memorial AME Zion Church,TX,"Fort Worth, ",76104
(817) 336-5326,1050 E Humbolt St,Baker Chapel AME Church,TX,"Fort Worth, ",76104
(817) 332-6000,1303 White St,Church Of God And Christ,TX,"Fort Worth, ",76104
,,,,,
(817) 446-4423,5625 Good Shepherd Way,Good Shepherd Temple of Praise,TX,"Fort Worth, ",76119
(817) 923-7507,701 E Baltimore Ave,Saint Chapel Church Of God,TX,"Fort Worth, ",76104
(817) 877-4447,1149 E Rosedale St,Greater Love Chapel,TX,"Fort Worth, ",76104
(817) 926-0027,1349 E Baltimore Ave,Greater Progressive Church God,TX,"Fort Worth, ",76104
(817) 335-1970,1634 E Vickery Blvd,Calvary Church Of God In Chrst,TX,"Fort Worth, ",76104
(817) 207-8121,2520 8th Ave,Church Of Jesus Christ Of Latter Day Saints,TX,"Fort Worth, ",76110
(817) 535-6604,2738 E Rosedale St,International House Of Prayer For All People Non Denomination,TX,"Fort Worth, ",76105
(817) 926-1808,3300 Mitchell Blvd,House Of Praise Community Church,TX,"Fort Worth, ",76105
(817) 332-1202,1200 Bessie St,World Missionary Baptist Church,TX,"Fort Worth, ",76104
(817) 924-4600,1701 Hemphill St,Hope Works,TX,"Fort Worth, ",76110
(817) 820-0014,1131 Galveston Ave,Seeking God First Holiness Church,TX,"Fort Worth, ",76104
(817) 585-1118,1404 Hemphill St,Catholic Diocese of Fort Worth,TX,"Fort Worth, ",76104
(817) 536-9604,2601 Burchill Rd N,Holy Name of Jesus Catholic Church,TX,"Fort Worth, ",76105
(817) 535-8495,2640 Avenue L,Holy Name Catholic Church,TX,"Fort Worth, ",76105
(817) 927-8619,2112 Forest Park Blvd,Christian Science,TX,"Fort Worth, ",76110
(817) 534-7822,2900 Mitchell Blvd,Greater Harvest Church,TX,"Fort Worth, ",76105
(817) 334-0710,615 College Ave,Emanuel Christian Fellowship,TX,"Fort Worth, ",76104
(817) 926-7754,613 Elmwood Ave,Good Hope Baptist Church,TX,"Fort Worth, ",76104
(817) 927-2463,1801 Evans Ave,Mount Pisgah Missionary Baptist Church,TX,"Fort Worth, ",76104
(817) 336-2990,1101 Evans Ave,Mount Zion Baptist Church,TX,"Fort Worth, ",76104
(817) 336-5761,305 W Broadway Ave,Broadway Baptist Church,TX,"Fort Worth, ",76104
(817) 336-2695,600 Grove St,Mount Gilead Bapt Church,TX,"Fort Worth, ",76102
(817) 810-0996,1009 Arizona Ave,Church On The Slab,TX,"Fort Worth, ",76104
(817) 924-4266,800 W Berry St,Travis Avenue Baptist Church,TX,"Fort Worth, ",76110
(817) 924-5511,1317 E Baltimore Ave,Highland Park Baptist Church,TX,"Fort Worth, ",76104
(817) 923-5446,2951 South Fwy,Iglesia Cristiana Palacio Del Rey,TX,"Fort Worth, ",76104
(817) 926-6631,2720 S University Dr,University Christian Church,TX,"Fort Worth, ",76109
(817) 332-1246,1701 Oakhurst Scenic Dr,Calvary Cathedral International,TX,"Fort Worth, ",76111
(817) 413-9831,4650 Campus Dr,New Life Christian,TX,"Fort Worth, ",76119
(817) 534-0787,4900 Campus Dr,Worth Baptist Church,TX,"Fort Worth, ",76119
,,,,,
(817) 926-3318,2720 Wabash Ave,University Baptist Church,TX,"Fort Worth, ",76109
(817) 731-4329,3701 Birchman Ave,Christ Chapel Bible Church,TX,"Fort Worth, ",76107
(817) 534-1741,3900 Meadowbrook Dr,Meadowbrook United Methodist Church,TX,"Fort Worth, ",76103
(817) 926-3318,2720 Wabash Ave,University Baptist Church,TX,"Fort Worth, ",76109
(817) 222-1018,900 Bonnie Brae Ave,Iglesia De Dios Bet-el,TX,"Fort Worth, ",76111
(817) 451-4110,2912 Little Rd,Lake Arlington Baptist Church,TX,"Arlington, ",76016
(817) 535-5646,4000 E Rosedale St,El Shaddai World Out Reach Center,TX,"Fort Worth, ",76105
(817) 361-8800,,Abiding Word Church,,,
(817) 924-6763,3819 6th Ave,Iglesia Bautista Rios De Agua Viva,TX,"Fort Worth, ",76110
(817) 626-2361,1421 Circle Park Blvd,Iglesia Bautista Buenas Nuevas,TX,"Fort Worth, ",76164
(817) 838-7561,3615 Maurice Ave,Iglesia Cordero De Dios,TX,"Fort Worth, ",76111
(817) 927-8406,5006 James Ave,Grace Works,TX,"Fort Worth, ",76115
(817) 335-5005,210 N Harding St,Greater Saint James Baptist Church,TX,"Fort Worth, ",76102
(817) 535-4084,3201 Purington Ave,New Covenant Community Church,TX,"Fort Worth, ",76103
(817) 924-1579,201 E Thornhill Dr,Immaculate Heart Of Mary Church,TX,"Fort Worth, ",76115
(817) 831-1129,3812 Galvez Ave,Immanuel Baptist Church,TX,"Fort Worth, ",76111
(817) 332-0111,824 Samuels Ave,Dwelling Place,TX,"Fort Worth, ",76102
(817) 536-7071,2517 Sargent St,Word Of Life Church,TX,"Fort Worth, ",76103
(817) 534-1205,5036 Wichita St,Glen Park Missionary Baptist Church,TX,"Fort Worth, ",76119
(817) 924-3253,4800 Merida Ave,South Hills Baptist Church,TX,"Fort Worth, ",76115
(817) 535-3094,1901 Amanda Ave,Hockenhull Karl,TX,"Fort Worth, ",76105
(817) 413-9834,4935 Miller Ave,Love,TX,"Fort Worth, ",76119
(817) 451-8221,3509 Mount Horum Way,"Moody, F S",TX,"Fort Worth, ",76105
(817) 427-1020,1860 Precinct Line Rd,Church Of Light & Salt,TX,"North Richland Hills, ",76182
(817) 451-3752,PO Box 8504,Trinity Christian Church,TX,"Fort Worth, ",76124
(817) 531-1761,3312 Avenue B,Prince of Peace,TX,"Fort Worth, ",76105
(817) 744-7497,4625 Wichita St,Greater The Victorious Church,TX,"Fort Worth, ",76119
(817) 534-9148,4635 Miller Ave,Kingdom's Temple Church,TX,"Fort Worth, ",76119
(817) 531-3980,2700 Village Creek Rd,Aletheia Temple Church,TX,"Fort Worth, ",76105
(817) 788-0866,7650 Precinct Line Rd,Mid-Cities Church,TX,"North Richland Hills, ",76182
,,,,,
(972) 304-0636,PO Box 2255,Spirit Life Church Intl,TX,"Grapevine, ",76099
(817) 337-0440,,Journey Fellowship,TX,"Keller, ",76248
(817) 413-6811,5024 Nell St,Open Arms of Love Church,TX,"Fort Worth, ",76119
(817) 535-6443,2225 Barron St,Life & Liberty Church,TX,"Fort Worth, ",76103
(817) 258-6300,508 Carroll St,Fellowship Church,TX,"Fort Worth, ",76107
(817) 413-8885,2936 Fitzhugh Ave,House Of Prayer Ministries,TX,"Fort Worth, ",76105
(817) 531-8824,5187 Ollie St,Christian Crusade For Christ,TX,"Fort Worth, ",76119
(817) 535-2688,2601 Pecos St,Pilgrim Galilee Christan Church,TX,"Fort Worth, ",76119
(817) 926-1123,2720 S University Dr,Denny's Friends,TX,"Fort Worth, ",76109
(817) 332-4842,903 E 3rd St,Morning Chapel Church,TX,"Fort Worth, ",76102
(817) 831-1854,3812 Galvez Ave,Iglesia Bautista Victoria,TX,"Fort Worth, ",76111
(817) 531-2353,3325 Collin St,Faith Tabernacle of Praise & Worship Chuch,TX,"Fort Worth, ",76119
(817) 546-0860,3500 El Campo Ave,Christ Chapel Bible Church Annex,TX,"Fort Worth, ",76107
(817) 926-4687,2501 Parkview Dr,Christian Church Disciples,TX,"Fort Worth, ",76102
(817) 531-8546,2001 Oakland Blvd,Victory Temple Worship Center,TX,"Fort Worth, ",76103
(817) 921-9305,716 California Pkwy N,New Generation Praise Worship Center,TX,"Fort Worth, ",76115
(817) 923-5885,3839 Saint Louis Ave,Iglesia Bautista Calvario,TX,"Fort Worth, ",76110
(817) 413-8745,4708 Old Mansfield Rd Ste A,Abundant Living Worship Center,TX,"Fort Worth, ",76119
(817) 927-3236,501 W Seminary Dr,The Universal Church,TX,"Fort Worth, ",76115
(817) 624-2696,1500 Circle Park Blvd,Cristo Rompio Las Cadenas,TX,"Fort Worth, ",76164
(817) 923-1877,5300 Hemphill St,A New Beginning Church,TX,"Fort Worth, ",76115
(817) 535-5707,4954 Ramey Ave,Johnson St Church,TX,"Fort Worth, ",76105
(817) 921-4988,4800 Merida Ave,El Buen Pastor Christian Church,TX,"Fort Worth, ",76115
(817) 386-3370,5300 Hemphill St,Christ Flames of Fire Christian Church,TX,"Fort Worth, ",76115
(817) 927-8619,3113 Wayside Ave,Second Church-Christ Scientist,TX,"Fort Worth, ",76110
(817) 923-6523,100 E Pafford St,Immaculate Heart Of Mary Church,TX,"Fort Worth, ",76110
(817) 744-7922,409 W Kellis St,Iglesia Bautista Nuevos Hrznts,TX,"Fort Worth, ",76115
(817) 386-4428,2800 Race St,Inglesia Ayo,TX,"Fort Worth, ",76111
(817) 585-1713,620 N Chandler Dr,Fort Worth Harvest Church,TX,"Fort Worth, ",76111
(817) 531-2794,3901 Miller Ave,Krishna Parth Inc,TX,"Fort Worth, ",76119
,,,,,
(817) 332-3191,917 Lamar St,St Andrew's Episcopal Church,TX,"Fort Worth, ",76102
(817) 332-2281,1800 West Fwy,St. Paul Lutheran Church,TX,"Fort Worth, ",76102
(817) 336-7277,800 W 5th St,First United Methodist Church Of Fort Worth,TX,"Fort Worth, ",76102
(817) 332-4915,1206 Throckmorton St,St Patrick Cathedral,TX,"Fort Worth, ",76102
(817) 386-9596,1609 E Davis Ave,Great Light Missionary Baptist Church,TX,"Fort Worth, ",76104
(817) 882-9719,1624 E Vickery Blvd,Calvary Family Life Center,TX,"Fort Worth, ",76104
(817) 536-1100,2401 McCurdy St,Kingdom Manifesters International Ministries,TX,"Fort Worth, ",76104
(817) 536-5170,1329 Glen Garden Dr,New Vision Christian Church,TX,"Fort Worth, ",76104
(817) 870-9828,2012 E Lancaster Ave,Inspiring Temple Of Praise,TX,"Fort Worth, ",76103
(817) 335-9469,1100 Henderson St,Shrine Headquarters,TX,"Fort Worth, ",76102
(817) 922-0445,2020 Hemphill St,Fort Worth Salim Spanish SDA,TX,"Fort Worth, ",76110
(817) 336-5052,100 Stella St,MT Calvary Baptist Church,TX,"Fort Worth, ",76104
(817) 535-8968,1501 Stella ST,Gospel Tabernacle,TX,"Fort Worth, ",76104
(817) 429-4009,909 W Shaw St,Our Lady Of Victory Center,TX,"Fort Worth, ",76110
(817) 536-9604,2635 Burchill Rd N,Holy Name Catholic Church,TX,"Fort Worth, ",76105
(817) 534-7822,2900 Mitchell Blvd,Richard WG,TX,"Fort Worth, ",76105
(817) 926-0027,1349 E Baltimore Ave,"Johnson, John L",TX,"Fort Worth, ",76104
(817) 810-4040,1033 E Annie St,Spoken Word Holy Tabernacle,TX,"Fort Worth, ",76104
(817) 921-5351,1125 Baker St,City of Refuge Church,TX,"Fort Worth, ",76104
(817) 534-1600,4500 S Riverside Dr,New Breed Christian Center,TX,"Fort Worth, ",76119
(817) 926-4433,1712 Evans Ave,Love Sanctuary,TX,"Fort Worth, ",76104
(817) 810-0919,1535 E Hattie St,Church The Rock Missionary,TX,"Fort Worth, ",76104
(817) 878-9474,1136 E Vickery Blvd,Turn Around Ministries,TX,"Fort Worth, ",76104
(817) 348-8164,1208 E Magnolia Ave,Victory Temple,TX,"Fort Worth, ",76104
(817) 535-0843,1800 E Vickery Blvd,Community Christian Church,TX,"Fort Worth, ",76104
(817) 882-8977,207 W Broadway Ave,I Jesus Zion Ministries,TX,"Fort Worth, ",76104
(817) 923-5446,2951 South Fwy,Templo Palacio Del Rey,TX,"Fort Worth, ",76104
(817) 534-9077,1745 E Davis Ave,"Williams, Rufus C",TX,"Fort Worth, ",76104
(817) 923-9187,2851 Evans Ave,King's Haven Worship Center,TX,"Fort Worth, ",76104
(817) 921-4988,3755 Frwy,Iglesia Bautista De Buen Pstr,TX,"Fort Worth, ",76104
(817) 282-6767,760 W Hurst Blvd,,TX,"Hurst, ",76053
(817) 451-5513,1140 Morrison Dr,,TX,"Fort Worth, ",76120
(817) 926-6631,2720 S University Dr,,TX,"Fort Worth, ",76109
(817) 332-1246,1701 Oakhurst Scenic Dr,,TX,"Fort Worth, ",76111
(817) 906-1478,2600 Hall Johnson Rd,,TX,"Colleyville, ",76034
(817) 838-7184,1909 Thomas Rd,,TX,"Haltom City, ",76117
(817) 926-3318,2720 Wabash Ave,,TX,"Fort Worth, ",76109
(817) 232-2010,6700 N Riverside Dr,,TX,"Fort Worth, ",76137
(817) 232-5606,9555 Harmon Rd,,TX,"Fort Worth, ",76177
(817) 731-0701,5001 Briarhaven Rd,,TX,"Fort Worth, ",76109
(817) 413-9831,4650 Campus Dr,,TX,"Fort Worth, ",76119
(817) 534-1741,3900 Meadowbrook Dr,,TX,"Fort Worth, ",76103
(817) 481-2559,422 Church St,,TX,"Grapevine, ",76051
(817) 545-0251,2701 Harwood Rd,,TX,"Bedford, ",76021
(817) 297-4347,400 S Eagle Dr,,TX,"Crowley, ",76036
(817) 332-3191,917 Lamar St,,TX,"Fort Worth, ",76102
(817) 560-3433,6605 Silver Saddle Rd,,TX,"Fort Worth, ",76126
(817) 731-4329,3701 Birchman Ave,,TX,"Fort Worth, ",76107
(817) 831-4404,3500 Maurice Ave,St George Catholic Church,TX,"Fort Worth, ",76111
(817) 536-0404,3314 Crenshaw Ave,Friendly Fellowship Ministry,TX,"Fort Worth, ",76105
(817) 535-3144,4900 Wichita St,Faith Word Fellowship Family,TX,"Fort Worth, ",76119
(817) 535-9673,3000 Vaughn Blvd,Reveal Word Ministries,TX,"Fort Worth, ",76105
(817) 534-6739,3501 Avenue I,New Hope Christian Center,TX,"Fort Worth, ",76105
(817) 335-2784,2838 W 6th St,Iglesia Bautista Central,TX,"Fort Worth, ",76107
(817) 413-9741,2101 S Ayers Ave,Ministries Samaritan Church,TX,"Fort Worth, ",76105
(817) 838-7647,2700 E 1st St,Wayside Christ Holy Sanctified Church,TX,"Fort Worth, ",76111
(817) 413-7665,2529 Mt View Ave,Community Life Center,TX,"Fort Worth, ",76103
(817) 536-6160,2909 Horton Rd,Higher Praise Family Church,TX,"Fort Worth, ",76119
(817) 534-6024,1105 Bradley St,The Church Of Ft Worth,TX,"Fort Worth, ",76105
(817) 534-1698,1417 S Hughes Ave,True Holiness Pentecostal Church Of Jesus Christ,TX,"Fort Worth, ",76105
(817) 534-1361,3425 Thannisch Ave,Esparza Jesus,TX,"Fort Worth, ",76105
(817) 534-2988,3716 S Littlejohn Ave,Glory World International Ministry Church,TX,"Fort Worth, ",76105
(817) 570-0908,3801 Pershing Ave,Mission House-CCBC,TX,"Fort Worth, ",76107
(817) 536-1488,4112 Avenue J,Lakeview Mission Center,TX,"Fort Worth, ",76105
(817) 536-6219,4401 Erath St,Church of Gospel Ministry,TX,"Fort Worth, ",76119
(817) 534-6146,4500 E Berry St,National Academy of Christian Studies,TX,"Fort Worth, ",76105
(817) 535-0700,2601 Village Creek Rd,New Covenant Community Church,TX,"Fort Worth, ",76105
(817) 566-4327,5024 Nell Street,Exhorted Word Ministries,TX,"Fort Worth, ",76119
(817) 283-2092,,Baha'i Faith,TX,"Grapevine, ",76051
(817) 354-4673,,Cathedral of Hope Midcities,TX,"Bedford, ",76021
(817) 428-8977,,The Flame,,,
(817) 534-1900,4301 Meadowbrook Dr,Episcopal Diocese-Fort Worth,TX,"Fort Worth, ",76103
(817) 457-8448,4310 Wheeler St,Zion HS Academy,TX,"Fort Worth, ",76117
(817) 488-3434,,Eagle Believers Chapel,TX,"Grapevine, ",76051
(817) 332-9061,960 W Bluff St,Gethsemane Presbyterian Church,TX,"Fort Worth, ",76102
(817) 423-4282,,Amber Rose Ministries,TX,"Fort Worth, ",76102
(817) 581-4900,,The Center Point Church,TX,"Fort Worth, ",76101
(817) 291-6938,PO Box 2367,Tabernacle Of Praise,TX,"Fort Worth, ",76113
,,,,,
(817) 590-8804,,Fields and Church,TX,"Fort Worth, ",76118
(817) 293-7103,700 McPherson Rd,Calvary Church of Fort Worth Inc,TX,"Fort Worth, ",76140
(817) 444-3063,PO Box 527,Holy Trinity Catholic Church,TX,"Azle, ",76098
(817) 332-4284,,Calvary Cathedral International Prayer Tower,TX,"Fort Worth, ",76101
(817) 413-9849,4650 Campus Dr,Chosen Vessel Cathedral,TX,"Fort Worth, ",76119
(817) 535-5555,1750 Beach St,Hope Church,TX,"Fort Worth, ",76103
(817) 534-5131,3507 Crenshaw Ave,Freshly Annointed Baptist Church,TX,"Fort Worth, ",76105
(817) 536-5461,4216 Avenue M,Rising Star Baptist Church,TX,"Fort Worth, ",76105
(817) 838-6953,3419 E Belknap St,Faith United Methodist Church,TX,"Fort Worth, ",76111
(817) 924-9995,913 E Seminary Dr,Christian Outreach Center Church,TX,"Fort Worth, ",76115
(817) 831-4442,1000 Bonnie Brae Ave,Trinity Brazos Area-Christian,TX,"Fort Worth, ",76111
(817) 732-3321,4736 Bryce Ave,Connell Baptist Church,TX,"Fort Worth, ",76107
(817) 927-5652,4625 Granbury Rd,Chinese Baptist Church,TX,"Fort Worth, ",76133
(817) 534-6963,3909 Reed St,Rising Star Church Of God In Christ,TX,"Fort Worth, ",76119
(817) 535-0798,3135 Lomita St,First Greater New Hope,TX,"Fort Worth, ",76119
(817) 531-1404,3430 Horton Rd,First Baptist Church,TX,"Forest Hill, ",76119
(817) 534-6146,4500 E Berry St,Stop Six Church Of Christ,TX,"Fort Worth, ",76105
(817) 335-6080,801 W 1st St,First United Methodist Church Of Fort Wor,TX,"Fort Worth, ",76102
(817) 926-5281,3200 Bilglade Rd,South Hills Christian Church,TX,"Fort Worth, ",76133
(817) 926-6111,800 W Fogg St,South Fort Worth Baptist Church,TX,"Fort Worth, ",76110
(817) 535-8631,4800 S Riverside Dr,Pilgrim Valley Missionary Baptist Church,TX,"Fort Worth, ",76119
(817) 924-2229,301 E Thornhill Dr,Southwayside Baptist Church,TX,"Fort Worth, ",76115
(817) 924-0440,1512 W Gambrell St,First Japanese Baptist Church,TX,"Fort Worth, ",76115
(817) 534-3801,4901 Trentman St,Heavenly Vision Missionary Baptist Church,TX,"Fort Worth, ",76119
(817) 626-1324,1519 Circle Park Blvd,Primera Baptist Church,TX,"Fort Worth, ",76164
(817) 923-7885,4717 Stadium Dr,Stadium Drive Baptist Church,TX,"Fort Worth, ",76133
(817) 927-5135,3725 S Adams St,San Juan Apostle Church,TX,"Fort Worth, ",76110
(817) 926-2333,711 W Gambrell St,The Church Of Jesus Christ,TX,"Fort Worth, ",76115
(817) 731-7570,4629 Bryce Ave,All Saints Episcopal Church,TX,"Fort Worth, ",76107
(817) 923-6323,101 E Hammond St,Immaculate Heart of Mary,TX,"Fort Worth, ",76115
,,,,,
(817) 923-1391,3200 Dryden Rd,St Andrews Social Ministries,TX,"Fort Worth, ",76109
(817) 624-3242,1300 Gould Ave,Trinidad United Methodist Chr,TX,"Fort Worth, ",76164
(817) 626-3055,214 NW 20th St,All Saints Catholic Church,TX,"Fort Worth, ",76164
(817) 927-1911,4520 James Ave,Tarrant Baptist Association,TX,"Fort Worth, ",76115
(817) 926-3681,3300 W Seminary Dr,Baptist Temple,TX,"Fort Worth, ",76133
(817) 420-9870,3200 Riverfront Dr,Reformed University Ministries,TX,"Fort Worth, ",76107
(817) 924-1061,100 E Spurgeon St,Immaculate Heart Of Mary,TX,"Fort Worth, ",76115
(817) 732-5011,4824 Houghton Ave,Arlington Heights Christian,TX,"Fort Worth, ",76107
(817) 926-5677,5300 James Ave,Jehovah's Witnesses,TX,"Fort Worth, ",76115
(817) 926-4733,5300 James Ave,South Congregation-Kingdom Hall of Jehova's Witnesses,TX,"Fort Worth, ",76115
(817) 922-0774,3400 Wayside Ave,Temple Baptist,TX,"Fort Worth, ",76110
(817) 332-5465,1702 Carver Ave,Progressive Baptist Church,TX,"Fort Worth, ",76102
(817) 615-4830,1129 Oak Grove Rd,Sanctuary of Praise Baptist Church,TX,"Fort Worth, ",76134
(817) 920-0928,2501 W Seminary Dr,The Universal Church,TX,"Fort Worth, ",76115
(817) 568-0985,1121 Oak Grove Rd,Highland Hills Church of Christ,TX,"Fort Worth, ",76134
(888) 933-8088,3400 William D Tate Ave,Father's Gate Family Church,TX,"Grapevine, ",76051
(817) 877-5222,464 Bailey Ave,United Methodist Conference Offices,TX,"Fort Worth, ",76107
(817) 569-1454,2601 Clover Ln,Metropolitan Board Of Missions,TX,"Fort Worth, ",76107
(817) 370-9229,100 N Forest Park Blvd,Global Exploits Ministries,TX,"Fort Worth, ",76102
(817) 332-5579,3200 Riverfront Dr # 104,Search Ministries Inc,TX,"Fort Worth, ",76107
(817) 348-8839,3201 Purington Ave,Christ Cathedral Church,TX,"Fort Worth, ",76103
(817) 920-9810,4041 Ryan Ave,Siempre Familia Igiesia De,TX,"Fort Worth, ",76110
(817) 926-9499,3605 El Campo Ave,New Day Svc For Child & Fmls,TX,"Fort Worth, ",76107
(817) 926-0750,3425 Bellaire Dr S,Trinity Episcopal Preschool,TX,"Fort Worth, ",76109
(817) 626-1102,1600 Circle Park Blvd,NICA Northside Inter-Church Agency Inc,TX,"Fort Worth, ",76164
(817) 737-8104,4901 Diaz Ave,Islamic Association Of Tarrant County,TX,"Fort Worth, ",76107
(817) 496-9200,,Bethel Temple Ame Church,TX,"Fort Worth, ",76124
(817) 685-4773,,Breastfeeding Support Center of Harris Methodist H,TX,"Euless, ",76039
(817) 297-0999,,Crowley South Central Church Of Christ,,,
(817) 451-5615,,Hope Fellowship Church,,,
,,,,,
(817) 581-4900,,Center Point Church,,,
(817) 531-7300,,Metroplex Family Church,,,
(817) 535-3782,,Mount Moriah Missionary Baptish Church,,,
(817) 400-5821,,Wedding Your Way,TX,"Fort Worth, ",76179
(817) 531-7474,3020 Donalee St,Faith Tabernacle COGIC,TX,"Fort Worth, ",76105
(817) 729-3378,,Beit-Lechem Congregation,TX,"Fort Worth, ",76177
(817) 335-1520,3205 Hamilton Ave,Central Christian Church,TX,"Fort Worth, ",76107
(817) 361-6700,1000 Bonnie Brae Ave,Burning Bush Christian Church,TX,"Fort Worth, ",76111
(817) 738-8456,4800 El Campo Ave,Calvary Bible Church,TX,"Fort Worth, ",76107
(817) 923-6814,3232 Sandage Ave,Forest Park Baptist Church,TX,"Fort Worth, ",76109
(817) 921-9005,4200 South Fwy,Eagles Nest Missionary Baptist Church,TX,"Fort Worth, ",76115
(817) 834-5865,121 Paradise St,Paradise Baptist Church,TX,"Fort Worth, ",76111
(817) 335-4258,715 Samuels Ave,Samuels Avenue Baptist Church,TX,"Fort Worth, ",76102
(817) 536-4802,3824 E Berry St,Parkside Missionary Baptist Church,TX,"Fort Worth, ",76105
(817) 535-2126,3105 Gardenia St,Primitive Baptist Church,TX,"Fort Worth, ",76119
(817) 536-6421,4000 E Berry St,Samaria Baptist Church,TX,"Fort Worth, ",76105
(817) 531-8725,4909 Wichita St,Concord Baptist Church,TX,"Fort Worth, ",76119
(817) 336-8264,1500 Swift St,North Ebenezer Baptist Church,TX,"Fort Worth, ",76102
(817) 838-8445,3101 Race St,Riverside Baptist Church,TX,"Fort Worth, ",76111
(817) 336-1233,111 Boland St,Faith Community Church,TX,"Fort Worth, ",76107
(817) 531-1820,4127 Collin St,Collin Street Missionary Baptist Church,TX,"Fort Worth, ",76119
(817) 534-6364,4628 Avenue J,Greater St Paul Baptist Church,TX,"Fort Worth, ",76105
(817) 535-6112,2124 Danner St,Upper Zion Baptist Church,TX,"Fort Worth, ",76105
(817) 534-3191,4901 Elgin St,Peoples Baptist Church,TX,"Fort Worth, ",76105
(817) 535-7398,2101 Amanda Ave,Mayfield Baptist Church,TX,"Fort Worth, ",76105
(817) 293-1590,5300 Oak Grove Rd W,East St Paul Baptist Church,TX,"Fort Worth, ",76134
(817) 536-7390,5301 Shackleford St,Prince Memorial Missionary Church,TX,"Fort Worth, ",76119
(817) 536-9237,5027 Sunshine Dr,Greater Eleazar Baptist Church,TX,"Fort Worth, ",76105
(817) 534-1515,5020 E Rosedale St,Keystone Baptist Church,TX,"Fort Worth, ",76105
(817) 536-2351,1701 Vincennes St,Holy Way Baptist Church,TX,"Fort Worth, ",76105
,,,,,
(817) 534-3406,5054 Pinson St,Riteway Missionary Baptist Church,TX,"Fort Worth, ",76105
(817) 536-7856,4201 Mitchell Blvd,St Timothy's Episcopal Church,TX,"Fort Worth, ",76119
(817) 926-4631,3401 Bellaire Dr S,Trinity Episcopal Church,TX,"Fort Worth, ",76109
(817) 535-1525,3201 Martin St,Metropolitian Church of Christ,TX,"Fort Worth, ",76119
(817) 536-1315,4101 Hardeman St,St Mark Cumberland Presbyterian Church,TX,"Fort Worth, ",76119
(817) 534-8246,4301 Miller Ave,Community Of Hope Children's Center,TX,"Fort Worth, ",76119
(817) 926-4626,2416 W Berry St,University Methodist Church,TX,"Fort Worth, ",76110
(817) 737-5470,2930 Pulido St,San Mateo Catholic Church,TX,"Fort Worth, ",76107
(817) 534-7868,3429 Strong Ave,Buen Samaritano,TX,"Fort Worth, ",76105
(817) 534-0210,4301 Campus Dr,Campus Drive United Methodist Church,TX,"Fort Worth, ",76119
(817) 332-1394,3215 W 4th St,Central Texas Methodist Foundation,TX,"Fort Worth, ",76107
(817) 924-8917,3304 Dryden Rd,Saint Andrew Catholic School,TX,"Fort Worth, ",76109
(817) 831-4404,825 Karnes St,St George Catholic Church,TX,"Fort Worth, ",76111
(817) 534-9148,4635 Miller Ave,Full Gospel Holy Temple,TX,"Fort Worth, ",76119
(817) 534-0268,3401 Mountcastle Dr,McMillan United Methodist Church,TX,"Fort Worth, ",76119
(817) 413-8771,4916 Ramey Ave,Precious Cornerstone,TX,"Fort Worth, ",76105
(817) 834-6011,2815 Chenault St,Pentecostal Church Of God,TX,"Fort Worth, ",76111
(817) 924-9984,4417 Sahara Pl,Clark Memorial Chr-God In,TX,"Fort Worth, ",76115
(817) 923-8222,5001 South Fwy,Crossroads Family Church,TX,"Fort Worth, ",76115
(817) 923-8222,5001 South Fwy,First Pentecostal Church,TX,"Fort Worth, ",76115
(817) 413-7005,4400 E Rosedale St,Sunshine Church-God In Christ,TX,"Fort Worth, ",76105
(817) 834-4506,900 Bonnie Brae Ave,The Bridge Church of God,TX,"Fort Worth, ",76111
(817) 534-3232,4404 Baylor St,Nichols Temple Church Of God In Christ,TX,"Fort Worth, ",76119
(817) 923-2990,4201 Trail Lake Dr,First Congregational Church,TX,"Fort Worth, ",76109
(817) 834-6290,1516 N Sylvania Ave,Iglesia Cristiana Camino De Paz,TX,"Fort Worth, ",76111
(817) 531-1804,3713 Brookline Ave,Repairer Of The Breach Apostolic Church Inc,TX,"Fort Worth, ",76119
(817) 838-2539,2717 Carnation Ave,The Light of the World Pentecostal Church,TX,"Fort Worth, ",76111
(817) 536-7814,5020 Ramey Ave,St James A M E Church,TX,"Fort Worth, ",76105
(817) 534-8024,4113 E Berry St,Baptist-Church Bethleham,TX,"Fort Worth, ",76105
(817) 413-3890,2126 Amanda Ave,Christ Centered Missionary,TX,"Fort Worth, ",76105
,,,,,
(936) 399-4606,RR 1,Rock Prairie Baptist Church Parsonage,TX,"North Zulch, ",77872
(972) 623-1988,PO Box 820,Celestial Church of Christ,TX,"Euless, ",76039
(817) 923-0422,2720 S University Dr,Christian Church Foundation,TX,"Fort Worth, ",76109
(817) 921-5683,901 Bonnie Brae Ave,Fellowship Of Love Outreach,TX,"Fort Worth, ",76111
(817) 222-9776,3508 Maurice Ave,St George's Rectory,TX,"Fort Worth, ",76111
(817) 284-8679,3908 Ruth At Glenview Rd,Richland Hills Christian Church,TX,"Fort Worth, ",76118
(817) 923-8459,3020 Lubbock Ave,The College of Saint Thomas More,TX,"Fort Worth, ",76109
(817) 421-3570,,Memorial Baptist Church,TX,"Grapevine, ",76051
(817) 577-1805,,Bethesda Community Church,TX,"Fort Worth, ",76101
(817) 534-7348,,Holy Name Catholic Church,TX,"Fort Worth, ",76101
(817) 246-1874,,North Texas Church of God,TX,"Fort Worth, ",76101
(817) 339-2553,,Union Gospel Mission of Tarrant County,TX,"Fort Worth, ",76102
(817) 534-6943,2513 S Edgewood Ter,Greater Mt Tabor Christian Center,TX,"Fort Worth, ",76105
(817) 927-0868,2618 S University Dr,University Christian Church,TX,"Fort Worth, ",76109
(817) 921-6150,3321 Cleburne Rd,Cambodian Baptist Church,TX,"Fort Worth, ",76110
(817) 336-0111,2704 Ennis Ave,Corinth Baptist Church,TX,"Fort Worth, ",76111
(817) 531-2885,2521 Bishop St,Greater Hope Missionary Baptist Church,TX,"Fort Worth, ",76105
(817) 534-4002,3500 Avenue L,Avenue L Baptist Church,TX,"Fort Worth, ",76105
(817) 536-4346,4121 Wichita St,United Faith Missionary Baptist Church,TX,"Fort Worth, ",76119
(817) 535-1454,3640 Avenue F,St Johns Baptist Church,TX,"Fort Worth, ",76105
(817) 534-8327,3733 Avenue J,Zion Rest Baptist Church,TX,"Fort Worth, ",76105
(817) 534-0283,3208 Wilbarger St,Beth Eden Baptist Church,TX,"Fort Worth, ",76119
(817) 536-0552,3931 Avenue J,Christway Baptist Church,TX,"Fort Worth, ",76105
(817) 535-0942,3316 Sydney St,Greater St Stephen First Baptist Church,TX,"Fort Worth, ",76119
(817) 536-3650,3900 Vaughn Blvd,New Providence Missionary Baptish Church,TX,"Fort Worth, ",76119
(817) 534-0774,3920 E Rosedale St,Greater New Hope Missionary,TX,"Fort Worth, ",76105
(817) 534-7027,2707 Miller Ave,First Pilgrim Valley Baptist Church,TX,"Fort Worth, ",76105
(817) 531-2631,4150 E Rosedale St,Mt Hermon Baptist Church,TX,"Fort Worth, ",76105
(817) 531-2835,5000 Wichita St,New Rising Star Baptist Church,TX,"Fort Worth, ",76119
(817) 534-3764,3732 Miller Ave,True Vine Missionary Baptist,TX,"Fort Worth, ",76119
,,,,,
(817) 534-8931,4300 Eastland St,Eastland Street Baptist Church,TX,"Fort Worth, ",76119
(817) 535-2456,4712 Ramey Ave,Immanuel Baptist Church,TX,"Fort Worth, ",76105
(817) 534-8424,5015 Trentman St,New Creation Missionary Baptist Church,TX,"Fort Worth, ",76119
(817) 535-5736,1600 Effie St,Greater Canaan Mbc,TX,"Fort Worth, ",76105
(817) 534-8611,4901 Flamingo Rd,First Riverside Missionary Baptist Church,TX,"Fort Worth, ",76119
(817) 534-8700,4928 Miller Ave,First Missionary Baptist,TX,"Fort Worth, ",76119
(817) 536-0450,4401 Martin St,Bethesda Missionary Baptist Church,TX,"Fort Worth, ",76119
(817) 535-2769,2615 Lena St,Missionary Baptist Thy Word Church,TX,"Fort Worth, ",76105
(817) 531-1888,3209 Avenue K,Avenue K Church Of Christ,TX,"Fort Worth, ",76105
(817) 703-1051,4601 Wichita St,Carter Metropolitan Cme Chr,TX,"Fort Worth, ",76119
(817) 732-8522,3621 Tulsa Way,Trinity Lutheran Church,TX,"Fort Worth, ",76107
(817) 534-4424,4301 E Lancaster Ave,San Miguel Lutheran Church,TX,"Fort Worth, ",76103
(817) 303-3900,1401 Hillcrest St,Hillcrest Church Of Christ,TX,"Fort Worth, ",76107
(817) 534-4925,4301 Meadowbrook Dr,St Lukes Episcopal Church,TX,"Fort Worth, ",76103
(817) 536-8264,3909 S Edgewood Ter,Eastland Church Of Christ,TX,"Fort Worth, ",76119
(817) 921-5673,1400 E Seminary Dr,Campus Drive Methodist Church,TX,"Fort Worth, ",76115
(817) 731-1984,4028 Calmont Ave,Grace United Methodist Church of Fort Worth,TX,"Fort Worth, ",76107
(817) 737-3161,4200 Camp Bowie Blvd,Arlington Heights Untd Mthdst,TX,"Fort Worth, ",76107
(817) 831-7200,1112 Eagle Dr,Christ The King Catholic Church,TX,"Fort Worth, ",76111
(817) 831-4700,1120 Eagle Dr,Christ The King Catholic Church,TX,"Fort Worth, ",76111
(817) 838-3718,925 Kings Hwy,Kings Highway Baptist Church,TX,"Fort Worth, ",76117
(817) 531-2511,1612 Vaughn Blvd,Faith Sanctuary Christ Holy Sanctified Church,TX,"Fort Worth, ",76105
(817) 733-2074,2701 W Berry St,The Crossroads Church,TX,"Fort Worth, ",76109
(817) 536-6125,3417 Sydney St,Jehovah's Witnesses,TX,"Fort Worth, ",76119
(817) 536-1007,4716 Wichita St,The Church At Philadelphia,TX,"Fort Worth, ",76119
(817) 534-3366,4200 E Berry St,Grace Temple Seventh-Day Church,TX,"Fort Worth, ",76105
(817) 534-5107,2109 Coleman Ave,Bibleway Church-God In Christ,TX,"Fort Worth, ",76105
(817) 536-6112,3629 Knox St,Forest Hill AME Church,TX,"Fort Worth, ",76119
(817) 536-8289,2509 Langston St,Mission of Hope Church of God,TX,"Fort Worth, ",76105
(817) 536-9183,4801 Wilbarger St,Golden Gate Youth Center,TX,"Fort Worth, ",76119
,,,,,
(817) 335-5005,210 Harding St,Greater St James Baptist Chr,TX,"Fort Worth, ",76102
(817) 535-3094,1901 Amanda Ave,Ebenezer Missionary Baptist Church,TX,"Fort Worth, ",76105
(817) 926-9499,3605 El Campo Ave,New Day Services For Children And Families,TX,"Fort Worth, ",76107
(817) 348-8839,3309 Wilbarger St,Christ Cathedral Church,TX,"Fort Worth, ",76119
(817) 536-7808,3600 Vaughn Blvd,Gospel Chapel Church Outreach Ministries,TX,"Fort Worth, ",76119
(817) 534-3155,3533 E Berry St,Learning As The Bible Speaks Assembly,TX,"Fort Worth, ",76105
(817) 531-1790,4312 Wichita St,Holy Ark Church,TX,"Fort Worth, ",76119
(817) 737-5554,2601 Clover Ln,Tarrant Area Community of Churches,TX,"Fort Worth, ",76107
(817) 534-1350,1801 Amanda Ave,Greater Love Holy Family Church,TX,"Fort Worth, ",76105
(817) 938-7131,,Saint Barnabas The Apostle Episcopal Church-Keller,TX,"Keller, ",76244
(817) 447-2635,,Jehovah's Witnesses,TX,"Burleson, ",76028
(817) 332-5071,116 Elm St,Allen Chapel,TX,"Fort Worth, ",76102
(817) 534-1365,3728 E Berry St,Greater Saint Stephen Baptist Church,TX,"Fort Worth, ",76105
(817) 413-0483,4904 Ramey Ave,12 Gates Baptist Church,TX,"Fort Worth, ",76105
(817) 293-8425,1051 Savage Dr,Highland Hills Baptist Church,TX,"Fort Worth, ",76134
(817) 534-5331,5713 Forest Hill Dr,Forest Hill Presbyterian Church,TX,"Forest Hill, ",76119
(817) 534-0278,1310 S Collard St,Polytechnic United Methodist Church,TX,"Fort Worth, ",76105
(817) 332-9061,960 W Bluff St,Getsemani Iglesia Presbiteriana-Bilingual Service,TX,"Fort Worth, ",76102
(817) 738-4789,4629 Bryce Ave,Arlington Heights Christian,TX,"Fort Worth, ",76107
(817) 531-2491,4827 Miller Ave,New Light Free SDA,TX,"Fort Worth, ",76119
(817) 924-2415,3801 McCart Ave,Grace Fellowship Baptist Church,TX,"Fort Worth, ",76110
(817) 531-7320,421 S Ayers Ave,Greater First Missionary Baptist Church,TX,"Fort Worth, ",76103
(817) 478-5811,229 NW 4th St,First United Methodist Church,TX,"Fort Worth, ",76164
(469) 774-8246,2429 Rand St,Beth Shamayim Congregation,TX,"Fort Worth, ",76103
(817) 926-1785,1616 W Gambrell St,Gambrell Street Baptist Church,TX,"Fort Worth, ",76115
(817) 536-3535,1700 Amanda Ave,Stewart's Chapel Christian Methodist Church,TX,"Fort Worth, ",76105
(817) 924-4600,PO Box 100013,Southern Baptist - Hope Works Fellowship,TX,"Fort Worth, ",76185
(817) 501-9707,,Pastor W. Natson (Wedding Minister),TX,"Fort Worth, ",76124
(817) 501-9707,,Minister William B. Natson III,TX,"North Richland Hills, ",76180
(817) 731-0701,5001 Briarhaven Rd,Arborlawn United Methodist Church,TX,"Fort Worth, ",76109
,,,,,
(817) 737-6768,6150 Pershing Ave,Holy Family Catholic Church,TX,"Fort Worth, ",76107
(817) 451-5513,1140 Morrison Dr,City on a Hill,TX,"Fort Worth, ",76120
(817) 838-7184,1909 Thomas Rd,Landmark Baptist Church,TX,"Haltom City, ",76117
(817) 834-1534,2910 Layton Ave,Victory Baptist Church,TX,"Haltom City, ",76117
(817) 483-4140,5100 US 287 Hwy,Faith Assembly Church and School,TX,"Arlington, ",76001
(817) 478-4102,4201 Little Rd,Tate Springs Baptist Church,TX,"Arlington, ",76016
(817) 294-2900,6242 Hulen Bend Blvd,Legacy Worship Center,TX,"Fort Worth, ",76132
(817) 560-7830,1309 S Cherry Ln,Truth Ministries,TX,"Fort Worth, ",76108
(817) 577-9673,5612 Glenview Dr,Riverwalk Fellowship,TX,"Haltom City, ",76117
(817) 922-8333,5029 Trail Lake Dr,Christ Fellowship,TX,"Fort Worth, ",76133
(817) 222-3663,2816 Denton Hwy,Gate Church,TX,"Haltom City, ",76117
(817) 492-8399,5709 E Lancaster Ave,Worship & Praise Bible Church,TX,"Fort Worth, ",76112
(817) 921-9305,9417 Crowley Rd,New Generation Praise Worship,TX,"Fort Worth, ",76134
(817) 478-2221,7330 Tree Ridge Ct,Covenant Worship Ctr,TX,"Fort Worth, ",76133
(817) 572-1759,500 Municipal Dr,City Chapel,TX,"Kennedale, ",76060
(817) 377-8222,6610 Southwest Blvd,Trinity Chapel Bible Church,TX,"Benbrook, ",76109
(817) 483-9151,929 Corry A Edwards Dr,Tabernacle of Praise,TX,"Kennedale, ",76060
(817) 478-0428,611 Little School Rd,Life Fellowship Church,TX,"Kennedale, ",76060
(817) 496-8361,201 Sandy Ln,Romans VIII Ministries,TX,"Fort Worth, ",76120
(817) 451-0937,1450 Oak Hill Rd,Grace Bible Church,TX,"Fort Worth, ",76112
(817) 759-0300,4051 Denton Hwy,Wisdom International,TX,"Haltom City, ",76117
(817) 922-8333,3901 S Hulen St,Christ Fellowship,TX,"Fort Worth, ",76109
(817) 361-6785,3651 Sycamore School Rd,Joy Life Center,TX,"Fort Worth, ",76133
(817) 293-5561,1501 W Everman Pkwy,Willow Creek Baptist Church,TX,"Fort Worth, ",76134
(817) 625-6080,3980 Boat Club Rd,Community Church Of River Oaks,TX,"Fort Worth, ",76135
(817) 293-8033,440 Shelby Rd,True Praise Spiritual Church,TX,"Fort Worth, ",76140
(817) 370-2911,6525 Dan Danciger Rd,Unity of Faith Christian Center,TX,"Fort Worth, ",76133
(817) 246-1170,1500 Meadow Park Dr,Bethany Christian Church,TX,"Fort Worth, ",76108
(817) 534-2635,5225 Ramey Ave,Bivens Roy W,TX,"Fort Worth, ",76105
(817) 738-7459,5237 Kilpatrick Ave,Como 1st Baptist Church Education Center,TX,"Fort Worth, ",76107
,,,,,
(817) 534-3534,5205 Carol Ave,Christ Centered Missionary Baptist Church,TX,"Fort Worth, ",76105
(817) 496-1530,5230 Cox St,Hedge Highway Church,TX,"Fort Worth, ",76105
(817) 496-6321,3909 Clotell Dr,St James AME Church,TX,"Fort Worth, ",76119
(817) 831-2548,1941 Haltom Rd,Life Church,TX,"Haltom City, ",76117
(817) 654-0877,3625 E Loop 820 S,Without Walls Church,TX,"Fort Worth, ",76119
(817) 378-9548,2816 Prospect Ave,Thompson Chapel United Country,TX,"Fort Worth, ",76106
(817) 624-4562,3512 Decatur Ave,Decatur Avenue Church Of Christ,TX,"Fort Worth, ",76106
(817) 386-3000,6116 Southwest Blvd,Christ The Redeemer Anglican Church,TX,"Benbrook, ",76109
(817) 731-3300,6251 Oakmont Trl,Fort Worth Presbyterian Church,TX,"Fort Worth, ",76132
(817) 759-1603,6801 Old Randol Mill Rd,Ends of The Earth Ministries,TX,"Fort Worth, ",76120
(817) 624-7075,5413 Cowden St,New Way Church,TX,"Fort Worth, ",76114
(817) 284-0393,6355 Boulevard 26,Zion Lutheran Church,TX,"North Richland Hills, ",76180
(817) 427-0010,7101 Airport Fwy,Mercy Seat,TX,"Richland Hills, ",76118
(817) 244-5422,4601 Williams Rd,Williams Road Baptist Church,TX,"Benbrook, ",76116
(817) 595-2064,6931 Baker Blvd,Victory Assembly Of God,TX,"Richland Hills, ",76118
(817) 284-5966,3301 Norton Dr,Zion Ministries,TX,"Richland Hills, ",76118
(817) 232-5300,2421 Cantrell Sansom Rd,Real Life Church,TX,"Fort Worth, ",76131
(817) 551-2333,6901 Wichita St,Southside Christian Centers,TX,"Forest Hill, ",76140
(817) 535-8350,2100 Dillard St,Larkin Memorial I M E,TX,"Fort Worth, ",76105
(817) 413-7433,5204 Willie St,Gospel Temple,TX,"Fort Worth, ",76105
(682) 647-1554,3001 Selma St,Comunidad Cristina Berea,TX,"Fort Worth, ",76111
(817) 626-4418,2003 Prairie Ave,Temple Principe De Paz,TX,"Fort Worth, ",76164
(817) 624-1671,1301 NW 25th St,"Weatherd, Roscoe",TX,"Fort Worth, ",76164
(817) 831-5016,2818 N Beach St,Iglesia Betesda,TX,"Haltom City, ",76111
(817) 446-1999,1238 Woodhaven Blvd,The Potter House of Fort Worth,TX,"Fort Worth, ",76112
(817) 457-7755,5822 E Berry St,First Redemption International Ministry,TX,"Fort Worth, ",76119
(817) 264-6158,2212 Hooks Ln,Refreshing Mornings,TX,"Fort Worth, ",76112
(817) 531-2580,6400 Hartman Rd,"Sullivan, S L",TX,"Forest Hill, ",76119
(817) 625-7877,2421 NW 18th St,Igelesia Templo Jerusalem,TX,"Fort Worth, ",76106
(817) 737-7662,2501 Ridgmar Plz,Soma USA,TX,"Fort Worth, ",76116
,,,,,
(817) 353-0506,3705 Century Pl # 1104,Chosen By God Ministries,TX,"Fort Worth, ",76133
(817) 439-9310,2127 Skyline Dr,Skyline Drive Kingdom Hall,TX,"Fort Worth, ",76114
(817) 446-0099,6720 Brentwood Stair Rd,Southwest District Uua,TX,"Fort Worth, ",76112
(817) 244-6032,3608 Ramona Dr,Grace Country Cowboy Church,TX,"Fort Worth, ",76116
(817) 737-3733,7924 Camp Bowie West Blvd,Freedom Temple of Praise,TX,"Fort Worth, ",76116
(817) 370-6464,7455 S Hulen St,The Church of The Lord Jesus Christ,TX,"Fort Worth, ",76133
(817) 284-2600,6906 Baker Blvd,Soteria Life Ministries,TX,"Richland Hills, ",76118
(817) 834-4506,2012 Bonnie Brae Ave,Riverside Church-God In Christ,TX,"Fort Worth, ",76111
(817) 293-2222,6410 South Fwy,New Hope Fellowship,TX,"Fort Worth, ",76134
(817) 478-3072,5000 Sun Valley Dr,Sara Esquivel Ministries,TX,"Fort Worth, ",76119
(817) 263-4221,6226 McCart Ave,Agape Community Fellowship,TX,"Fort Worth, ",76133
(817) 838-8381,5617 Diamond Oaks Dr S,Calvary Chapel,TX,"Haltom City, ",76117
(817) 361-8860,2725 Altamesa Blvd,Praise Center,TX,"Fort Worth, ",76133
(817) 386-7203,5813 Broadway Ave,Bread Of Life Ministries,TX,"Haltom City, ",76117
(817) 281-7050,4605 Denton Hwy,The Joseph Storehouse,TX,"Haltom City, ",76117
(817) 293-7772,1420 W Everman Pkwy,Willow Creek Baptist Church,TX,"Fort Worth, ",76134
(817) 246-1099,7916 White Settlement Rd,Wat Busayadhammvanaram,TX,"Fort Worth, ",76108
(817) 834-4143,4009 Haltom Rd,Gospel Light Ministries,TX,"Haltom City, ",76117
(817) 560-1620,8200 Tumbleweed Trl,Horizons of Hope Church,TX,"Fort Worth, ",76108
(817) 768-7969,5697 B West Creek Dr,Gospel Springs International,TX,"Fort Worth, ",76133
(817) 831-1004,4755 North Fwy,Iglesia Bautista Getsemani,TX,"Fort Worth, ",76131
(817) 572-1127,116 E Broadway St,Revival Worship Center,TX,"Kennedale, ",76060
(817) 292-5581,6218 Hulen Bend Blvd,New Jerusalem Tabernacle of Worship,TX,"Fort Worth, ",76132
(817) 479-6923,5409 Ira St,Wisdom Center,TX,"Haltom City, ",76117
(817) 595-0700,7024 Baker Blvd,National Associates-Christian,TX,"Richland Hills, ",76118
(817) 492-8700,4201 E Loop 820 S # B,Unity Baptist Church,TX,"Fort Worth, ",76119
(817) 446-5683,5917 Tension Dr,Love Faith Hope Power,TX,"Fort Worth, ",76112
(817) 877-1048,6040 Camp Bowie Blvd,Gregory Ministries,TX,"Fort Worth, ",76116
(817) 625-9107,2421 NW 18th St,Iglesia Templo Jerusalem,TX,"Fort Worth, ",76106
(817) 451-5181,1939 Handley Dr,Meadowbrook East Bible Chapel,TX,"Fort Worth, ",76112
,,,,,
(817) 496-6477,1812 Handley Dr,Throne of Grace Ministry,TX,"Fort Worth, ",76112
(817) 731-4721,4050 S Hulen St,Congregation Ahavath Sholom,TX,"Fort Worth, ",76109
(817) 386-2700,2814 Oscar Ave,Fountain of Mercy,TX,"Fort Worth, ",76106
(817) 625-6649,2301 Loving Ave,Elim Templo,TX,"Fort Worth, ",76164
(817) 551-6030,137 Sheffield Dr,God's Chosen People Church,TX,"Fort Worth, ",76134
(817) 244-1200,7413 Calmont Ave,Believers Fellowship Bible Church,TX,"Fort Worth, ",76116
(866) 492-8393,1805 Everman Pkwy,"Chimney Rock Ministries, Inc.",TX,"Fort Worth, ",76140
(817) 478-0428,116 E Broadway St,Life Fellowship Church,TX,"Kennedale, ",76060
(817) 572-1035,400 Mansfield Cardinal Rd,Evangelica Iglesia,TX,"Kennedale, ",76060
(817) 834-5595,4301 NE 28th St,Christian Center of Ft Worth,TX,"Haltom City, ",76117
(817) 732-2621,5335 Houghton Ave,Jubilee Temple C M E Church,TX,"Fort Worth, ",76107
(817) 332-7141,4900 Briarhaven Rd,Beth-El Congregation,TX,"Fort Worth, ",76109
(817) 626-0620,3005 Oscar Ave,Trinidad Ministries Foundation,TX,"Fort Worth, ",76106
(817) 727-5053,7101 Airport Fwy,Celebrate Recovery at Victory Assembly of God,TX,"Richland Hills, ",76118
(817) 478-6623,309 Kenney St,First Baptist Church,TX,"Kennedale, ",76060
(817) 738-7459,5237 Kilpatrick Ave,Como Community Center,TX,"Fort Worth, ",76107
(817) 293-2222,6410 South Fwy,Hillside Memorial Christian Church,TX,"Fort Worth, ",76134
(817) 294-1234,5747 Westcreek Dr,Islamic Association-Fort Worth,TX,"Fort Worth, ",76133
(817) 457-5433,3825 E Loop 820 S,New Life Restoration Ministry,TX,"Fort Worth, ",76119
(817) 888-3064,5836 Wilkes Dr,Power & Deliverance Christian,TX,"Fort Worth, ",76119
(817) 626-1985,711 NW 29th St,Houston Reginald J,TX,"Fort Worth, ",76106
(817) 293-6598,609 Wichita St,Clark Temple of Praise Church,TX,"Fort Worth, ",76140
(817) 445-1111,7001 E Lancaster AVE,Church of The Harvest,TX,"Fort Worth, ",76112
(817) 483-9151,929 N Bowman Springs Rd,Tabernacle of Praise,TX,"Kennedale, ",76060
(817) 386-7283,8000 W Elizabeth Ln,Fort Worth Metro,TX,"Fort Worth, ",76116
(817) 534-5530,3729 Ruthann Dr,Greater Saint Paul Baptist Church,TX,"Fort Worth, ",76119
(817) 625-8827,1900 Gould Ave,Iglesia Evangelica Roca Fuerte,TX,"Fort Worth, ",76164
(817) 534-8515,6251 Wichita St,Perfect Peace,TX,"Forest Hill, ",76119
(817) 457-1479,3613 Stalcup Rd,Lula McLane Chapel,TX,"Fort Worth, ",76119
(817) 496-2380,2805 Weiler Blvd,Healing Fire Pure Heart Ministries,TX,"Fort Worth, ",76112
,,,,,
(817) 759-2818,2818 Elinor St,Iglesia De Dios,TX,"Fort Worth, ",76111
(817) 293-0771,6851 Wichita St,The Bethany Church,TX,"Forest Hill, ",76140
(817) 626-8266,2700 NW 18th St,Faith Center,TX,"Fort Worth, ",76106
(817) 624-2293,2722 NW 24th St,Cristo Para Todos AG Church,TX,"Fort Worth, ",76106
(817) 292-8200,6620 Westcreek Dr,Forgiven Church,TX,"Fort Worth, ",76133
(817) 478-0275,5470 E Loop 820 S,Ark of Salvation Ministry,TX,"Fort Worth, ",76119
(817) 457-4840,7608 Beckwood Dr,World Baptist Fellowship Mission Ofc,TX,"Fort Worth, ",76112
(817) 451-3752,2100 Morrison Dr,Trinity Christian Church,TX,"Fort Worth, ",76112
(817) 277-1266,1701 T Square Dr,Arabic Christian Fellowship,TX,"Fort Worth, ",76120
(817) 451-0650,5420 Anderson St,Iglesia Ni Cristo,TX,"Fort Worth, ",76105
(817) 446-6552,5084 Brush Creek Rd,Inspiring Higher Purpose Ministries,TX,"Fort Worth, ",76119
(817) 451-2612,2409 Canton Dr,Applegate Robt,TX,"Fort Worth, ",76112
(817) 478-2221,5700 E Loop 820 S,Covenant Worship Center,TX,"Fort Worth, ",76119
(817) 572-1759,4015 Interstate 20,City Chapel,TX,"Kennedale, ",76060
(817) 548-0213,1628 E Square St,Cornerstone of Faith Church,TX,"Fort Worth, ",76120
(817) 378-9994,3050 Schwartz Ave,Rios De Agua Viva Iglesia Cristiana,TX,"Fort Worth, ",76106
(817) 831-6787,5327 Broadway Ave,Iglesia Evangelica Apostoles,TX,"Haltom City, ",76117
(817) 984-1414,2901 Layton Ave,Iglesia Cristiana Agape,TX,"Haltom City, ",76117
(817) 738-7536,5728 White Settlement Rd,Gray George E,TX,"Westworth Village, ",76114
(817) 281-7316,4605 Denton Hwy,World Covenant Ministries Inc,TX,"Haltom City, ",76117
(817) 624-8868,3123 Ellis Ave,Church Of The Holy Spirit,TX,"Fort Worth, ",76106
(817) 740-9001,3420 Clinton Ave,Iglesia Manantial De Vida,TX,"Fort Worth, ",76106
(817) 595-1487,6600 Baker Blvd,Centro Cristiano Bet El,TX,"Richland Hills, ",76118
(817) 377-1098,3011 Lackland Rd,The Door Christian Fellowship,TX,"Fort Worth, ",76116
(817) 842-9035,401 Southwest Plz # 103,Connect Church,TX,"Arlington, ",76016
(817) 451-5513,1140 Morrison Dr,Celebration Fellowship,TX,"Fort Worth, ",76120
(817) 926-8277,3550 SW Loop 820,St Christopher Episcopal Church,TX,"Fort Worth, ",76133
(817) 423-2965,5051 Trail Lake Dr,Unity Church Of Ft Worth,TX,"Fort Worth, ",76133
(817) 292-1400,5522 Whitman Ave,Wedgwood Baptist Church,TX,"Fort Worth, ",76133
(817) 738-8769,5613 Meandering Rd,River Oaks Christian Church,TX,"River Oaks, ",76114
,,,,,
(817) 237-1888,6055 Azle Ave,St Anne's Episcopal Church,TX,"Fort Worth, ",76135
(817) 281-6350,4700 N Beach St,Bethesda Community Church,TX,"Haltom City, ",76137
(817) 731-4480,3508 Blue Springs Dr,Destiny Church,TX,"Fort Worth, ",76123
(817) 831-7970,4200 McKibben St,Friendship Free Will Baptist Church,TX,"Haltom City, ",76117
(817) 483-3723,6741 Oak Crest Dr W,Oakcrest Baptist Church,TX,"Fort Worth, ",76140
(817) 457-2223,2800 E Loop 820 S,Holy Tabernacle COGIC,TX,"Fort Worth, ",76119
(817) 838-0224,3001 Bewley St,Living Word Community Church,TX,"Haltom City, ",76117
(817) 656-2435,4805 NE Loop 820,Glenview Baptist Church,TX,"Fort Worth, ",76137
(817) 483-4973,209 W 3rd St,First Bible Baptist Church,TX,"Kennedale, ",76060
(817) 246-2171,7801 White Settlement Rd,First Baptist Church,TX,"Fort Worth, ",76108
(817) 292-7775,3400 Charleston Ave,Meadowridge Community Baptist,TX,"Fort Worth, ",76123
(817) 656-1509,5737 Fairway Cir,North Richland Hls Baptist Church,TX,"Haltom City, ",76117
(817) 244-1117,930 Winscott Rd,Ridge Community Church,TX,"Benbrook, ",76126
(817) 370-0123,4201 W Risinger Rd,Hallmark Baptist Church,TX,"Fort Worth, ",76123
(817) 560-0032,4513 Williams Rd,Redeemer Lutheran School,TX,"Benbrook, ",76116
(817) 249-4111,1608 High Ridge Rd,Lake Como Church of Christ,TX,"Benbrook, ",76126
(817) 451-7301,5301 E Berry St,House Of Prayer Church Of God In Christ,TX,"Fort Worth, ",76119
(817) 763-9100,5600 River Oaks Blvd,Apostolic Tabernacle-Ft Worth,TX,"River Oaks, ",76114
(817) 626-0620,3005 Oscar Ave,Diamond Hill United Methodist Church,TX,"Fort Worth, ",76106
(817) 244-2326,4950 Williams Rd,Jehovah's Witnesses,TX,"Benbrook, ",76116
(817) 281-2927,4121 Haltom Rd,Haltom City Christian Church,TX,"Haltom City, ",76117
(817) 281-2017,5009 Stanley Keller Rd,Haltom City Church-Nazarene,TX,"Haltom City, ",76117
(214) 724-5658,(FJUUC) 1959 Sandy Ln,The ONE Church (West),TX,"Fort Worth, ",76112
(817) 451-7579,1659 Sandy Ln,King Of Glory Lutheran Church ELCA,TX,"Fort Worth, ",76112
(817) 274-1315,8001 Anderson Blvd,Pantego Bible Church,TX,"Fort Worth, ",76120
(817) 563-7171,3916 Forest Hill Cir,Forest Hill Church Of Christ,TX,"Forest Hill, ",76140
(817) 625-1764,2705 Biway St,Northwest Fort Worth Seventh,TX,"Fort Worth, ",76114
(817) 838-6834,3200 Denton Hwy,St Luke United Methodist Church,TX,"Haltom City, ",76117
(817) 834-1916,3313 Haltom Rd,Haltom Road Baptist Church,TX,"Haltom City, ",76117
(817) 831-0588,3141 Carson St,Birdville Baptist Church,TX,"Haltom City, ",76117
,,,,,
(817) 838-7340,4209 McComas Rd,Ridgecrest Baptist Church,TX,"Haltom City, ",76117
(817) 292-1753,7700 McCart Ave,Great Commission Baptist Church,TX,"Fort Worth, ",76133
(817) 624-7081,2408 Azle Ave,Salvation Army Thrift Store,TX,"Fort Worth, ",76106
(817) 568-1122,7501 Crowley Rd,Harvest Assembly Of God,TX,"Fort Worth, ",76134
(817) 921-5200,4805 Arborlawn Dr,McKinney Memorial Bible Church,TX,"Fort Worth, ",76109
(817) 624-2111,5025 Jacksboro Hwy,Northwest Bible Church,TX,"Fort Worth, ",76114
(817) 738-0612,6720 W Elizabeth Ln,Ridglea Christian Church,TX,"Fort Worth, ",76116
(817) 293-4947,7101 Trail Lake Dr,Southwest Christian Church,TX,"Fort Worth, ",76133
(817) 738-3618,5228 Goodman Ave,Como First Missionary Baptist Church,TX,"Fort Worth, ",76107
(817) 293-5050,5745 James Ave,Convergence Church,TX,"Fort Worth, ",76134
(817) 744-8449,4833 Selkirk Dr,Southcliff Baptist Church,TX,"Fort Worth, ",76109
(817) 738-3885,5513 Como Dr,Greater Rising Star Baptist Church,TX,"Fort Worth, ",76107
(817) 924-6833,4141 Whitfield Ave,Southcliff Baptist Chr-Fort,TX,"Fort Worth, ",76109
(817) 731-8729,5601 Blackmore Ave,St Luke Missionary Baptist Church,TX,"Fort Worth, ",76107
(817) 924-2241,4100 SW Loop 820,Southcliff Baptist Church,TX,"Fort Worth, ",76109
(817) 551-7256,6000 Crowley Rd,Fair Park Baptist Church,TX,"Fort Worth, ",76134
(817) 293-0366,6300 South Fwy,Petra Baptist Church,TX,"Fort Worth, ",76134
(817) 738-3833,5705 Donnelly Ave,Greater Strangers Rest Baptist Church,TX,"Fort Worth, ",76107
(817) 737-9467,5637 Chariot Dr,Pilgrim Rest Baptist Church,TX,"Fort Worth, ",76107
(817) 737-6264,4100 Horne St,Zion Baptist Church,TX,"Fort Worth, ",76107
(817) 626-2096,2923 Ellis Ave,Rose Hill Baptist Church,TX,"Fort Worth, ",76106
(817) 732-4421,6037 Calmont Ave,Ridglea Baptist Church,TX,"Fort Worth, ",76116
(817) 626-0911,3124 N Houston St,Mt Nebo Missionary Baptist Church,TX,"Fort Worth, ",76106
(817) 294-5822,2633 Altamesa Blvd,Southwood Baptist Church,TX,"Fort Worth, ",76133
(817) 624-3918,1515 Long Ave,River Oaks Baptist Church,TX,"River Oaks, ",76114
(817) 626-2588,3201 Lee Ave,Lee Ave Baptist Church,TX,"Fort Worth, ",76106
(817) 293-2760,7201 Crowley Rd,South Park Baptist Church,TX,"Fort Worth, ",76134
(817) 293-7111,7300 South Fwy,New Bethel Baptist Church,TX,"Fort Worth, ",76134
(817) 626-5560,4017 Deen Rd,Sabine Place Baptist Church,TX,"Fort Worth, ",76106
(817) 738-9339,3283 Olive Pl,Olive Place Baptist Church,TX,"Fort Worth, ",76116
,,,,,
(817) 551-5562,510 N Race St,Greater Mount Moriah Baptist Church,TX,"Fort Worth, ",76140
(817) 626-5142,2104 Roberts Cut Off Rd,Inspiration Point Baptist Church,TX,"Fort Worth, ",76114
(817) 294-0703,6721 Del Prado Ave,Shiloh Missionary Baptist Church,TX,"Fort Worth, ",76133
(817) 293-8990,1420 W Everman Pkwy,Hanmaum International Baptist Church,TX,"Fort Worth, ",76134
(817) 568-1335,700 W Enon Ave,Faith Baptist Temple-Schools,TX,"Fort Worth, ",76140
(817) 626-8964,3410 NW 30th St,Maranatha Baptist Church,TX,"Fort Worth, ",76106
(817) 923-6800,7305 Kermit Ave,Agape Baptist Church,TX,"Fort Worth, ",76116
(817) 346-7782,7401 W Cleburne Rd,Discovery Church,TX,"Fort Worth, ",76133
(817) 244-6684,3520 Bonnie Dr,Faith Baptist Church,TX,"Fort Worth, ",76116
(817) 294-3128,7307 S Hulen St,Bibleway Deliverance Baptist Church,TX,"Fort Worth, ",76133
(817) 568-0100,9224 Crowley Rd,Christian Faith Baptist Church,TX,"Fort Worth, ",76134
(817) 423-8800,7350 Granbury Rd,South Hills Baptist Church,TX,"Fort Worth, ",76123
(817) 244-0216,8500 Chapin Rd,Western Hills Baptist Church,TX,"Fort Worth, ",76116
(817) 246-4461,8306 Wyatt Dr,Wyatt Drive Baptist Church,TX,"Fort Worth, ",76108
(817) 293-5419,1301 McPherson Rd,McPherson Rd Baptist Church,TX,"Fort Worth, ",76140
(817) 624-2768,2001 Lincoln Ave,North Side Church Of Christ,TX,"Fort Worth, ",76164
(817) 732-0700,5400 Chariot Dr,New Creation Church,TX,"Fort Worth, ",76107
(817) 732-5769,4901 Bourine St,Harlem Hills Church Of Christ,TX,"Fort Worth, ",76107
(817) 732-3388,6201 Camp Bowie Blvd,Ridglea Presbyterian Church,TX,"Fort Worth, ",76116
(817) 624-9265,4350 River Oaks Blvd,John Knox Presbyterian,TX,"Fort Worth, ",76114
(817) 624-1780,1025 Merritt St,Castleberry Church of Christ,TX,"River Oaks, ",76114
(817) 292-4908,6417 Landview Dr,Woodmont Church Of Christ,TX,"Fort Worth, ",76133
(817) 292-1338,5709 Granbury Rd,St Matthew's Lutheran Church,TX,"Fort Worth, ",76133
(817) 738-7269,6110 White Settlement Rd,Church of Christ West Side,TX,"Westworth Village, ",76114
(817) 738-0504,5910 Black Oak Ln,St Elisabeth Episcopal Church,TX,"River Oaks, ",76114
(817) 293-7055,1201 Sycamore School Rd,Highland Church Of Christ,TX,"Fort Worth, ",76134
(817) 293-3792,1404 Sycamore School Rd,St Luke Cumberland Presby Chr,TX,"Fort Worth, ",76134
(817) 732-3121,3290 Lackland Rd,Christ The King Episcopal Church,TX,"Fort Worth, ",76116
(817) 738-6222,4551 Southwest Blvd,Faith Lutheran Church,TX,"Fort Worth, ",76116
(817) 292-6149,7120 W Cleburne Rd,Trinity Cumberland Presbyterian Church,TX,"Fort Worth, ",76133
,,,,,
(817) 294-1260,4600 Altamesa Blvd,Altamesa Church of Christ,TX,"Fort Worth, ",76133
(817) 370-6242,4409 Sycamore School Rd,Christ Lutheran Church,TX,"Fort Worth, ",76133
(817) 292-1155,7001 Trail Lake Dr,Westminster Presbyterian Church,TX,"Fort Worth, ",76133
(817) 293-1197,1020 Townley Dr,Everman Church Of Christ,TX,"Fort Worth, ",76140
(817) 246-8000,8000 Western Hills Blvd,West Freeway Church Of Christ,TX,"Fort Worth, ",76108
(817) 246-4242,1900 S Las Vegas Trl,Las Vegas Trail Church of ChristForth Worth,TX,"Fort Worth, ",76108
(817) 244-0132,8800 Chapin Rd,Western Hills Church Of Christ,TX,"Fort Worth, ",76116
(817) 569-7543,270 Byron St,St Augustine Catholic Church,TX,"Fort Worth, ",76114
(817) 626-9404,2804 Prospect Ave,Thompson Chapel United Methodist,TX,"Fort Worth, ",76106
(817) 737-6510,6036 Locke Ave,Ridglea United Methodist Church,TX,"Fort Worth, ",76116
(817) 738-9925,5508 Black Oak Ln,St Paul's Catholic Church,TX,"River Oaks, ",76114
(817) 361-8720,3575 Altamesa Blvd,St Bartholomew Catholic Church,TX,"Fort Worth, ",76133
(817) 292-7703,3601 Altamesa Blvd,St Bartholomew Catholic Church,TX,"Fort Worth, ",76133
(817) 568-0313,7712 South Fwy,Teaching Word Faith,TX,"Fort Worth, ",76134
(817) 738-5184,5000 Southwest Blvd,Bethel United Methodist Church,TX,"Fort Worth, ",76116
(817) 293-5433,1603 Everman Pkwy,New Life Christian Fellowship,TX,"Fort Worth, ",76140
(817) 292-4551,7635 S Hulen St,Genesis United Methodist Church,TX,"Fort Worth, ",76133
(817) 246-5491,301 Ralph St,Faith Baptist Fellowship,TX,"Fort Worth, ",76108
(817) 568-1990,2005 McPherson Rd,Freedom Church,TX,"Fort Worth, ",76140
(817) 738-6329,5235 Bonnell Ave,Johnson Chapel A M E Church,TX,"Fort Worth, ",76107
(817) 625-4840,2224 Ross Ave,Spanish Assemblies of God,TX,"Fort Worth, ",76164
(817) 763-8477,5434 Fletcher Ave,Crouch Memorial Church Of God,TX,"Fort Worth, ",76107
(817) 738-9096,5601 Fletcher Ave,Lake Como Apartments,TX,"Fort Worth, ",76107
(817) 377-4624,5606 Geddes Ave,Spirit Of Truth Church Of God In Christ,TX,"Fort Worth, ",76107
(817) 423-2965,5405 Woodway Dr,Unity Church of Fort Worth,TX,"Fort Worth, ",76133
(817) 738-5417,5700 W Vickery Blvd,Bethel Temple Church,TX,"Fort Worth, ",76107
(817) 625-1209,3006 Schwartz Ave,Tom Rickard Memorial Child,TX,"Fort Worth, ",76106
(817) 989-7752,3625 Littlepage St,Lion-Judah Chr-God In Christ,TX,"Fort Worth, ",76107
(817) 923-5433,5298 Trail Lake Dr,Life Covenant Church,TX,"Fort Worth, ",76133
(817) 626-1985,711 NW 29th St,Wesley Chapel A M E Church,TX,"Fort Worth, ",76106
,,,,,
(817) 732-0043,5620 Black Oak Ln,River Oaks Church-Nazarene,TX,"River Oaks, ",76114
(817) 294-5729,7051 McCart Ave,Fort Worth First Seventh-Day,TX,"Fort Worth, ",76133
(817) 420-9822,6301 Granbury Rd,Grace Tabernacle Church of the Nazarene,TX,"Fort Worth, ",76133
(817) 292-4230,5001 Altamesa Blvd,Church of Jesus Christ of Latter-Day Saints,TX,"Fort Worth, ",76133
(817) 551-3758,1901 Everman Pkwy,Sweethome Church-God In Christ,TX,"Fort Worth, ",76140
(817) 570-9062,4500 Old Benbrook Rd,Jehovahs Witnesses Fort Worth TX West Spanish,TX,"Fort Worth, ",76116
(817) 294-0325,5201 Altamesa Blvd,St Barbara's Orthodox Church,TX,"Fort Worth, ",76133
(817) 457-8925,3809 Curtis Dr,Church Of Jesus Christ Of Latter Day Saints,TX,"Fort Worth, ",76116
(817) 293-3111,10700 Old Burleson Rd,Turning Point Church,TX,"Fort Worth, ",76140
(817) 377-4704,4066 Kingsridge Rd,McKinney Memorial Bible Church,TX,"Fort Worth, ",76109
(817) 732-0729,5336 Carver Dr,Bible Way Baptist Church,TX,"Fort Worth, ",76107
(817) 834-5050,5101 Airport Fwy,On The Way,TX,"Haltom City, ",76117
(817) 626-2096,2923 Ellis Ave,One Hope One Vision,TX,"Fort Worth, ",76106
(817) 446-4905,2507 E Loop 820,New Victorious Baptist Church,TX,"Fort Worth, ",76112
(817) 292-9787,7100 S Hulen St,Hulen Street Church,TX,"Fort Worth, ",76133
(817) 246-4579,7800 Corina Dr,Corina Drive Baptist Church,TX,"Fort Worth, ",76108
(817) 423-1918,4532 Altamesa Blvd,Altamesa Church Of Christ Small Group House,TX,"Fort Worth, ",76133
(817) 731-3300,6501 Hulen Bend Blvd,Fort Worth Presbyterian Church,TX,"Fort Worth, ",76132
(817) 281-0773,8300 West Fwy,The Hills Church Of Christ,TX,"Fort Worth, ",76108
(817) 446-4114,5116 E Lancaster Ave,Our Lady of Fatima Church,TX,"Fort Worth, ",76112
(817) 921-4533,3550 SW Loop 820,Episcopal Diocese of Fort Worth,TX,"Fort Worth, ",76133
(817) 492-9276,7017 Hightower St,Saint Rita Catholic Church,TX,"Fort Worth, ",76112
(817) 838-7534,4600 Wheeler St,Mercy Heart,TX,"Fort Worth, ",76117
(817) 744-7191,5809 Wreay Dr,Forest Hill Church God In Chrst,TX,"Fort Worth, ",76119
(817) 446-3278,5929 E Lancaster Ave,Eastside Ministries,TX,"Fort Worth, ",76112
(817) 625-6080,1200 Roberts Cut Off Rd,Community Church Of River Oaks,TX,"River Oaks, ",76114
(817) 626-8266,2700 NW 18th St,Centro De Fe,TX,"Fort Worth, ",76106
(817) 624-3344,3804 N Grove St,Life Unlimited-Larry Joe Wright Ministries,TX,"Fort Worth, ",76106
(817) 570-9879,3263 Tex Blvd,Ministerios Cristo Vive,TX,"Fort Worth, ",76116
(817) 292-4444,6233 Oakmont Blvd,Hindu Temple of Greater Fort Worth,TX,"Fort Worth, ",76132
,,,,,
(817) 726-7721,3651 Sycamore School Rd,Divine Intervention Church of Deliverance,TX,"Fort Worth, ",76133
(817) 293-1500,5301 Altamesa Blvd,Christian Life Preparatory School,TX,"Fort Worth, ",76123
(817) 244-1251,8700 Chapin Rd.,westside presbyterian church,TX,"fort worth, ",76116
(817) 282-3800,7001 Boulevard 26,Child Evangelism Fellowship,TX,"North Richland Hills, ",76180
(817) 834-4147,5708 Diamond Oaks Dr S,Diamond Oaks Worship Center,TX,"Haltom City, ",76117
(817) 281-3439,4200 Denton Hwy,Christ The King Lutheran Church ELCA,TX,"Haltom City, ",76117
(817) 626-1000,3527 NE Loop 820 820 NW,Crosspoint Nazarene Church,TX,"Fort Worth, ",76106
(817) 281-6446,4700 N Beach St,Bethesda Christian School,TX,"Haltom City, ",76137
(817) 293-1500,6250 South Fwy,Christ Life Church,TX,"Fort Worth, ",76134
(817) 457-1665,625 Williams Rd,Calvary Baptist Church,TX,"Fort Worth, ",76120
(817) 561-0879,5148 Treepoint Dr,Southwestern District-Chrstn,TX,"Arlington, ",76017
(817) 625-6281,4800 Ohio Garden Rd,River Oaks United Methodist Church,TX,"River Oaks, ",76114
(817) 534-7013,5107 Ramey Ave,Shining Light Baptist Church,TX,"Fort Worth, ",76105
(817) 536-3558,1732 Liberty St,Greather St Mark Missionary Baptist Church,TX,"Fort Worth, ",76105
(817) 536-8229,4201 Village Creek Rd,Forest Hill Missionary Baptist Church,TX,"Fort Worth, ",76119
(817) 534-2635,5225 Ramey Ave,Sweethome Baptist Church,TX,"Fort Worth, ",76105
(817) 446-6699,5227 Turner St,New Zion Baptist Church,TX,"Fort Worth, ",76105
(817) 737-5795,5312 Houghton Ave,Pleasant MT Gilead Missionary,TX,"Fort Worth, ",76107
(817) 536-9667,5205 Carol Ave,New Harvest Miss Baptist Church,TX,"Fort Worth, ",76105
(817) 731-3502,5325 Bonnell Ave,Mt Morriah Baptist Church,TX,"Fort Worth, ",76107
(817) 451-0083,5420 Cottey St,Antioch Baptist Church,TX,"Fort Worth, ",76105
(817) 386-5533,5420 Flamingo Rd,New Fellowship Baptist Church,TX,"Fort Worth, ",76119
(817) 457-7993,5129 Wilbarger St,Freedom Baptist Church,TX,"Fort Worth, ",76119
(817) 731-7400,356 Nursery Ln,First African Baptist Church,TX,"Fort Worth, ",76114
(817) 451-5054,5500 Rickenbacker Pl,Providence Baptist Church,TX,"Fort Worth, ",76112
(817) 451-4206,5500 E Berry St,St Matthews Baptist Church,TX,"Fort Worth, ",76119
(817) 451-2818,3700 Waldorf St,New Bethany Baptist Church,TX,"Fort Worth, ",76119
(817) 624-2926,2108 McKinley Ave,Greater Worth Hill Missionary,TX,"Fort Worth, ",76164
(817) 534-1779,5809 Hartman Rd,True Love Missionary Baptist Church,TX,"Fort Worth, ",76119
(817) 625-0893,2627 Clinton Ave,Peaceful Rest Baptist Church,TX,"Fort Worth, ",76164
,,,,,
(817) 624-1671,1301 NW 25th St,New Rose Missionary Baptist Church,TX,"Fort Worth, ",76164
(817) 626-7415,2823 N Houston St,Shiloh Missionary Baptist Church,TX,"Fort Worth, ",76106
(817) 496-9708,4801 E Loop 820 S,St Jude Missionary Baptist Church,TX,"Fort Worth, ",76119
(817) 457-0147,5932 Eastland St,Oakwood Baptist Church,TX,"Fort Worth, ",76119
(817) 732-0361,308 Burton Hill Rd,Burton Hill Baptist Church,TX,"Westworth Village, ",76114
(817) 378-0505,3229 N Elm St,Waves Of Faith,TX,"Fort Worth, ",76106
(817) 626-7943,3001 Angle Ave,New Hope Missionary Baptist,TX,"Fort Worth, ",76106
(817) 626-6422,3510 Schwartz Ave,Dixie Heights Baptist Church,TX,"Fort Worth, ",76106
(817) 457-0700,6310 Willard Rd,Community Missionary Baptist Church,TX,"Fort Worth, ",76119
(817) 838-7074,3516 Regal Rd,Lakeland Street Baptist Church,TX,"Fort Worth, ",76111
(817) 626-6858,3713 Decatur Ave,Decatur Avenue Baptist Church,TX,"Fort Worth, ",76106
(817) 451-4686,6801 Church St,Handley Baptist Church,TX,"Fort Worth, ",76112
(817) 626-6488,3216 McKinley Ave,Long Avenue Baptist Church,TX,"Fort Worth, ",76106
(817) 293-1694,501 W Barron Ave,First Baptist Church,TX,"Fort Worth, ",76140
(903) 843-3178,GLADEWATER Hwy,Gilgal Baptist Church,TX,"Gilmer, ",75644
(817) 457-5056,5505 Ramey Ave,St Simon of Cyrene Episcopal,TX,"Fort Worth, ",76112
(817) 451-3311,5801 Truman Dr,St Peter Presbyterian Church,TX,"Fort Worth, ",76112
(817) 738-7536,5728 White Settlement Rd,Westworth Church Of Christ,TX,"Westworth Village, ",76114
(817) 451-7410,3029 Handley Dr,Handley Church Of Christ,TX,"Fort Worth, ",76112
(817) 626-1600,3209 McKinley Ave,Worth Hills Church Of Christ,TX,"Fort Worth, ",76106
(817) 293-5140,5616 Crowley Rd,Edge Park United Methodist Church,TX,"Fort Worth, ",76134
(817) 838-7828,2028 N Riverside Dr,Riverside Advent Christian Church,TX,"Fort Worth, ",76111
(817) 535-4114,5430 Miller Ave,Nations Worship Center,TX,"Fort Worth, ",76119
(817) 451-9395,5550 E Lancaster Ave,St Rita's Catholic Church,TX,"Fort Worth, ",76112
(817) 624-9687,3425 N Elm St,El Calvario Methodist Church,TX,"Fort Worth, ",76106
(817) 293-0577,530 Townley Dr,Everman United Methodist Church,TX,"Fort Worth, ",76140
(817) 246-2032,1201 S Cherry Ln,Peter The Apostle Catholic School,TX,"Fort Worth, ",76108
(817) 244-1153,2820 Laredo Dr,Western Hills United Methodist Church,TX,"Fort Worth, ",76116
(817) 738-2639,206 Koldin Ln,Westworth Village Baptist Temple,TX,"Westworth Village, ",76114
(817) 483-9899,1034 E Enon Ave,Bible Baptist Church,TX,"Fort Worth, ",76140
,,,,,
(817) 246-3738,138 West Pl,Fort Worth Baptist Temple,TX,"Fort Worth, ",76108
(817) 624-3222,307 W Exchange Ave,Church Of The Open Door-Baptist,TX,"Fort Worth, ",76164
(817) 624-8855,2418 Chestnut Ave,Roca Eterna Church of God,TX,"Fort Worth, ",76164
(817) 292-0873,5701 Westcreek Dr,Rockstar Church,TX,"Fort Worth, ",76133
(817) 378-0921,2517 Loving Ave,Victory Church,TX,"Fort Worth, ",76164
(817) 446-1059,3837 E Loop 820 S,Christian Community Church,TX,"Fort Worth, ",76119
(817) 625-0542,2705 Pearl Ave,Northside Pentecostal Church of Jesus Christ,TX,"Fort Worth, ",76164
(817) 483-1082,5200 David Strickland Rd,Apostolic Church of Fort Worth,TX,"Fort Worth, ",76119
(817) 626-6301,2512 Diamond Rd,Jehovah's Witnesses,TX,"Fort Worth, ",76106
(817) 626-8328,3403 N Harding St,Evangel Assembly Of God Church,TX,"Fort Worth, ",76106
(817) 536-5084,236 Bellvue Dr,Arising True Holiness Church,TX,"Fort Worth, ",76134
(817) 626-0588,3204 McKinley Ave,Saint Mary Church Of God In Christ,TX,"Fort Worth, ",76106
(817) 740-0474,2127 Skyline Dr,Jehovah's Witnesses,TX,"Fort Worth, ",76114
(817) 626-4461,4100 Blue Mound Rd,Our Lady of Guadalupe,TX,"Fort Worth, ",76106
(817) 246-2093,209 Ralph St,First Assembly Of God Of White Settlement,TX,"Fort Worth, ",76108
(817) 732-1424,5001 Crestline Rd,All Saints Episcopal Church,TX,"Fort Worth, ",76107
(817) 624-2410,2410 Warwick Ave,Gospel Lighthouse Outreach,TX,"Fort Worth, ",76106
(817) 625-1209,3006 Schwartz Ave,Diamond Hill United Methodist Church,TX,"Fort Worth, ",76106
(817) 851-1357,1074 S Erie St,Redeeming Love Christian Center,TX,"Fort Worth, ",76112
(817) 921-3195,5685 Westcreek Dr,Beth Yeshua Congregation,TX,"Fort Worth, ",76133
(817) 370-2788,5689B Westcreek Dr,Aquarian Center Of Light,TX,"Fort Worth, ",76133
(817) 624-9687,3425 N Elm St,Victory Temple Ministries,TX,"Fort Worth, ",76106
(817) 451-9620,5500 Woodland Park Blvd,International Convention-Faith,TX,"Arlington, ",76013
(817) 292-9292,5301 Altamesa Blvd,Christ Church Assembly Of God,TX,"Fort Worth, ",76123
(817) 413-8771,5153 E Berry St,Cornerstone Missionary Baptist,TX,"Fort Worth, ",76119
(817) 831-0754,3016 Selma St,Springdale Baptist Church,TX,"Fort Worth, ",76111
(817) 457-0583,3809 Waldorf St,Bible Way Baptist Church,TX,"Fort Worth, ",76119
(817) 834-5373,2200 N Beach St,Beach Street Baptist Church,TX,"Haltom City, ",76111
(817) 732-5566,620 Churchill Rd,Trinity Baptist Church,TX,"Fort Worth, ",76114
(817) 457-9790,5762 Fitzhugh Ave,Christland Baptist Church,TX,"Fort Worth, ",76119
,,,,,
(682) 224-3583,6013 Elliott Reeder Rd,Valley Baptist Church,TX,"Haltom City, ",76117
(817) 451-3721,2200 Oak Hill Rd,Saintsville Baptist Church,TX,"Fort Worth, ",76112
(817) 568-1199,7261 Wichita St,Grace Tabernacle Missionary Baptist Church,TX,"Forest Hill, ",76140
(817) 626-7342,3019 Rosen Ave,Bethlehem Baptist Church,TX,"Fort Worth, ",76106
(817) 293-8774,7312 Forest Hill Dr,Greater Sweethome Missionary Baptist Church,TX,"Forest Hill, ",76140
(817) 834-2572,3136 Friendly Ln,Friendly Lane Baptist Church,TX,"Haltom City, ",76117
(817) 457-4362,6600 Ellis Rd,Meadowbrook First Baptist Church,TX,"Fort Worth, ",76112
(817) 457-9481,2700 Sandy Ln,Sandy Lane Baptist Church,TX,"Fort Worth, ",76112
(817) 451-2271,1401 Meadowlane Ter,Mount Moriah Missionary Baptish Church,TX,"Fort Worth, ",76112
(817) 457-5500,6816 Randol Mill Rd,Temple Baptist Church,TX,"Fort Worth, ",76120
(817) 589-0504,7101 Baker Blvd,Messiah Baptist Church,TX,"Richland Hills, ",76118
(817) 446-4773,7510 John T White Rd,Harmony Missionary Baptist Church,TX,"Fort Worth, ",76120
(817) 485-7711,5001 NE Loop 820,First Baptist Church-Ft Worth,TX,"Fort Worth, ",76137
(817) 281-3382,4950 Haltom Rd,Beacon Baptist Church,TX,"Haltom City, ",76117
(817) 284-9630,6540 Glenview Dr,New Beginning Baptist Church,TX,"North Richland Hills, ",76180
(817) 284-7729,RICHLAND Hills Baptist Churc,North Richland Hills Baptist Church,TX,"Fort Worth, ",76101
(817) 834-4228,3517 N Beach St,Fossil Creek Church of Christ,TX,"Fort Worth, ",76111
(817) 451-2382,6516 Brentwood Stair Rd,Bridgewood Church of Christ,TX,"Fort Worth, ",76112
(817) 370-7427,7900 McCart Ave,Grace Lutheran Church-Elca,TX,"Fort Worth, ",76123
(817) 281-2037,5121 Stanley Keller Rd,Browning Heights Presbyterian Church,TX,"Haltom City, ",76117
(817) 446-3980,2515 Tierney Rd,Our Lady-Fatima Catholic Church,TX,"Fort Worth, ",76112
(817) 423-3396,5450 Rutland Ave,Campus Drive United Methodist Church,TX,"Fort Worth, ",76133
(817) 346-2400,3301 Sycamore School Rd,Christ United Methodist Church,TX,"Fort Worth, ",76123
(817) 294-5239,8312 Clearbrook Dr,Christ United Methodist Church Parsonage,TX,"Fort Worth, ",76123
(817) 284-4809,3900 Scruggs Dr,Our Lady Of Mt Carmel Roman Catholic Church,TX,"North Richland Hills, ",76180
(817) 560-2581,4600 Veterans Pkwy,Capstone Church,TX,"Fort Worth, ",76126
(817) 838-7428,4600 Wheeler St,South Haltom Community Church,TX,"Fort Worth, ",76117
(817) 451-3887,1451 Handley Dr,Brentwood Hills Primitive Baptist,TX,"Fort Worth, ",76112
(817) 626-5578,2020 NW 21st St,St Demetrios Greek Orthodox,TX,"Fort Worth, ",76164
(817) 851-1021,3134 Stalcup Rd,Heavenly Gospel Chr-God,TX,"Fort Worth, ",76119
,,,,,
(817) 831-0911,3203 NE 28th St,Riverside Community,TX,"Fort Worth, ",76111
(817) 496-1994,5566 Meadowbrook Dr,Redeemed Christian Church Of God,TX,"Fort Worth, ",76112
(817) 451-2612,2409 Canton Dr,Christ Truth League,TX,"Fort Worth, ",76112
(817) 492-1000,6020 Meadowbrook Dr,Assured Faith Church-God In,TX,"Fort Worth, ",76112
(817) 377-1377,5605 Black Oak Ln,Mundo De Fe,TX,"River Oaks, ",76114
(817) 451-3936,2717 Handley Dr,Handley Seventh-Day Adventist,TX,"Fort Worth, ",76112
(817) 834-2134,2601 Thomas Rd,House of Prayer,TX,"Haltom City, ",76117
(817) 492-8540,2000 E Loop 820,New Beginnings International Church,TX,"Fort Worth, ",76112
(817) 496-9124,7336 Beaty St,Jehovah's Witnesses,TX,"Fort Worth, ",76112
(817) 451-1505,1959 Sandy Ln,First Jefferson Unitarian,TX,"Fort Worth, ",76112
(817) 263-5554,7601 Bellaire Dr S,St Peters Antiochian Orthodox,TX,"Fort Worth, ",76132
(817) 457-5211,1470 Morrison Dr,Crossroads Tabernacle,TX,"Fort Worth, ",76112
(817) 284-8870,7012 Baker Blvd,Ark Of Faith,TX,"Richland Hills, ",76118
(817) 561-5589,400 Mansfield Cardinal Rd,Iglesia Evangelica Cristiana,TX,"Kennedale, ",76060
(817) 595-0226,3800 Popplewell St,St Michael Anglican Church,TX,"Richland Hills, ",76118
(817) 451-8221,3509 Burger St,Mount Horum Missionary Baptist Church,TX,"Fort Worth, ",76105
(817) 838-8334,5314 Broadway Ave,Mid-Cities Baptist Temple,TX,"Haltom City, ",76117
(817) 595-2520,4037 Parchman St,North Richland Hills Baptist Church,TX,"North Richland Hills, ",76180
(817) 831-1661,2001 Bonnie Brae Ave,Oakhurst Presbyterian Church,TX,"Fort Worth, ",76111
(817) 451-7796,6815 Manhattan Blvd # 112,Mid Cities District United,TX,"Fort Worth, ",76120
(817) 534-7687,5127 Fitzhugh Ave,Carter Temple New Jerusalem,TX,"Fort Worth, ",76105
(817) 496-2380,2805 Weiler Blvd,Proceeding Word of Faith Ministries,TX,"Fort Worth, ",76112
(817) 284-0014,6517 Harmonson Rd,Templo Doulos Church of The Nazarene,TX,"North Richland Hills, ",76180
(817) 232-5300,2421 Cantrell Sansom Rd,Calvary Family Church,TX,"Fort Worth, ",76131
(817) 590-2400,6331 Boulevard 26,Cross Roads Church-Ft Worth,TX,"North Richland Hills, ",76180
(817) 563-5497,6804 W Interstate 20,Jehovah's Witnesses,TX,"Arlington, ",76017
(817) 624-9714,2412 Salisbury Ave # B,Hilltop Baptist Church,TX,"Fort Worth, ",76106
(817) 834-6551,2002 Higgins Ln,Oak Knoll Baptist Church,TX,"Haltom City, ",76111
(817) 626-3783,2524 Roosevelt Ave,Rosen Heights Baptist Church,TX,"Fort Worth, ",76164
(817) 478-1007,6901 Forest Hill Dr,Berea Baptist Church,TX,"Forest Hill, ",76140
,,,,,
(817) 446-7725,6800 Manhattan Blvd # 3,Victorious Living Chrstn Flwsp,TX,"Fort Worth, ",76120
(817) 297-8844,10217 N Crowley Rd,Christian Family Life Baptist Church,TX,"Crowley, ",76036
(817) 281-3175,4517 Rufe Snow Dr,St Paul Presbyterian Church,TX,"North Richland Hills, ",76180
(817) 534-6451,6401 Hartman Rd,Forest Hill United Methodist Church,TX,"Forest Hill, ",76119
(817) 834-9852,1933 Haltom Rd,Jehovah's Witness,TX,"Haltom City, ",76117
(817) 237-7840,6117 Graham St,Universal Light of Christ Church,TX,"Fort Worth, ",76135
(817) 483-9802,4600 Forest Hill Cir,Forest Hill Community Bible,TX,"Forest Hill, ",76140
(817) 237-2201,6051 Azle Ave,Metropolitan Baptist Church,TX,"Fort Worth, ",76135
(817) 237-1205,6059 Azle Ave,Northwest Church Of Christ,TX,"Fort Worth, ",76135
(817) 535-5002,4615 E California Pkwy,Agape MCC Church,TX,"Forest Hill, ",76119
(817) 281-8220,5409 Stanley Keller Rd,Christ Pentecostal Church,TX,"Haltom City, ",76117
(817) 624-3033,3980 Boat Club Rd,Vision Church-The Assemblys-Gd,TX,"Fort Worth, ",76135
(817) 222-2552,4401 Broadway Ave,Vietnamese Baptist Church of Fort Worth,TX,"Haltom City, ",76117
(817) 938-3503,5009 Stanley Keller Rd.,Iglesia de Dios Casa de Alabanza,TX,"Haltom City, ",76117
(817) 370-8601,6717 S Hulen St,Altamesa Neighborhood Needs,TX,"Fort Worth, ",76133
(817) 838-8830,3551 Cindy Dr,Lakeland Street Baptist Church,TX,"Fort Worth, ",76111
(817) 496-4011,6824 Randol Mill Rd,Temple Baptist Church,TX,"Fort Worth, ",76120
(817) 284-9206,6955 Boulevard 26,North Richland Hills Baptist Church,TX,"North Richland Hills, ",76180
(817) 496-3777,3001 W Green Oaks Blvd,Grace Baptist Chr-Arlington,TX,"Arlington, ",76016
(817) 750-0021,5824 East Berry,Harvest Church,TX,"Fort Worth, ",76119
(817) 568-4788,875 McPherson Rd,South Fort Worth Baptist Fellowship,TX,"Fort Worth, ",76140
(817) 831-1004,4755 N Beach St,Iglesia Bautista Getsemani,TX,"Fort Worth, ",76137
(877) 289-2417,1200 Scenic Vista Dr,Westpoint at Scenic Vista,TX,"Fort Worth, ",76108
(817) 561-3400,US Hwy 287 And Eden Road,Faith Christian Center,TX,"Arlington, ",76017
(817) 427-1111,PO Box 54884,I Can Still Shine Program for Women and Children,TX,"Hurst, ",76054
(817) 282-6767,760 W Hurst Blvd,Life Fellowship,TX,"Hurst, ",76053
(817) 232-2010,6700 N Riverside Dr,Fossil Creek Community Church,TX,"Fort Worth, ",76137
(817) 560-3433,6605 Silver Saddle Rd,The Pentecostals of Fort Worth,TX,"Fort Worth, ",76126
(817) 297-4347,400 S Eagle Dr,First Baptist Church Crowley,TX,"Crowley, ",76036
(817) 277-6353,301 S Center St,First Baptist Church,TX,"Arlington, ",76010
,,,,,
(817) 626-5556,2901 Azle Ave,Azle Avenue Baptist Church,TX,"Fort Worth, ",76106
(817) 284-9245,6852 Baker Blvd,Richland Hills Baptist Church,TX,"Richland Hills, ",76118
(817) 838-9031,3208 Carson St,Birdville Church Of Christ,TX,"Haltom City, ",76117
(817) 590-0444,7139 Baker Blvd,Baker Boulevard Church Christ,TX,"Richland Hills, ",76118
(817) 294-9303,3409 Charleston Ave,Abiding Faith Lutheran Church,TX,"Fort Worth, ",76123
(817) 284-8724,7620 Baker Blvd,Calvary Lutheran Church,TX,"Richland Hills, ",76118
(817) 478-8245,6102 W Pleasant Ridge Rd,Pleasant Ridge Church of Christ,TX,"Arlington, ",76016
(817) 478-6219,6007 W Pleasant Ridge Rd,St John Presbyterian Church,TX,"Arlington, ",76016
(817) 496-6747,3900 Morris Ln,Church Of St. Peter & St. Paul,TX,"Arlington, ",76016
(817) 451-7561,4400 W Arkansas Ln,Holy Cross Lutheran Church LCMS,TX,"Arlington, ",76016
(817) 457-2758,1509 Wilson Rd,Eastern Hills United Methodist,TX,"Fort Worth, ",76112
(817) 536-3445,6300 Hartman Rd,Mount Zion Church,TX,"Forest Hill, ",76119
(817) 834-2503,2908 Layton Ave,Asbury United Methodist Church,TX,"Haltom City, ",76117
(817) 451-4321,2929 Forest Ave,Handley United Methodist Church,TX,"Fort Worth, ",76112
(817) 624-2184,2920 Azle Ave,St Thomas The Apostle Catholic Church,TX,"Fort Worth, ",76106
(817) 451-6980,2414 Hitson Ln,St Matthew United Methodist Church,TX,"Fort Worth, ",76112
(817) 478-8206,5819 W Pleasant Ridge Rd,St Vincent De Paul Catholic Church,TX,"Arlington, ",76016
(817) 483-1667,5011 W Pleasant Ridge Rd,St Barnabas United Methodist Church,TX,"Arlington, ",76016
(817) 535-3787,5401 Trentman St,Acts Church,TX,"Fort Worth, ",76119
(817) 413-7814,6300 Crawford Ln W,Church of Jesus Christ of Latter-Day Saints,TX,"Forest Hill, ",76119
(817) 531-2580,6400 Hartman Rd,Rebirth Church Of God In Chrst,TX,"Forest Hill, ",76119
(817) 293-2553,7224 Forest Hill Dr,Forest Hills Seventh Day,TX,"Forest Hill, ",76140
(817) 457-1111,6801 Meadowbrook Dr,Bethel Temple,TX,"Fort Worth, ",76112
(817) 446-8388,2613 Sandy Ln,Greater New Hope Church Of God,TX,"Fort Worth, ",76112
(817) 446-9933,1301 W Green Oaks Blvd,First Church Of The Nazarene,TX,"Arlington, ",76013
(817) 531-0019,6201 Hartman Rd,Berea Bible Fellowship,TX,"Forest Hill, ",76119
(817) 861-5511,2301 Dottie Lynn Pkwy,Sagamore Hill Baptist Church,TX,"Fort Worth, ",76120
(817) 478-5811,229 W 4th St,First United Methodist Church Of Kennedale,TX,"Kennedale, ",76060
(817) 590-9292,6856 Boulevard 26,West Texas Dist Church-Nazrn,TX,"Richland Hills, ",76180
(817) 654-1018,6005 Royaloak Dr,The School Of Ageless Wisdom,TX,"Arlington, ",76016
,,,,,
(817) 548-1754,1130 W Division St,Graceway Church,TX,"Arlington, ",76012
(817) 281-5589,5700 N Beach St,Church Of Jesus Christ Of Latter Day Saints,TX,"Haltom City, ",76137
(817) 237-3588,6700 Azle Ave,Heritage Baptist Church,TX,"Fort Worth, ",76135
(817) 232-4426,420 W Green St,Oasis Church,TX,"Fort Worth, ",76179
(817) 282-4028,760 W Hurst Blvd,Church of God,TX,"Hurst, ",76053
(817) 514-6822,6101 Huddleston St,Christian Love Fellowship Church,TX,"Haltom City, ",76137
(817) 297-1521,721 S Crowley Rd,Crowley Assembly of God,TX,"Crowley, ",76036
(817) 788-2652,5201 Davis Blvd,Vineyard Korean Baptist Church,TX,"North Richland Hills, ",76180
(817) 367-3369,9604 Heron Dr,River Of Life Fellowship Church,TX,"Fort Worth, ",76108
(817) 478-8390,6720 Lyndale Dr,Lindale Oakcrest Church,TX,"Watauga, ",76148
(817) 428-7901,6101 Davis Blvd,Congregation Mita,TX,"North Richland Hills, ",76180
(817) 280-9233,738 E Pipeline Rd,Joshua For Christ Church,TX,"Hurst, ",76053
(817) 478-4889,12440 Rendon Rd,Tabernacle Baptist Church,TX,"Fort Worth, ",76140
(817) 232-8290,8163 Jolie Dr,Love & Healing Christian Flshp,TX,"Fort Worth, ",76137
(817) 485-2460,2008 Lorean Ct,Korean Martyrs Catholic Church,TX,"Hurst, ",76054
(817) 605-3935,7700 Hewitt St,An Assembly of Christians,TX,"North Richland Hills, ",76182
(817) 503-1811,155 N Tarrant Pkwy,Bear Creek Bible Church,TX,"Keller, ",76248
(817) 478-1501,3806 Curry Rd,Centerpointe Church,TX,"Arlington, ",76001
(817) 472-9740,7100 S Cooper St,Regeneration Church,TX,"Arlington, ",76001
(817) 473-1881,6 Kyle Dr,Word Of Life Family Church,TX,"Mansfield, ",76063
(817) 295-8192,220 E Renfro St,Grace Christian Fellowship,TX,"Burleson, ",76028
(817) 560-9199,9620 Santa Monica Dr,Truth Assurance Ministries Church,TX,"Fort Worth, ",76116
(817) 656-2600,6700 Silver Sage Dr,Trust Church,TX,"Fort Worth, ",76137
(817) 605-7350,6105 Denton Hwy,CrossRoads Church of Fort Worth,TX,"Haltom City, ",76148
(817) 305-1197,"8053 Blvd 26, Ste F",Life Light International Christian Center,TX,"North Richland Hills, ",76180
(817) 616-3514,824 W Pipeline Rd,Catch The Fire DFW,TX,"Hurst, ",76053
(817) 297-8886,10417 Old Cleburne Crowley Jct,Christ Community Church Southwest,TX,"Crowley, ",76036
(817) 656-6042,5702 Kennedy St,Canada Randall,TX,"Watauga, ",76148
(682) 626-5565,805 W Pipeline Rd,Joshua Generation For Christ Church,TX,"Hurst, ",76053
(817) 427-2909,6416 Watauga Rd,Disciples Of The Way Ministries,TX,"Watauga, ",76148
,,,,,
(817) 284-3594,828 W Cheryl Ave,Lay Witnesses For Christ,TX,"Hurst, ",76053
(817) 788-5276,6004 Harrison Way,Iron City Church,TX,"Watauga, ",76148
(682) 703-2173,8401 Jacksboro Hwy,International Faith Center,TX,"Lakeside, ",76135
(817) 232-5592,PO Box 2148,Discovery Worldwide Ministries,TX,"Hurst, ",76053
(817) 581-6000,7120 Rufe Snow Dr,Crossing Church,TX,"Fort Worth, ",76148
(817) 427-1020,1860 Precinct Line Rd,Church Of Light & Salt,TX,"Hurst, ",76054
(817) 297-3575,10401 Fm 1902,United Bible Community,TX,"Crowley, ",76036
(817) 200-6583,603 St Paul Dr,Solid As A Rock,TX,"Arlington, ",76013
(817) 466-9541,2315 W Pleasant Ridge Rd,Church In Arlington,TX,"Arlington, ",76015
(817) 466-8006,3501 S Fielder Rd,True Life Apostolic Tabernacle,TX,"Arlington, ",76015
(817) 548-1700,500 Road To Six Flags St W,Dar El Salam Islamic Center,TX,"Arlington, ",76011
(817) 860-7777,420 E Lamar Blvd,Unity Tabernacle Ministries Inc,TX,"Arlington, ",76011
(817) 280-0810,785 Treadwell Drive,Faith Christian Fellowship Church,TX,"Hurst, ",76053
(817) 788-8111,7300 Smithfield Rd,Newchurch Christian Fellowship,TX,"North Richland Hills, ",76182
(817) 265-5683,805 Oakwood Ln,Arlington Chinese Church,TX,"Arlington, ",76012
(817) 427-4805,6800 Denton Hwy,Fountain Life Church Watauga,TX,"Watauga, ",76148
(817) 427-0010,7561 Boulevard 26,The Mercy Seat,TX,"North Richland Hills, ",76180
(817) 695-7767,677 E Interstate 20,Divine Grace Church,TX,"Arlington, ",76018
(817) 281-2436,7318 NE Loop 820,First Church-Christ Scientist,TX,"North Richland Hills, ",76180
(817) 297-2488,812 S Crowley Road,Fountains Fellowship Church,TX,"Crowley, ",76036
(817) 483-3300,6404 Kelly Elliott Rd,Gods Supernatural Church,TX,"Arlington, ",76001
(817) 704-6143,1516 W Pioneer Pkwy,Grace Street Fellowship,TX,"Arlington, ",76013
(817) 466-0010,130 E Bardin Rd,Logos Fellowship Church,TX,"Arlington, ",76018
(817) 274-4576,1717 California Ln,First Church-Christ Scientist,TX,"Arlington, ",76015
(817) 561-2954,5229 Kelly Elliott Rd,Liberty Fellowship Of Churches,TX,"Arlington, ",76017
(817) 295-4770,301 NW Newton Dr,Straightway Christian Church,TX,"Burleson, ",76028
(817) 473-7575,1805 Owen Ct,North Elevation Church,TX,"Mansfield, ",76063
(817) 453-1919,1315 Highway 1187 Ste 105,Fellowship of The Metroplex,TX,"Mansfield, ",76063
(817) 282-3176,2715 Northridge Dr,Cornerstone Church North,TX,"Bedford, ",76021
(817) 426-2982,229 W Ellison St,Christian Womens Job Corp,TX,"Burleson, ",76028
,,,,,
(817) 282-1506,1313 Brown Trl,Christ Family Fellowship Church,TX,"Bedford, ",76022
(817) 860-0363,126 E Park Row Dr,Greater Community MBC,TX,"Arlington, ",76010
(817) 274-0551,1308 W Arkansas Ln,The Truth,TX,"Arlington, ",76013
(817) 581-8216,7801 Brandi Ln,New Life Outreach Church,TX,"North Richland Hills, ",76182
(817) 295-5832,380 NW Tarrant Ave,Saint Matthew Cumberland Presbyterian,TX,"Burleson, ",76028
(817) 282-7621,748 Harrison Ln,Church Living Word,TX,"Hurst, ",76053
(817) 282-1306,800 Brown Trl,Empowering Grace Church,TX,"Bedford, ",76022
(817) 861-5673,2024 S Collins St,St Marks Rectory,TX,"Arlington, ",76010
(817) 237-9093,6700 Azle Ave,Livingstones Fellowship,TX,"Fort Worth, ",76135
(817) 284-7325,540B W Pipeline Rd,Real Life Ministries,TX,"Hurst, ",76053
(817) 795-7120,205 N Davis Dr # 5,Central Texas Conference,TX,"Arlington, ",76012
(812) 275-4534,Fayetteville Rd,New Union Christian Church,IN,"Bedford, ",47421
(817) 460-0962,3221 W Pioneer Pkwy,Crossroads of Arlington Church,TX,"Pantego, ",76013
(817) 249-9393,200 E Mildred Ln,Korean Central Church,TX,"Fort Worth, ",76126
(817) 265-6308,510 Summit Ave,Arlington Faith Chapel,TX,"Arlington, ",76013
(817) 274-9072,1029 W Pioneer Pkwy,Arlington Central SDA,TX,"Arlington, ",76013
(817) 860-5448,1212 Thannisch Dr,Congregation Beth Shalom,TX,"Arlington, ",76011
(817) 285-0371,211 Brown Trl,Brown Trail Gospel Assembly,TX,"Hurst, ",76053
(817) 207-0515,5500 Stewart Feltz Rd,Mahanaim Christian Fellowship,TX,"Crowley, ",76036
(817) 297-6911,10401 Fm 1902,Open Door Ministries,TX,"Crowley, ",76036
(817) 280-0774,1237 Southridge Ct Ste 204,Metroplex Messianic Fellowship,TX,"Hurst, ",76053
(817) 427-2132,1864 Precinct Line Rd,Word of Love Christian Center Academy,TX,"Hurst, ",76054
(817) 268-2222,116 E Cheryl Ave,Church City Wave,TX,"Hurst, ",76053
(682) 323-8494,1506 W Pioneer Pkwy,Salvation,TX,"Arlington, ",76013
(817) 514-9905,5201 Davis Blvd,Covenant Love Christian Center,TX,"North Richland Hills, ",76180
(817) 237-2758,7200 Robertson Rd,Lighthouse Christian Academy,TX,"Fort Worth, ",76135
(817) 428-8977,8443 Boulevard 26,Communities of Grace,TX,"North Richland Hills, ",76180
(817) 282-3152,2715 Northridge Dr,Sonset Baptist,TX,"Bedford, ",76021
(817) 548-0454,403 Oakwood Ln,Sure Foundation Fellowship,TX,"Arlington, ",76012
(817) 246-1874,8833 Kate St,North Texas Church Of God,TX,"Fort Worth, ",76108
,,,,,
(817) 503-0820,424 Alta Ridge Dr,Iglesia De Cristo,TX,"Keller, ",76248
(817) 554-5900,2705 Brown Trl,Pentecostal Church Of God,TX,"Bedford, ",76021
(817) 295-6711,344 SW Wilshire Blvd,Faith To Faith Ministries,TX,"Burleson, ",76028
(817) 222-0011,5788 Walnut Creek Dr,Debt Free Army,TX,"Fort Worth, ",76137
(817) 868-1964,1245 Bedford Rd,Focus Singles Ministry,TX,"Bedford, ",76021
(817) 460-8759,312 College St,The Cornerstone At Uta,TX,"Arlington, ",76010
(817) 795-2696,816 N Oak St,Arlington Hispanic Bible Church,TX,"Arlington, ",76011
(817) 277-6620,210 W South St,Mission Arlington,TX,"Arlington, ",76010
(817) 482-1919,2040 Willis Ln,Morning Star Church,TX,"Keller, ",76248
(817) 561-3400,6900 US 287 Hwy,Overcoming Faith Christian Chenter,TX,"Arlington, ",76001
(817) 461-8415,1700 S Center St,Islamic Society of Arlington,TX,"Arlington, ",76010
(817) 465-1122,1200 High Point Rd,Spurling Christian Academy,TX,"Arlington, ",76015
(817) 561-1533,4015 W Interstate 20,City Chapel,TX,"Arlington, ",76017
(817) 460-6481,2001 California Ln,Arlington Unitarian Universalist Church,TX,"Arlington, ",76015
(817) 478-7592,4515 SW Green Oaks Blvd,Vietnamese Baptist Church,TX,"Arlington, ",76017
(817) 277-2535,1115 W Park Row Dr,Jehovah's Witnesses,TX,"Arlington, ",76013
(817) 465-5261,2401 SW Green Oaks Blvd,Rush Creek Christian Church,TX,"Arlington, ",76017
(817) 237-7419,5701 Billings Rd,Word Of Life Church,TX,"Fort Worth, ",76135
(817) 277-1333,915 W Park Row Dr,Park Row Church Of Christ,TX,"Arlington, ",76013
(817) 275-3509,3101 W Park Row Dr,Woodland West Church Of Christ,TX,"Arlington, ",76013
(817) 274-1962,801 S Collins St,Center Point Community Church,TX,"Arlington, ",76010
(817) 656-8150,1870 Rufe Snow Dr,Northwood Church,TX,"Keller, ",76248
(817) 295-9008,342 SW Alsbury Blvd,Living Water Church Day School,TX,"Burleson, ",76028
(817) 237-9433,4024 Dakota Trl,Fellowship of Lake Worth,TX,"Fort Worth, ",76135
(817) 468-7729,2350 SW Green Oaks Blvd,Church On Rush Creek,TX,"Arlington, ",76017
(817) 232-0895,201 Western Ave,Saginaw Church Of Christ,TX,"Saginaw, ",76179
(817) 468-0868,5500 Mansfield Rd,Grace Presbyterian Church,TX,"Arlington, ",76017
(817) 847-5400,200 Blue Bonnet St,Eagle's View Church,TX,"Saginaw, ",76179
(817) 478-2121,5515 Park Springs Blvd,Park Springs Bible Church,TX,"Arlington, ",76017
(817) 281-1164,6250 NE Loop 820,Community Enrichment Center,TX,"North Richland Hills, ",76180
,,,,,
(817) 428-5433,6321 Starnes Rd,Life Tabernacle UPC,TX,"Watauga, ",76148
(817) 285-0202,428 Harwood Rd,Community Covenant Chr-Mid-Cts,TX,"Bedford, ",76021
(817) 685-8707,1104 Central Dr,Christian Life Tabernacle,TX,"Bedford, ",76022
(817) 274-6194,3100 W Arkansas Ln,Metro Apostolic Tabernacle,TX,"Arlington, ",76016
(817) 459-0908,311 N East St,Inglesia Bautista Hispana of Arlington,TX,"Arlington, ",76011
(817) 284-2624,817 W Pipeline Rd,Fellowship Chosen Generation,TX,"Hurst, ",76053
(817) 468-8666,1124 Angel Fire Ln,Isaac Abraham Arabic Christian Church,TX,"Arlington, ",76001
(817) 925-6514,2001E E Main St,Iglesia Bautista Vida Nueva,TX,"Crowley, ",76036
(817) 386-9200,632 Hallvale Dr,First Church Of Fort Worth,TX,"Fort Worth, ",76108
(817) 284-4369,946 W Pipeline Rd,"Lawson, Philip A",TX,"Hurst, ",76053
(817) 297-0300,430 E Main St,Abundant Life Community Church,TX,"Crowley, ",76036
(817) 706-4645,125 N Hampton Rd Ste A,Living Word Center,TX,"Crowley, ",76036
(817) 591-8000,1401 Precinct Line Rd,Fields & Church,TX,"Hurst, ",76053
(817) 355-8030,840 Thousand Oaks Dr,National Christian Foundation of North Texas,TX,"Hurst, ",76054
(817) 283-1814,3201 Pipeline Rd,Key Ministries,TX,"Bedford, ",76022
(877) 589-7432,800 Glenda Dr,Creation Church,TX,"Bedford, ",76022
(817) 282-5466,260 Belle St,Friday James Ministries Inc,TX,"Bedford, ",76022
(817) 545-4685,1344 Fieldstone Dr,Mickel Church,TX,"Bedford, ",76022
(817) 282-7473,1001 Airport Fwy,Arise & Shine International Ministries,TX,"Bedford, ",76021
(817) 236-6444,7909 N Water Tower Rd,Eagle Wings Ministries Intl,TX,"Fort Worth, ",76179
(817) 275-9495,2117 Roosevelt Dr,Vietnamese National Community of Greater Ft Worth,TX,"Dalworthington Gardens, ",76013
(817) 478-8110,5700 Kelly Elliott Rd,Matlock Meadows Con,TX,"Arlington, ",76017
(817) 465-9408,5511 Mansfield Rd,DFW Islamic Educational Center,TX,"Arlington, ",76017
(682) 888-9301,1703 South Cooper Street,The Door Christian Church,TX,"Arlington, ",76010
(817) 522-1238,513 Woodcrest Ln,The Truth Of Christ Church,TX,"Arlington, ",76010
(817) 522-1315,513 Woodcrest Ln Apt 212,Spirit Ministry Of God Church,TX,"Arlington, ",76010
(817) 548-1556,500 Houston St,Graceway Church,TX,"Arlington, ",76011
(817) 557-8558,4401 Larry Ln,Caprock Church,TX,"Arlington, ",76017
(817) 280-0302,1001 Airport Fwy,Ziegler & Ziegler Ministries,TX,"Bedford, ",76021
(817) 281-8220,5004 Union Lake Dr,Christ Pentecostal Church,TX,"Fort Worth, ",76137
,,,,,
(817) 478-4889,12440 Rendon Rd,Tabernacle Baptist Church of Rendon,TX,"Burleson, ",76028
(817) 277-0024,3291 W Pioneer Pkwy,Watchman Fellowship,TX,"Pantego, ",76013
(817) 462-0354,1211 Thannisch Ct,Metro Community 7th Day,TX,"Arlington, ",76011
(817) 478-8747,5475 E Fm 1187,First Baptist Church In Rendon,TX,"Burleson, ",76028
(817) 460-4909,2500 W Randol Mill Rd,Tabernacle Baptist Church,TX,"Arlington, ",76012
(817) 483-8864,4601 SW Green Oaks Blvd,Church Of Christ On Green Oaks,TX,"Arlington, ",76017
(817) 581-1688,7904 Park Vista Blvd,Alliance United Methodist Church,TX,"Fort Worth, ",76137
(817) 265-7378,1701 N Fielder Rd,New Beginnings Church,TX,"Arlington, ",76012
(817) 568-4709,10920 Stone Rd,Garden Acres Baptist Church,TX,"Burleson, ",76028
(817) 468-0083,5415 Matlock Rd,Cornerstone Baptist Church,TX,"Arlington, ",76018
(817) 461-8427,2426 Superior Dr,Arlington Chinese Bible Church,TX,"Pantego, ",76013
(817) 380-3820,420 S Blue Mound Rd,Faith Tabernacle Assembly Of God Church,TX,"Fort Worth, ",76131
(817) 297-7737,3200 Fm 1187,Crowley Seventh Day Adventist Church,TX,"Crowley, ",76036
(817) 419-0900,3402 W Interstate 20,Grace Covenant Church,TX,"Arlington, ",76017
(817) 265-5454,1846 W Division St,Trinity Metropolitan Cmnty Chr,TX,"Arlington, ",76012
(817) 465-7082,1500 California Ln,Church Of Jesus Christ Of Latterday Saints,TX,"Arlington, ",76015
(817) 275-2696,820 N Fielder Rd,Parkview Baptist Church,TX,"Arlington, ",76012
(817) 297-1580,1400 Bean Dr,Crowley Church Of Christ,TX,"Crowley, ",76036
(817) 465-6704,2202 Raper Blvd,Christ Community Church,TX,"Pantego, ",76013
(817) 293-1597,12351 Oak Grove Rd S,Oak Grove Baptist Church,TX,"Burleson, ",76028
(817) 295-2191,116 N Clark St,Calvary Baptist Church,TX,"Burleson, ",76028
(817) 461-8741,3001 W Division St,Arlington Baptist College,TX,"Arlington, ",76012
(817) 468-2722,5510 Matlock Rd,Arlington Park Baptist Church,TX,"Arlington, ",76018
(817) 297-4530,509 Peach St,First Unied Methodist Church Of Crowley,TX,"Crowley, ",76036
(817) 605-0863,6005 Chapman Rd,Islamic Association-Fort Worth,TX,"Watauga, ",76148
(817) 238-6951,6011 W Bailey Boswell Rd,Grace Community Bible Church,TX,"Fort Worth, ",76179
(817) 236-8703,7050 Lake Country Dr,Lake Country Christian School,TX,"Fort Worth, ",76179
(817) 244-6590,9100 N Normandale St,Birchman Baptist Church,TX,"Fort Worth, ",76116
(817) 232-2622,1621 Watauga Smithfield Rd,Focus Right Baptist Church,TX,"Fort Worth, ",76137
(817) 244-5216,9700 Santa Paula Dr,Westland Heights Baptist Church,TX,"Fort Worth, ",76116
,,,,,
(817) 244-2885,2900 Alemeda St,Episcopal Diocese Of Fort Worth,TX,"Fort Worth, ",76116
(817) 468-0491,212 Hemlock Dr,Church Bible Missionary,TX,"Arlington, ",76018
(817) 249-0704,6970 Fm 2871,Trinity Hills Baptist Church,TX,"Fort Worth, ",76126
(817) 282-7621,748 Harrison Ln,Christian Faith Baptist Church,TX,"Hurst, ",76053
(682) 286-0156,7904 Firefly Dr,Baptist Cornerstone,TX,"Fort Worth, ",76137
(817) 236-1212,8777 Boat Club Rd,Lake Country Christian School,TX,"Fort Worth, ",76179
(817) 459-3176,500 S Mesquite St,First Baptist Church of Arlington Missionary Res,TX,"Arlington, ",76010
(817) 282-1114,575 NE Loop 820,Calvary Lutheran Church,TX,"Hurst, ",76053
(817) 285-0058,423 W Bedford Euless Rd,Jesus Healing House,TX,"Hurst, ",76053
(817) 473-9194,2480 Highway 287 N,Woodland's Park Church of Christ,TX,"Mansfield, ",76063
(817) 560-3300,800 N Jim Wright Fwy,The Catholic Diocese of Fort Worth,TX,"White Settlement, ",76108
(817) 232-0015,1512 Kingfisher Dr,Salvation Army,TX,"Fort Worth, ",76131
(817) 795-0187,712 W Abram St,Salvation Army,TX,"Arlington, ",76013
(817) 281-2164,5700 N. Beach St,Church of Jesus Christ of Latter-Day Saints,TX,"Fort Worth, ",76137
(817) 485-5433,5196 Rufe Snow Dr,Fountain of Life Church,TX,"North Richland Hills, ",76180
(817) 358-2068,2807 W. Euless Blvd.,"RCCG, Mountain of Praise & Worship",TX,"Euless, ",76040
(817) 281-2700,407 Harwood Rd,Mylon Le Fevre Ministries,TX,"Bedford, ",76021
(817) 447-2667,129 NW Ellison St,Victory Family Church,TX,"Burleson, ",76028
(817) 473-7404,1715 Gertie Barrett Rd,Liberty Church,TX,"Mansfield, ",76063
(817) 801-9285,521 N L Robinson Dr,Mt Olive Baptist Church,TX,"Arlington, ",76011
(817) 274-3644,301 W Sanford St,Mt Olive Baptist Church,TX,"Arlington, ",76011
(817) 277-2634,910 S Collins St,First Christian Church,TX,"Arlington, ",76010
(817) 460-6130,715 E Lamar Blvd,Shepherd Of Life Lutheran Church,TX,"Arlington, ",76011
(817) 595-9387,800 N Jim Wright Fwy,Fellowship of the Sword,TX,"White Settlement, ",76108
(817) 847-4188,1029 N Saginaw Blvd,Fullness In Christ Church,TX,"Saginaw, ",76179
(817) 232-4426,420 W Green St,Saginaw Assembly of God Church,TX,"Fort Worth, ",76179
(817) 514-9122,6800 Denton Hwy,Abundant Life Family Church,TX,"Watauga, ",76148
(817) 232-5372,101 S Hampshire St,Community Bible Church,TX,"Saginaw, ",76179
(817) 237-4844,3508 Shawnee Trl,United Pentecostal Church,TX,"Fort Worth, ",76135
(817) 237-2624,7000 Charbonneau Rd,First Baptist Church,TX,"Fort Worth, ",76135
,,,,,
(817) 237-6063,5500 Boat Club Rd,Northwest Baptist Church,TX,"Fort Worth, ",76135
(817) 275-2308,2424 California Ln,Woods Chapel Baptist Church,TX,"Arlington, ",76015
(817) 295-2233,1150 NW John Jones Dr,Burleson Church of Christ,TX,"Burleson, ",76028
(817) 795-7977,1001 N Davis Dr,Northwest Christian Church,TX,"Arlington, ",76012
(817) 514-9645,5761 Watauga Rd,Victory Tabernacle Holiness,TX,"Watauga, ",76148
(817) 860-7116,801 W Bardin Rd,Grace Community Church,TX,"Arlington, ",76017
(817) 284-8679,3908 Ruth Rd,Richland Hills Christian Church,TX,"Richland Hills, ",76118
(817) 232-0390,209 Blue Bonnet St,Saginaw United Methodist Church,TX,"Saginaw, ",76179
(817) 268-4909,1332 Yates Dr,United Pentecostal Church Of Hurst,TX,"Hurst, ",76053
(817) 237-4135,8780 Eagle Mountain Cir,Eagle Mountain Baptist Church,TX,"Fort Worth, ",76135
(817) 498-6970,6300 NE Loop 820,Richland Hills Chr-Christ Church,TX,"North Richland Hills, ",76180
(817) 563-2424,2401 Highway 287 N,Woodland's Park Church Of Christ,TX,"Mansfield, ",76063
(817) 237-7837,9396 Confederate Park Rd,Lakeside Church Of God,TX,"Fort Worth, ",76135
(817) 249-3010,10201 Jerry Dunn Pkwy,Restoration Family Church,TX,"Benbrook, ",76126
(817) 246-3515,100 Verna Trl N,Redeemer Bible Church,TX,"Fort Worth, ",76108
(817) 249-4994,400 Davidson St,Heritage Baptist Church,TX,"Benbrook, ",76126
(817) 336-2687,4823 W Loop 820 S,Capstone Church,TX,"Fort Worth, ",76126
(817) 249-1257,1122 Bryant St,Benbrook United Methodist Church,TX,"Benbrook, ",76126
(817) 237-2758,7200 Robertson Rd,Lake Worth United Mthdst Chr,TX,"Fort Worth, ",76135
(817) 237-7837,202 Paint Brush Rd,Lakeside Church of God,TX,"Lakeside, ",76108
(817) 237-7919,3009 Delaware Trl,Central Full Gospel Fellowship,TX,"Fort Worth, ",76135
(817) 282-0237,1336 Cavender Dr,Shady Oaks Baptist Church,TX,"Hurst, ",76053
(817) 788-8111,7300 Smithfield Rd,Wellspring Church,TX,"North Richland Hills, ",76182
(817) 447-4131,250 NW Tarrant Ave Suite L,St Matthew Cumberland Presbyterian Church Annex,TX,"Burleson, ",76028
(817) 794-0333,2321 W Arkansas Ln,Southfield Christian Fellowship,TX,"Pantego, ",76013
(817) 485-0915,7708 Maplewood Ave,Maplewood Baptist Church,TX,"North Richland Hills, ",76180
(817) 795-6193,503 Harmon Ter,Greater Community Missionary Baptist Church,TX,"Arlington, ",76010
(817) 268-0428,412 Circleview Dr S,Church of God Hurst Boulevard Parsonage,TX,"Hurst, ",76054
(817) 297-9042,9705 County Road 1016,Reece Prairie Baptist Church,TX,"Burleson, ",76028
(817) 483-0318,4211 W Sublett Rd,Sublett Road Baptist Church,TX,"Arlington, ",76017
,,,,,
(817) 246-0450,121 Verna Trl N,Solid Rock Baptist Church,TX,"Fort Worth, ",76108
(817) 847-5483,1600 Old Decatur Rd,Fellowship Baptist Church,TX,"Fort Worth, ",76179
(817) 563-6222,4701 W Sublett Rd,White Stone,TX,"Arlington, ",76017
(817) 560-7187,3900 Longvue Ave,Holy Apostles Episcopal,TX,"Fort Worth, ",76126
(817) 989-9800,851 American Flyer Blvd,Covenant Orthodox Presbyterian,TX,"Fort Worth, ",76108
(817) 478-1277,3901 SW Green Oaks Blvd,Our Savior Evangelical Lutheran Church,TX,"Arlington, ",76017
(817) 465-6793,3232 S Cooper St,Advent Lutheran Church,TX,"Arlington, ",76015
(817) 246-1242,9000 White Settlement Rd,Wesley United Methodist Church,TX,"Fort Worth, ",76108
(817) 367-3422,724 N Jim Wright Fwy,Independent Baptist Fellowship,TX,"White Settlement, ",76108
(817) 431-5231,3789 Thompson Rd,Fossil Ridge Foursquare Church,TX,"Fort Worth, ",76244
(817) 283-5536,2000 Shady Brook Dr,First United Methodist Church,TX,"Bedford, ",76021
(817) 472-5181,1927 SW Green Oaks Blvd,St Joseph Catholic Church,TX,"Arlington, ",76017
(817) 246-6646,1501 W Loop 820 N,Grace Baptist Church,TX,"Fort Worth, ",76108
(817) 756-1524,3420 Longvue Ave,Longvue Baptist Church,TX,"Fort Worth, ",76116
(817) 246-2180,2001 Chapel Creek Blvd,Normandale Baptist Church,TX,"Fort Worth, ",76108
(817) 249-0704,6970 Fm 2871,Trinity Hills Baptist Church,TX,"Benbrook, ",76126
(817) 285-1671,431 W Bedford Euless Rd,Christ Memorial Baptist Church,TX,"Hurst, ",76053
(817) 281-0773,6300 NE Loop 820,The Hills Church,TX,"North Richland Hills, ",76180
(817) 244-6231,3644 Alemeda St,Westridge Church Of The Nazarene,TX,"Fort Worth, ",76126
(817) 479-8749,5808 Denton Hwy,Interntional Christian Cmnty,TX,"Haltom City, ",76148
(817) 563-7474,4909 Rendon Rd,Hill Top Church,TX,"Fort Worth, ",76140
(817) 249-5200,10100 Rolling Hills Dr,High Ridge Church,TX,"Fort Worth, ",76126
(682) 841-1800,100 Paint Pony Trl N,Church Of Jesus Christ Of Latter Day Saints,TX,"Fort Worth, ",76108
(817) 479-8611,860 Airport Fwy,Church Of The Nazarene,TX,"Hurst, ",76054
(817) 232-5522,933 Ranch Rd,North Point Community Church,TX,"Fort Worth, ",76131
(817) 236-3400,5417 Threshing Dr,New Life Ministries,TX,"Fort Worth, ",76179
(817) 447-2223,380 NW Tarrant Ave,St. Matthew Christian School,TX,"Burleson, ",76028
(817) 478-8110,5700 Kelly Elliott Rd,Kingdom Hall,TX,"Arlington, ",76017
(817) 460-5914,1715 W Randol Mill Rd,Arlington Community Church,TX,"Arlington, ",76012
(817) 367-7170,9017 Glenn Dr,Independent Baptist Fellowship International Entzminger Dorm,TX,"Fort Worth, ",76108
,,,,,
(817) 367-2639,126 N Judd St,Christ the Redeemer Church,TX,"Fort Worth, ",76108
(817) 581-1428,2049 Willis Ln,West Keller North Keller Tx,TX,"Keller, ",76248
(817) 275-4373,2323 James St,Christ Family Church,TX,"Arlington, ",76013
(817) 249-3279,1004 Bryant St,First Baptist Church Of Benbrook,TX,"Benbrook, ",76126
(817) 246-3102,632 N Las Vegas Trl,Terrace Acres Baptist,TX,"Fort Worth, ",76108
(817) 249-1526,1015 McKinley St,First Baptist Church-Benbrook,TX,"Benbrook, ",76126
(817) 232-8210,5801 North Fwy,North Ft Worth Baptist Church,TX,"Fort Worth, ",76131
(817) 281-9474,5101 Western Center Blvd,Spring Valley Baptist Church,TX,"Fort Worth, ",76137
(817) 478-4878,6190 Rendon New Hope Rd,Bible Baptist Church,TX,"Fort Worth, ",76140
(817) 295-5221,640 NW Tarrant Ave,Crestmont Baptist Church,TX,"Burleson, ",76028
(817) 447-2787,817 SW Alsbury Blvd,Berean Baptist Church,TX,"Burleson, ",76028
(817) 473-6136,13201 Rendon Rd,Retta Baptist Church,TX,"Burleson, ",76028
(817) 478-6163,6765 Dick Price Rd,New Hope Baptist Church,TX,"Mansfield, ",76063
(817) 232-2568,7025 N Beach St,Church Of Christ,TX,"Fort Worth, ",76137
(817) 847-7766,7101 N Riverside Dr,Grace Community Presbyterian,TX,"Fort Worth, ",76137
(817) 483-1240,12220 Rendon Rd,Rendon Church Of Christ,TX,"Burleson, ",76028
(817) 281-1421,6529 Smithfield Rd,Smithfield Church Of Christ,TX,"North Richland Hills, ",76182
(817) 750-0444,8750 Old Denton Rd,Light Of The World Lutheran,TX,"Fort Worth, ",76244
(817) 473-4587,1396 Bennett Lawson Rd,West Mansfield Church-Christ,TX,"Mansfield, ",76063
(817) 560-3300,800 W Loop 820 S,Catholic Diocese of Fort Worth,TX,"Fort Worth, ",76108
(817) 281-5833,4740 Western Center Blvd,Grace Evangelical Methodist Church,TX,"Haltom City, ",76137
(817) 281-0314,6701 Smithfield Rd,Smithfield United Methodist,TX,"North Richland Hills, ",76182
(817) 246-0191,1250 N Jim Wright Fwy,Castleberry Baptist Church,TX,"White Settlement, ",76108
(817) 860-0363,511 Harmon Ter,Jjaspp,TX,"Arlington, ",76010
(817) 503-2476,7600 N Beach St,Church Of Latter Day Saints,TX,"Fort Worth, ",76137
(817) 478-7771,4940 Oak Grove Rendon Rd,Rendon Forest Assembly Of God,TX,"Burleson, ",76028
(817) 295-1977,127 SW Thomas St,Burleson Church Of The Nazarene,TX,"Burleson, ",76028
(817) 447-8663,301 S Dobson St,Lighthouse Youth Group,TX,"Burleson, ",76028
(817) 426-2006,390 SE John Jones Dr,Church of Jesus Christ of Latter Day Saints,TX,"Burleson, ",76028
(817) 483-5600,6720 Dick Price Rd,Berea Bible Fellowship,TX,"Mansfield, ",76063
,,,,,
(817) 514-6364,5101 Western Center Blvd,Independent Baptist College,TX,"Fort Worth, ",76137
(817) 485-5683,1860 Precinct Line Rd,Word of Love Christian Center,TX,"Hurst, ",76054
(817) 284-9886,1248 W Hurst Blvd,Friendship Baptist Church,TX,"Hurst, ",76053
(817) 788-8305,5424 Rufe Snow Dr,Netchurch,TX,"North Richland Hills, ",76180
(817) 281-1330,5408 Davis Blvd,Davis Boulevard Baptist Church,TX,"North Richland Hills, ",76180
(817) 282-1040,147 E Hurst Blvd,North Pointe Baptist Church,TX,"Hurst, ",76053
(817) 656-1731,5330 Basswood Blvd,The Baptist Church At Park Glen,TX,"Fort Worth, ",76137
(817) 581-9111,6135 Holiday Ln,Glory Chinese Baptist Church,TX,"North Richland Hills, ",76180
(817) 306-7300,7955 N Beach St,Cornerstone Baptist Church,TX,"Fort Worth, ",76137
(817) 280-9862,712 W Pleasantview Dr,Hurst First Baptist Church,TX,"Hurst, ",76054
(817) 281-1820,7912 Main St,First Baptist Church,TX,"North Richland Hills, ",76182
(817) 427-4375,8400 Park Vista Blvd,Alliance Baptist Church,TX,"Fort Worth, ",76137
(817) 427-4375,5344 N Tarrant Pkwy,Alliance Baptist Church,TX,"Fort Worth, ",76244
(817) 540-1681,3324 House Anderson Rd,Saint John Missonary Baptist Church,TX,"Euless, ",76040
(817) 283-1750,920 Central Dr,Trinity Baptist Church,TX,"Bedford, ",76022
(817) 572-1913,4109 Flower Garden Dr,Mt Olive Baptist Church,TX,"Arlington, ",76016
(817) 478-0679,2580 N Main St,Oakdale Baptist Church,TX,"Mansfield, ",76063
(817) 282-9181,745 W Pipeline Rd,St Philip Presbyterian Church,TX,"Hurst, ",76053
(817) 498-6090,1843 Precinct Line Rd,St Stephen's Episcopal Church,TX,"Hurst, ",76054
(817) 485-6749,8801 Mid Cities Blvd,Legacy Church Of Christ,TX,"North Richland Hills, ",76182
(817) 447-1387,305 SE John Jones Dr,Tarrant Street Church-Christ,TX,"Burleson, ",76028
(817) 284-7181,852 W Bedford Euless Rd,St Paul United Methodist Chr,TX,"Hurst, ",76053
(817) 295-5621,100 SW Alsbury Blvd,St Ann Catholic Church,TX,"Burleson, ",76028
(817) 420-9640,335 SW Thomas St,First United Methodist Church,TX,"Burleson, ",76028
(682) 323-5392,6602 Fox Glen Dr,St Joseph Catholic Church,TX,"Arlington, ",76001
(817) 284-4369,946 W Pipeline Rd,Church Of God Of Prophecy,TX,"Hurst, ",76053
(817) 282-6686,100 W Hurst Blvd,Mid-Cities Seventh-Day,TX,"Hurst, ",76053
(817) 282-4962,665 W Pipeline Rd,Hurst Church Of The Nazarene,TX,"Hurst, ",76053
(817) 282-4835,300 Harmon Rd,Grace Covenant AOG,TX,"Hurst, ",76053
(817) 282-7865,812 Harrison Ln,Hurst Assembly Of God,TX,"Hurst, ",76053
,,,,,
(817) 496-1253,3809 Curt Dr,Church Of Jesus Christ Of Latterday Saints,TX,"Arlington, ",76016
(817) 277-6962,1221 S Center St,Central Assembly of God,TX,"Arlington, ",76010
(817) 483-1665,1951 N Main St,Mansfield Seventh Day Adventist Church Of Mansfield,TX,"Mansfield, ",76063
(214) 293-7820,1951 N Main St,Christ Covenant Orthodox,TX,"Mansfield, ",76063
(682) 518-0900,2480 Highway 287 N,Trinity Fellowship Baptist Chr,TX,"Mansfield, ",76063
(817) 281-2436,7318 NE Loop 820,Christian Science,TX,"North Richland Hills, ",76180
(903) 643-2220,NEW Hope Rd,Corinth Church of Christ,TX,"Longview, ",75603
(817) 244-1092,9729 Santa Monica Dr,Fellowship Antioch,TX,"Fort Worth, ",76116
(817) 282-7384,530 Elm St,Day School,TX,"Hurst, ",76053
(817) 473-1881,2200 Highway 287 N,Word of Life Family Church,TX,"Mansfield, ",76063
(817) 656-2999,4247 Road To The Mall,Northgate Pentecostals,TX,"North Richland Hills, ",76180
(817) 485-5565,4900 Cummings Dr,Holy Trinity Charismatic Episcopal Church,TX,"North Richland Hills, ",76180
(817) 285-8019,1000 W Pipeline Rd,DFW Korean Church,TX,"Hurst, ",76053
(817) 788-7146,1501 Precinct Line Rd,Hurst Church of The Nazarene,TX,"Hurst, ",76054
(817) 467-5151,3525 S Bowen Rd,Unity Church Of Arlington,TX,"Arlington, ",76016
(817) 354-5073,1300 Forest Ridge Dr,St Vincent's Episcopal School,TX,"Bedford, ",76022
(817) 295-2401,121 SW Haskew St,First Baptist Church Burleson,TX,"Burleson, ",76028
(817) 656-4950,5750 Davis Blvd,City of God Community Church,TX,"North Richland Hills, ",76180
(817) 237-8113,8801 Jacksboro Hwy,First Baptist Church Of Lakeside,TX,"Lakeside, ",76135
(817) 274-2571,313 N Center St At Division,First United Methodist Church Of Arlington,TX,"Arlington, ",76011
(817) 285-9332,310 W Pipeline Rd,Deliverance Bible Church,TX,"Hurst, ",76053
(817) 274-7161,3001 W Division St,World Baptist Fellowship,TX,"Arlington, ",76012
(817) 232-1910,901 N Blue Mound Rd,Friendship Missionary Baptist Church,TX,"Fort Worth, ",76131
(817) 284-0047,7540 Glenview Dr,First Baptist Chr-Richland Hls,TX,"Richland Hills, ",76180
(817) 232-1235,512 S Blue Mound Rd,Saginaw Park Baptist Church,TX,"Fort Worth, ",76131
(817) 281-5106,5800 Denton Hwy,First Baptist Church Haltom,TX,"Haltom City, ",76148
(817) 281-1076,5825 Whitley Rd,First Baptist Christian School,TX,"Haltom City, ",76148
(817) 281-0934,6124 Plum St,First Baptist Church Of Watauga,TX,"Watauga, ",76148
(817) 282-9261,625 W Pipeline Rd,Bellevue Baptist Church,TX,"Hurst, ",76053
(817) 498-8456,7025 Mid Cities Blvd,North Park Christian Academy,TX,"North Richland Hills, ",76182
,,,,,
(817) 285-0220,1400 Brown Trl,Ryanwood Baptist Church,TX,"Bedford, ",76022
(817) 295-4342,315 N Burleson Blvd,Boulevard Baptist Church,TX,"Burleson, ",76028
(817) 282-3628,1801 Norwood Dr,First Baptist Church of Hurst,TX,"Hurst, ",76054
(817) 281-3980,6649 Precinct Line Rd,Shady Grove Baptist Church,TX,"North Richland Hills, ",76182
(817) 868-9667,1120 Central Dr,Central Baptist Church-Bedford,TX,"Bedford, ",76022
(817) 281-2240,3420 Brown Trl,Harwood Terrace Baptist Church,TX,"Bedford, ",76021
(817) 483-8522,5100 Parliament Dr,Heritage Baptist Church,TX,"Arlington, ",76017
(817) 276-9786,2412 S Bowen Rd,Onnuri All Nations Baptist Church,TX,"Arlington, ",76015
(817) 419-0363,3510 Tomlinson Ct,Mt Abarim Baptist Missions,TX,"Arlington, ",76017
(817) 299-0105,1003 Oakwood Ln,Northwest Baptist Church Arlington,TX,"Arlington, ",76012
(817) 459-8500,2011 S Fielder Rd,Fielder Road Baptist Church,TX,"Arlington, ",76013
(817) 275-7941,2101 S Davis Dr,Calvary Baptist Church,TX,"Arlington, ",76013
(817) 460-7577,1013 W Park Row Dr,University Baptist Church,TX,"Arlington, ",76013
(817) 460-7940,2212 N Davis Dr,Trinity Baptist Church,TX,"Arlington, ",76012
(817) 516-0919,2501 Turner Way,Rehobeth Baptist Church,TX,"Arlington, ",76001
(817) 274-0593,311 E 3rd St,Central Baptist Church,TX,"Arlington, ",76010
(817) 465-6616,3434 S Collins St,Arlington Baptist Temple,TX,"Arlington, ",76014
(817) 427-2909,6416 Watauga Rd,Zion Lutheran Church,TX,"Watauga, ",76148
(817) 281-8334,7447 S College Cir,College Hill Church of Christ,TX,"North Richland Hills, ",76180
(817) 282-3607,504 W Bedford Euless Rd,Saint Andrew Lutheran Church-ELCA,TX,"Hurst, ",76053
(817) 483-1631,4325 SW Green Oaks Blvd,All Saints Lutheran Church,TX,"Arlington, ",76017
(817) 460-3841,1330 S Fielder Rd,Westminster Presbyterian Chr,TX,"Arlington, ",76013
(817) 261-8938,1308 W Pioneer Pkwy,Arlington Presbyterian Church,TX,"Arlington, ",76013
(817) 548-1556,1130 W Division St,Church Of Christ,TX,"Arlington, ",76012
(817) 277-6347,1601 N Davis Dr,North Davis Church of Christ,TX,"Arlington, ",76012
(817) 274-1654,210 W Park Row Dr,Grace Lutheran Church,TX,"Arlington, ",76010
(817) 274-4051,1200 S Collins St,First Presbyterian Preschool Arlington,TX,"Arlington, ",76010
(817) 277-6871,2024 S Collins St,St Mark's Episcopal Church,TX,"Arlington, ",76010
(817) 595-2654,7409 Glenview Dr,St John the Apostle Catholic,TX,"Richland Hills, ",76180
(817) 284-5912,4101 Frawley Dr,St John the Apostle Catholic,TX,"North Richland Hills, ",76180
,,,,,
(817) 281-0411,5301 Davis Blvd,Davis Memorial Umc,TX,"North Richland Hills, ",76180
(817) 485-0312,6112 Watauga Rd,First United Methodist Church Watauga,TX,"Watauga, ",76148
(817) 282-7384,521 W Pipeline Rd,First United Methodist Church Of Hurst,TX,"Hurst, ",76053
(817) 295-1166,590 NE McAlister Rd,First United Methodist Church,TX,"Burleson, ",76028
(817) 277-0731,1200 S Davis Dr,St Maria Goretti Church,TX,"Arlington, ",76013
(817) 200-6753,1908 Autry Ct,St Joseph Catholic Community,TX,"Arlington, ",76017
(817) 460-1155,1010 Benge Dr,University Catholic Community,TX,"Arlington, ",76013
(817) 277-9927,1408 N Davis Dr,St Mary The Virgin Catholic Church,TX,"Arlington, ",76012
(817) 801-5700,817 W Park Row Dr,Mosaic,TX,"Arlington, ",76013
(817) 460-2751,2100 N Davis Dr,Most Blessed Sacrament Catholic Church In Arlington,TX,"Arlington, ",76012
(817) 460-4212,2201 N Davis Dr,New World United Methodist Preschool,TX,"Arlington, ",76012
(817) 275-2674,1400 S Cooper St,Epworth United Methodist Church,TX,"Arlington, ",76013
(817) 801-1699,401 W North St,Armstrong AME Church,TX,"Arlington, ",76011
(817) 303-2860,404 E 1st St,Watchman Fellowship,TX,"Arlington, ",76010
(817) 275-1033,2020 S Collins St,Church Of The Good Shepherd United Methodist,TX,"Arlington, ",76010
(817) 537-0008,4401 E Loop 820 N,Church Of Jesus Christ Of Latter Day Saints,TX,"North Richland Hills, ",76180
(817) 281-3375,7350 Lola Dr,Jehovah's Witnesses,TX,"North Richland Hills, ",76180
(817) 282-9999,824 W Pipeline Rd,Glory Church,TX,"Hurst, ",76053
(817) 485-5526,6750 Denton Hwy,Northside Church-The Nazarene,TX,"Watauga, ",76148
(817) 297-8886,10417 W Cleburne Rd,Christ Community Church SW,TX,"Crowley, ",76036
(817) 280-0012,536 W Pipeline Rd,Church-Jesus Christ-The Spirit,TX,"Hurst, ",76053
(817) 295-3268,336 SW Rand Dr,Jehovah's Witnesses,TX,"Burleson, ",76028
(817) 267-8869,1300 Forest Ridge Dr,Saint Vincent's Episcopal Church,TX,"Bedford, ",76022
(817) 358-2068,2807 W Euless Blvd,Redeemed Christian Church of God,TX,"Euless, ",76040
(817) 483-4837,4409 Pleasantview Dr,Seventh-Day Adventist Church,TX,"Arlington, ",76017
(817) 467-5003,1011 S Bowen Rd,Better Way Apostolic Church,TX,"Arlington, ",76013
(817) 784-1818,3618 Roosevelt Dr,All Nations Seventh Day,TX,"Arlington, ",76016
(817) 795-7662,600 S Davis Dr,Church Of Jesus Christ Of Latter-Day Saints,TX,"Arlington, ",76013
(817) 465-1122,1200 High Point Rd,MT Olive Ministry Center,TX,"Arlington, ",76015
(817) 275-6333,311 Magnolia St,Cornerstone Evangel International Church,TX,"Arlington, ",76012
,,,,,
(817) 478-7458,3921 Turner Warnell Rd,Church Of Jesus Christ Of Latter Day Saints,TX,"Arlington, ",76001
(817) 460-0300,507 Road To Six Flags St W,Dayspring Church & Ministries,TX,"Arlington, ",76011
(817) 861-2232,1500 W Pioneer Pkwy,Cornerstone Community Bible,TX,"Arlington, ",76013
(817) 285-1671,241 W Bedford Euless Rd,Christ Memorial Community Church,TX,"Hurst, ",76053
(817) 459-8500,2011 N Fielder Rd,Fielder Road Baptist Church,TX,"Arlington, ",76012
(817) 860-2588,2109 S Center St,Cash Supply 100,TX,"Arlington, ",76010
(817) 268-3746,530 Elm St,First United Methodist Church of Hurst,TX,"Hurst, ",76053
(817) 460-3612,526 Buffalo Dr,World Baptist Fellowship Mssn,TX,"Arlington, ",76013
(817) 801-1275,1100 W Randol Mill Rd,Christ Cathedral Church,TX,"Arlington, ",76012
(817) 460-0620,1919 S Collins St,Good News International Christian Center,TX,"Arlington, ",76010
(817) 284-4856,700 NE Loop 820 Ste 313,North Texas District Assemblies of God,TX,"Hurst, ",76053
(817) 285-8008,1320 Brown Trl,Wesley Putnam Ministries,TX,"Bedford, ",76022
(817) 268-3222,1801 Brown Trl,Brown Trail School-Preaching,TX,"Bedford, ",76021
(817) 354-0386,11404 S Pipeline Rd,Seventh Day Adventist Church-Mosier Valley,TX,"Euless, ",76040
(817) 447-2667,455 NW John Jones Rd.,Victory Family Church,TX,"Burleson, ",76028
(817) 462-4245,1619 W Arkansas Ln,Christian Science Reading Room,TX,"Arlington, ",76013
(817) 274-0383,405 W 1st St,Christian Campus Center,TX,"Arlington, ",76010
(817) 275-8222,723 E Border St,Baha'i Faith,TX,"Arlington, ",76010
(817) 485-2703,7200 Denton Hwy,Harvest Church,TX,"Watauga, ",76148
(817) 788-8153,5825 Watauga Rd,1st St John Baptist Church,TX,"Watauga, ",76148
(817) 297-1417,724 Fm 1187 W,Calvary Baptist Church,TX,"Crowley, ",76036
(817) 297-3750,10425 Fm 1902,Victory Baptist Church,TX,"Crowley, ",76036
(817) 861-1400,315 N Davis Dr,Blessed Hope Missionary Baptist Church,TX,"Arlington, ",76012
(817) 478-9478,3001 Gertie Barrett Rd,Bisbee Baptist Church,TX,"Mansfield, ",76063
(817) 460-1199,721 Woodrow St,Korean-American First Baptist,TX,"Arlington, ",76012
(817) 860-2957,1000 W Lamar Blvd,Lamar Baptist Church,TX,"Arlington, ",76012
(817) 860-2588,2109 S Center St,South Center Baptist Church,TX,"Arlington, ",76010
(817) 274-2581,1901 Meadow Ln,Meadow Lane Baptist Church,TX,"Arlington, ",76010
(817) 485-5565,785 Treadwell Dr,Holy Trinity Charismatic Chr,TX,"Hurst, ",76053
(817) 297-4950,209 N Beverly St,First Presbyterian Church In Crowley,TX,"Crowley, ",76036
,,,,,
(817) 237-7857,6781 Lake Worth Blvd,N W Temple Of Praise,TX,"Fort Worth, ",76135
(817) 232-3464,300 Ridgecrest Dr,Church of Jesus Christ,TX,"Saginaw, ",76179
(817) 427-0010,221 Bedford Rd,Mercy Seat,TX,"Bedford, ",76022
(817) 788-8955,2001 Willis Ln,Church Of Latter Day Saints,TX,"Keller, ",76248
(817) 572-1759,4015 W Interstate 20,Frontline Church Of Arlington,TX,"Arlington, ",76017
(817) 275-0585,306 Cora St,Arlington Church Academy,TX,"Arlington, ",76011
(817) 232-2963,228 Belmont St,Bethesda Baptist Church of Saginaw,TX,"Saginaw, ",76179
(817) 238-2000,700 NE Loop 820,Roever & Associates,TX,"Hurst, ",76053
(817) 673-5804,3200 Norwood Ln,"Lamp and Light of Arlington, Texas",TX,"Arlington, ",76013
(817) 465-1291,3608 Matlock Rd,Covenant United Methodist Church,TX,"Arlington, ",76015
(817) 295-0134,500 NE Alsbury Blvd,Alsbury Baptist Church,TX,"Burleson, ",76028
(817) 431-4845,2016 Willis Ln,St Elizabeth Ann Seton School,TX,"Keller, ",76248
(817) 264-3083,305 W Main St,Saint Alban's Episcopal Church,TX,"Arlington, ",76010
(817) 705-9455,PO Box 171834,Divine Transitions Church International,TX,"Arlington, ",76003
(817) 478-8375,5700 Kelly Elliott Rd,Jehovah's Witnesses,TX,"Arlington, ",76017
(817) 246-6646,1650 N Las Vegas Trl,Grace Baptist Church,TX,"Fort Worth, ",76108
(817) 557-1133,1211 W Sublett Rd,Oasis Baptist Church,TX,"Arlington, ",76017
(817) 232-5606,9555 Harmon Rd,Faith Family Church,TX,"Fort Worth, ",76177
(817) 906-1478,2600 Hall Johnson Rd,Compass Christian Church,TX,"Colleyville, ",76034
(817) 545-0251,2701 Harwood Rd,Emmanuel Presbyterian Church,TX,"Bedford, ",76021
(817) 472-5242,5101 New York Ave,Regency Baptist Church,TX,"Arlington, ",76018
(817) 640-6440,319 Osler Dr,Total Life Ministries,TX,"Arlington, ",76010
(817) 375-1555,5015 New York Ave,United Christian Fellowship,TX,"Arlington, ",76018
(817) 479-7372,1820 Rufe Snow Dr,Northwood Church,TX,"Keller, ",76248
(817) 562-4404,1601 S Main St,New Life Fellowship,TX,"Keller, ",76248
(817) 295-0088,572 SW Wilshire Blvd,Grace Church,TX,"Burleson, ",76028
(817) 453-9959,1002 Walnut Pl,New Beginnings Baptist Church,TX,"Mansfield, ",76063
(817) 684-7440,4201 Pool Rd,Compass Christian Church,TX,"Grapevine, ",76051
(817) 284-7833,941 W Bedford Euless Rd,Peace Lutheran Church,TX,"Hurst, ",76053
(817) 232-9218,3 Old Decatur Rd,First Baptist Chr of Saginaw,TX,"Fort Worth, ",76179
(214) 801-6842,"601 Strada Circle, Suite 108D",Inspiring Grace Church,TX,"Mansfield, ",76063
,,,,,
(817) 938-7131,8425 Parkwood Hill Blvd,St Barnabas Apostle Episcopal,TX,"Fort Worth, ",76137
(817) 465-4749,1906 California Ln,California Lane Church-Christ,TX,"Arlington, ",76015
(817) 460-1425,911 S Davis Dr,St Alban's Episcopal Church,TX,"Arlington, ",76013
(817) 284-4811,7341 Glenview Dr,St John the Apostle Catholic,TX,"Richland Hills, ",76180
(817) 581-1428,2049 Willis Ln,Jehovah's Witnesses,TX,"Keller, ",76248
(817) 431-4459,2040 Willis Ln,Saint Elizabeth Ann Seton,TX,"Keller, ",76248
(817) 274-1345,3321 W Park Row Dr,Trinity United Methodist Chr,TX,"Arlington, ",76013
(817) 460-8655,1800 W Randol Mill Rd,St Stephen United Methodist Church,TX,"Arlington, ",76012
(817) 297-7003,2001 E Main St,First Church Of The Nazarene,TX,"Crowley, ",76036
(817) 861-7967,2800 W. Division,DFW Grace Bible Church,TX,"Arlington, ",76010
(817) 483-3300,6404 Kelly Elliott Rd,God Answers Ministries,TX,"Arlington, ",76001
(817) 478-6623,309 Kennedy Dr,First Baptist Church of Kennedale,TX,"Crowley, ",76036
(817) 297-4031,118 S Texas St,Community Baptist Church of Crowley,TX,"Crowley, ",76036
(817) 277-4077,414 S West St,Baptist General Convention of Texas Division of Student Ministry,TX,"Arlington, ",76010
(817) 861-8018,207 W Sanford St,Mount Olive Child Development Center,TX,"Arlington, ",76011
(817) 274-4576,1717 California Ln,Christian Science,TX,"Arlington, ",76015
(817) 465-0181,3232 S Cooper St,Advent Christian Pre-School,TX,"Arlington, ",76015
(817) 297-7003,1117 E Main St,First Church Of The Nazarene,TX,"Crowley, ",76036
(817) 277-9600,805 Secretary Dr Ste B,G.Harris(The Breakthrough),TX,"Arlington, ",76015
(817) 465-1906,3608 Matlock Rd,Covenant Umc-Early Childhood Learning Center,TX,"Arlington, ",76015
(817) 323-3505,1009 N Mesquite St,Iglesia La Voz Que Clama En EL Desierto,TX,"Arlington, ",76011
(817) 277-9906,421 Truman St,Arlington Spanish Seventh-Day Adventist,TX,"Arlington, ",76011
(817) 284-9371,7301 Glenview Dr,Richland Hills United Methodist Church,TX,"Richland Hills, ",76180
(817) 282-4927,745 Brown Trl,Hurst Christian Church,TX,"Hurst, ",76053
(817) 237-4163,4447 Hodgkins Rd,Lake Worth Baptist Church,TX,"Fort Worth, ",76135
(817) 232-0560,300 N Saginaw Blvd,First Baptist Church-Saginaw,TX,"Saginaw, ",76179
(817) 282-6526,1801 Brown Trl,Brown Trail Church Of Christ,TX,"Hurst, ",76054
(817) 498-4339,2105 Willis Ln,New Hope Lutheran Church,TX,"Keller, ",76248
(817) 468-8484,5450 Mansfield Rd,St John's The Apostle United Methodist Church,TX,"Arlington, ",76017
,,,,,
(817) 656-2865,3401 Amherst Cir,Church Of Jesus Christ Of Latter Day Saints,TX,"Bedford, ",76021
(817) 861-1400,2002 Cottie Ln,Blessed Hope Missionary Baptist,TX,"Arlington, ",76010
(817) 467-6002,1420 E Mayfield Rd,Primera Iglesia Bautista,TX,"Arlington, ",76014
(817) 238-0606,11701 Jacksboro Hwy,Safe Harbor Christian Learning Center,TX,"Fort Worth, ",76135
(817) 576-4678,5310 Pleasant Run Rd,Rccg Glory House,TX,"Colleyville, ",76034
(817) 283-2627,2916 Scarborough Ln W,Baha'i Faith,TX,"Colleyville, ",76034
(817) 514-6707,5712 Colleyville Blvd,M B F Emmanual 287,TX,"Colleyville, ",76034
(817) 861-1400,1530 Parkway Ln,Blessed Hope Missionary Baptist Church,TX,"Arlington, ",76010
(214) 417-5920,1700 New York Ave,Graceway Church,TX,"Arlington, ",76010
(817) 861-7990,2001 E Division St # 121,Redeemed Christian Church,TX,"Arlington, ",76011
(817) 795-1525,1401 Hillcrest Dr,Arlington Iglesia De Cristo,TX,"Arlington, ",76010
(817) 419-2939,1500 E Bardin Rd,Southern Worship Center,TX,"Arlington, ",76018
(972) 623-1037,702 Greenview Dr,New Life Fellowship,TX,"Grand Prairie, ",75050
(817) 404-5618,1601 NE Green Oaks Blvd,Inspired to Live Ministries,TX,"Arlington, ",76006
(817) 426-4190,506 Pleasant Manor Ave,Resurrection Light House Ministries,TX,"Burleson, ",76028
(817) 431-3336,5751 Kroger Dr,Elevate Him,TX,"Fort Worth, ",76244
(817) 274-5111,1701 Martin Luther Dr,Prince of Peace House of Prayer,TX,"Arlington, ",76010
(817) 447-2667,455 NW John Jones Dr,Victory Family Church,TX,"Burleson, ",76028
(817) 462-0378,1600 Patio Ter,Restoration-Faith Fellowship,TX,"Arlington, ",76010
(817) 473-4442,2090 Highway 157 N,Redeemed Christian Church of God Light House parish,TX,"Mansfield, ",76063
(817) 461-8857,5001 New York Ave,Rccghof,TX,"Arlington, ",76018
(817) 466-8211,2455 SE Green Oaks Blvd,Koinonia Church,TX,"Arlington, ",76018
(817) 581-5500,6100 Pleasant Run Rd,Congregation Beth Israel,TX,"Colleyville, ",76034
(972) 602-2201,2127 S Great Southwest Pkwy,All Nations Star Express,TX,"Grand Prairie, ",75051
(817) 476-6151,1701 Martin Luther Drive,Iglesia Misionera Jesucristo es el Senor,TX,"Arlington, ",76010
(972) 660-4961,2217 W Jefferson St,Trinity Outreach Church,TX,"Grand Prairie, ",75051
(817) 358-1231,4201 Pool Rd,Word of God Fellowship Inc,TX,"Colleyville, ",76034
(817) 354-3838,1903 Central Dr Ste 103,Kingdom Global Ministries,TX,"Bedford, ",76021
(817) 281-5024,4800 Lakeshore Ct,Champions Gate Church,TX,"Colleyville, ",76034
(817) 423-4282,4709 Colleyville Blvd # 580,Amber Rose Ministries,TX,"Colleyville, ",76034
,,,,,
(830) 634-7765,4800 Manning Dr,Mother of Mercy Ministries,TX,"Colleyville, ",76034
(817) 281-5254,5601 Pleasant Run Rd,First United Methodist Church of Colleyville,TX,"Colleyville, ",76034
(817) 684-7440,4201 Pool Rd,Compass Christian Church,TX,"Colleyville, ",76034
(817) 251-0666,1706 Tennison Pkwy,Christian Mens Network,TX,"Colleyville, ",76034
(817) 801-1651,2280 N Collins St,Ebenezer Olayiwaola,TX,"Arlington, ",76011
(817) 652-3681,2809 Galleria Dr,Pray Victory Church,TX,"Arlington, ",76011
(972) 641-6067,2129 Beaumont St,McIntosh Chapel CME Church,TX,"Grand Prairie, ",75051
(817) 405-3356,1701 E Mayfield Rd,Praxis Community Church,TX,"Arlington, ",76014
(817) 633-4337,1179 Corporate Dr W,Iglesia De Dios Pentecostal,TX,"Arlington, ",76006
(817) 358-1231,4201 Pool Rd,Word Of God Fellowship Inc,TX,"Grapevine, ",76051
(817) 477-2570,1011 North St,Church Frontline,TX,"Mansfield, ",76063
(972) 522-1230,2202 San Antonio St,The Calvary Church,TX,"Grand Prairie, ",75051
(817) 608-9090,803 Avenue H E Ste 301,Word of Peace International Ministries,TX,"Arlington, ",76011
(817) 465-3043,2045 SE Green Oaks Blvd,Saint Andrews United Methodist Church,TX,"Arlington, ",76018
(817) 473-1712,1200 Clover Hill Rd,Trinity Presbyterian Church,TX,"Mansfield, ",76063
(817) 236-3454,8895 Random Rd,Fullness In Christ Church,TX,"Fort Worth, ",76179
(817) 295-3891,2309 E Renfro St,Cana Baptist Church,TX,"Burleson, ",76028
(817) 845-0050,428 SW Johnson Ave,Brazos,TX,"Burleson, ",76028
(817) 247-0929,3712 Central Dr.,Bedford Chinese Baptist Church,TX,"Bedford, ",76021
(817) 473-0737,580 Pleasant Ridge Dr,Mansfield Church of Christ,TX,"Mansfield, ",76063
(817) 295-1985,1101 SW Wilshire Blvd,Charity Lutheran Church,TX,"Burleson, ",76028
(817) 295-0971,675 W Hidden Creek Pkwy,South Burleson Baptist Church,TX,"Burleson, ",76028
(817) 295-5600,260 S Hurst Rd,Burleson Bible Church,TX,"Burleson, ",76028
(972) 660-7245,2545 W Warrior Trl,Open Door Baptist Church,TX,"Grand Prairie, ",75052
(972) 264-2374,3020 Bardin Rd,Crosspoint Church of Christ,TX,"Grand Prairie, ",75052
(817) 275-2426,2710 Charon Ct,Calvary Baptist Church,TX,"Grand Prairie, ",75052
(817) 485-2441,8329 Spence Dr,New Covenant Church,TX,"North Richland Hills, ",76182
(817) 453-5550,901 Debbie Ln,Southpointe Baptist Church,TX,"Arlington, ",76002
(817) 428-6775,1300 Sarah Brooks Dr,Westwind Church,TX,"Keller, ",76248
(817) 477-2287,777 N Walnut Creek Dr,First United Methodist Church,TX,"Mansfield, ",76063
,,,,,
(817) 788-1414,104 Grapevine Hwy,Life Connection Church,TX,"Hurst, ",76054
(817) 399-1836,2045 Bedford Rd,Metroplex Messianic Fellowship,TX,"Bedford, ",76021
(817) 295-0433,777 S Burleson Blvd,Southwest Estate Svc,TX,"Burleson, ",76028
(817) 295-0476,777 S Burleson Blvd,Seventh-day Adventist Church,TX,"Burleson, ",76028
(817) 277-9446,2300 E Park Row Dr,Assembly Apostolica,TX,"Arlington, ",76010
(817) 461-8857,5001 New York Ave,The Redeemed Christian Church of God-Household of Faith,TX,"Arlington, ",76018
(972) 988-8341,2217 W Jefferson St,Power & Authority Tabernacle,TX,"Grand Prairie, ",75051
(817) 283-5359,2045 Bedford Rd,First Baptist Church,TX,"Bedford, ",76021
(817) 267-6239,2403 Bedford Rd,Bedford Baptist Temple,TX,"Bedford, ",76021
(817) 835-0027,2503 Bedford Rd,The Church at Meadow Creek: A Baptist Fellowship,TX,"Bedford, ",76021
(817) 267-3323,3712 Central Dr,Woodland Heights Baptist Church,TX,"Bedford, ",76021
(817) 281-4158,5300 Colleyville Blvd,First Baptist Colleyville,TX,"Colleyville, ",76034
(817) 788-5248,5300 Colleyville Blvd,Sonshine Academy,TX,"Colleyville, ",76034
(817) 465-6101,1701 E Mayfield Rd,Mayfield Road Baptist Church,TX,"Arlington, ",76014
(972) 641-0695,721 Manning St,Sunset Baptist Church,TX,"Grand Prairie, ",75051
(972) 641-4880,2001 W Pioneer Pkwy,Trinity Baptist Church,TX,"Grand Prairie, ",75051
(817) 571-7474,3001 Forest Ridge Dr,St Timothy Cumberland Presbyterian Church,TX,"Bedford, ",76021
(817) 283-7869,2401 Bedford Rd,Bedford Church Of Christ,TX,"Bedford, ",76021
(817) 281-1681,1008 Church St,Colleyville Church Of Christ,TX,"Colleyville, ",76034
(817) 421-5683,6605 Pleasant Run Rd,Crown Of Life Lutheran Church & School,TX,"Colleyville, ",76034
(817) 465-6500,5371 New York Ave,New York Ave Church Of Christ,TX,"Arlington, ",76018
(682) 518-7911,600 Strada Cir,Christ Presbysterian Church,TX,"Mansfield, ",76063
(972) 660-4641,908 Santerre St,West Fork Presbyterian Church,TX,"Grand Prairie, ",75050
(817) 468-1900,1508 E Mayfield Rd,Bible Missionary Church,TX,"Arlington, ",76014
(817) 860-0130,2021 New York Ave,St Matthew Catholic Church,TX,"Arlington, ",76010
(817) 788-1224,"4121 Colleyville Blvd, Ste 11",Joy Fellowship Church,TX,"Colleyville, ",76034
(817) 685-6565,490 Westpark Way,Jehovah's Witnesses,TX,"Euless, ",76040
(817) 281-5465,4309 Colleyville Blvd,Colleyville Church,TX,"Colleyville, ",76034
(817) 485-9910,7900 Precinct Line Rd,Bear Valley Community Church,TX,"Colleyville, ",76034
(817) 576-0251,5312 Bransford Rd,Church Of Latter Day Saints,TX,"Colleyville, ",76034
,,,,,
(817) 297-1279,2009 Rock Creek Rd,Rock Creek Baptist Church,TX,"Crowley, ",76036
(817) 295-7141,601 S Burleson Blvd,Seventh-Day Adventist Church,TX,"Burleson, ",76028
(817) 236-7274,9940 Morris Dido Newark Rd,Lakeview Fellowship Church,TX,"Fort Worth, ",76179
(817) 431-1700,5751 Kroger Dr,Covenant Life Church,TX,"Fort Worth, ",76244
(817) 295-0476,777 S Burleson Blvd,Southwestern Union Conference,TX,"Burleson, ",76028
(817) 545-2273,2512 Glade Rd,Pleasant Glade Assembly Of God,TX,"Colleyville, ",76034
(817) 394-3000,2500 E Arbrook Blvd,High Point Church,TX,"Arlington, ",76014
(817) 276-8100,1907 Ascension Blvd Ste 300,Fellowship of Christian Athletes,TX,"Arlington, ",76006
(817) 281-5909,621 Chestnut Dr,Church First Baptist,TX,"Keller, ",76248
(817) 469-7739,2065 E Division St,A Life Baptist Church,TX,"Arlington, ",76011
(817) 417-7714,4990 New York Ave,St Phillips Episcopal Church,TX,"Arlington, ",76018
(972) 352-6655,2429 Dalworth St Ste 101,National Assoc of Christian Churches,TX,"Grand Prairie, ",75050
(817) 238-2000,9430 Ten Mile Bridge Rd,Roever & Assoc,TX,"Fort Worth, ",76135
(817) 238-0606,11701 Jacksboro Hwy,Souls Harbor Community Church,TX,"Fort Worth, ",76135
(817) 251-0333,2250 Pool Rd Ste 200,Kingdom Global Ministries,TX,"Grapevine, ",76051
(817) 417-4421,1708 Raton Dr,Temple of Praise COGIC,TX,"Arlington, ",76018
(817) 295-4123,601 SW Johnson Ave,First Christian Church,TX,"Burleson, ",76028
(817) 473-1270,1500 Breckenridge Rd,Lakeside Church of Christ,TX,"Mansfield, ",76063
(817) 581-3418,7850 Davis Blvd,Life Church,TX,"North Richland Hills, ",76182
(817) 473-4235,107 N 1st Ave,Mansfield Christian Fellowship,TX,"Mansfield, ",76063
(817) 479-0217,1555 N Tarrant Pkwy,Bear Creek Bible Church,TX,"Keller, ",76248
(817) 237-7086,401 Beverly Rd,First Baptist Church-Castle Hl,TX,"Azle, ",76020
(817) 295-5185,3330 SW Wilshire Blvd,First Assembly of God of Joshua,TX,"Burleson, ",76028
(817) 465-5900,2101 E Mayfield Rd,Pioneer Parkway Congregation,TX,"Arlington, ",76014
(817) 251-9602,1110 John McCain Rd,Saint Mary's Coptic Orthodox Church,TX,"Colleyville, ",76034
(817) 571-2080,1901 Central Dr,Morris Cerullo World Evangelism,TX,"Bedford, ",76021
(817) 473-8378,1804 Highway 157 N,First Church Of The Nazarene,TX,"Mansfield, ",76063
(214) 333-5888,110 Grapevine Hwy,Dallas Baptist University,TX,"Hurst, ",76054
(817) 303-3900,1401 Hillcrest Dr,Hillcrest Church of Christ,TX,"Arlington, ",76010
(817) 355-7799,2219 W Euless Blvd,Harris Methodist H E B,TX,"Euless, ",76040
,,,,,
(817) 473-6205,1091 Country Club Dr,St Gregory's Episcopal Church,TX,"Mansfield, ",76063
(817) 788-0866,7650 Precinct Line Rd,Mid Cities Church,TX,"Hurst, ",76054
(817) 477-2287,601 Pleasant Ridge Dr,First United Methodist Church,TX,"Mansfield, ",76063
(972) 237-1987,1401 E Abram St,International Charismatic Chr,TX,"Arlington, ",76010
(817) 891-8463,9500 Ray White Rd Ste 101,Vineyard of Grace Church,TX,"Fort Worth, ",76244
(817) 385-0933,1178 Corporate Dr W,Lil Images of Blessing CLC,TX,"Arlington, ",76006
(817) 431-2345,1308 Whitley Rd,Messiah Lutheran Church,TX,"Keller, ",76248
(972) 639-1149,2905 Galleria Dr Suite 125,Rejoice And Praise Community Fellowship Church,TX,"Arlington, ",76011
(817) 498-6090,7452 Precinct Line Rd,St Stephens Episcopal Church,TX,"North Richland Hills, ",76180
(817) 481-2559,422 Church St,First United Methodist Church,TX,"Grapevine, ",76051
(214) 916-6584,3633 Atlanta St,Klean Kut Truth - Greater St John Revelation Church,TX,"Dallas, ",75215
(469) 343-5199,,Psychic Abby,,,
,,,,,
(817) 576-0027,500 W McDonwell School Rd,Church Of Latter Day Saints,TX,"Colleyville, ",76034
(817) 416-3626,1803 Tarrant Ln,Hope Church,TX,"Colleyville, ",76034
(817) 488-7232,3408 Hall Johnson Rd,Jehovah's Witnesses,TX,"Grapevine, ",76051
(817) 795-1696,133 Luttrell St,Christ Apostolic Church,TX,"Arlington, ",76010
(817) 465-5900,2101 E Mayfield Rd,Jehovah's Witnesses,TX,"Arlington, ",76014
(817) 275-3168,2222 E Park Row Dr,Arlington East Park Church,TX,"Arlington, ",76010
(817) 477-2570,1011 North St,Calvery Assembly Of God,TX,"Mansfield, ",76063
(817) 473-1371,200 Newt Patterson Rd,Walnut Creek Church Of God,TX,"Mansfield, ",76063
(972) 264-1376,2129 Spikes St,Prayertower Church Of God,TX,"Grand Prairie, ",75051
(817) 557-5811,2350 E Mayfield Rd,Agape Christian Fellowship,TX,"Arlington, ",76014
(817) 281-0850,6005 Pleasant Run Rd,Pleasant Run Baptist Church,TX,"Colleyville, ",76034
(214) 333-5900,1301 Highway 287 N,Dallas Baptist University,TX,"Mansfield, ",76063
(817) 453-9959,206 Smith St,New Beginnings Baptist Church,TX,"Mansfield, ",76063
(817) 571-2080,1901 Central Dr Ste 817,M C W E,TX,"Bedford, ",76021
(817) 354-9038,2621 Bedford Rd,Martin United Methodist Church,TX,"Bedford, ",76021
(817) 358-9423,3700 Murphy Dr,Fellowship of Christian Outdoorsmen,TX,"Bedford, ",76021
(817) 416-4267,1004 Tinker Rd,Good Shepherd Catholic Community,TX,"Colleyville, ",76034
(817) 427-4441,5712 Colleyville Blvd,Prayer Care Inc,TX,"Colleyville, ",76034
(817) 473-4442,1024 E Broad St Ste 206,Redeemed Christian Church of God Lighthouse,TX,"Mansfield, ",76063
(817) 431-9030,1301 S Main St,Twin Oaks Baptist Church,TX,"Keller, ",76248
(817) 277-6721,415 New York Ave,Highland Baptist Church,TX,"Arlington, ",76010
(817) 635-0110,2001 Brown Blvd,First Baptist Church Arlington,TX,"Arlington, ",76006
(817) 498-2626,715 Cheek Sparger Rd,Presbyterian Church In America-Colleyville,TX,"Colleyville, ",76034
(972) 641-4351,2446 Arkansas Ln,Church of Christ Forum Terrace,TX,"Grand Prairie, ",75052
(817) 281-5254,1000 Church St,First United Methodist,TX,"Colleyville, ",76034
(817) 421-1387,1000 Tinker Rd,Good Shepherd Catholic Community,TX,"Colleyville, ",76034
(817) 274-0116,2201 E Park Row Dr,Aldersgate United Methodist,TX,"Arlington, ",76010
(817) 640-4588,611 109th St,Grace,TX,"Arlington, ",76011
(972) 602-0639,2374 Fort Worth St,Ebenezer Spanish Assembly-God,TX,"Grand Prairie, ",75050
(972) 647-1445,2251 El Paso St,Morning Star Baptist,TX,"Grand Prairie, ",75051
,,,,,
