category,phone,streetAddress,name,addressState,addressCity,addressZip
Financial Services,(785) 843-1371,730 New Hampshire St Ste 212,Edward Jones - Financial Advisor: Jeff Peterson,KS,"Lawrence, ",66044
Financial Services,(785) 838-3271,901 Kentucky St Ste #101,Edward Jones - Financial Advisor: Mark R Brosa,KS,"Lawrence, ",66044
Financial Services,(785) 841-0342,1410 Kasold Dr Suite A4,Edward Jones - Financial Advisor: Loren Gottschalk,KS,"Lawrence, ",66049
Financial Services,(785) 842-2450,2449 Iowa St Suite A-1,Edward Jones - Financial Advisor: Liz Kundin,KS,"Lawrence, ",66046
Financial Services,(785) 841-0382,4106 W 6th St Suite A,Edward Jones - Financial Advisor: Todd Walker,KS,"Lawrence, ",66049
Financial Services,(785) 841-6262,4828 Quail Crest Pl Ste B,Edward Jones - Financial Advisor: Harley D Catlin,KS,"Lawrence, ",66049
Financial Services,(785) 841-6262,4828 Quail Crest Pl Ste B,Edward Jones - Financial Advisor: Ryan J Catlin,KS,"Lawrence, ",66049
Structural Engineers,(785) 856-9600,850 E 13th St,Cook Flatt Strobel Engineers PA,KS,"Lawrence, ",66044
"Banks,Commercial & Savings Banks",(785) 749-2224,3400 W 6th St,Truity Credit Union,KS,"Lawrence, ",66049
"Estate Planning, Probate, & Living...",(785) 856-7111,1311 Wakarusa Dr Suite 2121,Ameriprise Financial Services Inc,KS,"Lawrence, ",66049
"Air Duct Cleaning,Carpet & Rug Cleaners",(785) 842-1402,,All Pro Services Inc,KS,"Lawrence, ",66044
Water Damage Restoration,(785) 842-0351,1420 N 3rd St,Paul Davis Restoration,KS,"Lawrence, ",66044
Computer System Designers & Consultants,(785) 331-5819,3804 Pinnacle Cir,Jberra Design,KS,"Lawrence, ",66049
Computers & Computer Equipment-Service...,(785) 727-1355,2625 Moundview Dr,Best Deal Computers,KS,"Lawrence, ",66049
Computers & Computer Equipment-Service...,(785) 841-8766,4105 W 6th St,DoctorDave Computer Repair,KS,"Lawrence, ",66049
Alzheimer's Care & Services,(785) 841-4262,1429 Kasold Dr,Lawrence Presbyterian Manor,KS,"Lawrence, ",66049
"Appraisers,Real Estate Appraisers",(785) 371-3072,"4000 W 6th St, Suite B130","Veritas Appraisals and Consulting, LLC",KS,"Lawrence, ",66049
"Financial Services,Stock & Bond Brokers",(785) 841-3909,3300 Clinton Parkway Ct 100,Edward Jones - Financial Advisor: Scott Burkhart,KS,"Lawrence, ",66047
Business & Economic Development,(785) 249-7893,1036 April Rain Road,"KG Consulting Group, LLC",KS,"Lawrence, ",66049
Management Consultants,(785) 312-9150,100 Riverfront Rd,EFM Integrated,KS,"Lawrence, ",66044
Computers & Computer Equipment-Service...,(785) 832-7177,1 Riverfront Plz,Geeks On Wheels,KS,"Lawrence, ",66044
Advertising Agencies,(785) 838-4774,805 New Hampshire St,Callahan Creek Inc,KS,"Lawrence, ",66044
Marketing Programs & Services,(785) 749-5336,912 Tennessee St,Volicity Marketing,KS,"Lawrence, ",66044
Computer & Equipment Dealers,(785) 841-9513,4921 Legends Dr,Microtech Computers Inc,KS,"Lawrence, ",66049
"Management Consultants,Attorneys",(785) 840-9676,5020 Bob Billings Pkwy # C,Midland Group,KS,"Lawrence, ",66049
Financial Planning Consultants,(785) 843-4939,211 E 8th St,Reinhardt Financial Services,KS,"Lawrence, ",66044
Business Coaches & Consultants,(785) 856-8400,901 Kentucky St # 106,Teamsynergy,KS,"Lawrence, ",66044
"Consulting Engineers,General Contractors",(785) 832-8866,2721 Oregon St,Pinnacle Technology Inc,KS,"Lawrence, ",66046
Consulting Engineers,(785) 832-8866,2721 Oregon St,Johnson Donna,KS,"Lawrence, ",66046
"Insurance,Financial Planning Consultants",(785) 841-7444,2201 W 25th St,Farm Bureau Financial Services,KS,"Lawrence, ",66047
,(877) 206-8692,,,,,
,(816) 751-9334,,,,,
,(816) 237-5420,1201 Walnut St,,MO,"Kansas City, ",64106
,(501) 753-0202,,,,,
,,,,,,
Financial Planning Consultants,(785) 838-1954,2321 Harper St,Raymond James Financial Services,KS,"Lawrence, ",66046
Educational Consultants,(785) 691-7198,549 Arrowhead Dr,Amison Consulting,KS,"Lawrence, ",66049
Financial Planning Consultants,(785) 841-3909,1800 E 23rd St,Edward Jones,KS,"Lawrence, ",66046
Investments,(785) 843-7070,3310 Mesa Way,Great Plains Financial Group,KS,"Lawrence, ",66049
Financial Planning Consultants,(785) 856-1766,3320 Mesa Way,Brush Creek Partners,KS,"Lawrence, ",66049
Investments,(785) 841-0342,1400 Kasold Dr,Edward Jones,KS,"Lawrence, ",66049
Business Coaches & Consultants,(785) 832-0303,1410 Kasold Dr,Chief Executive Network,KS,"Lawrence, ",66049
Stock & Bond Brokers,(785) 841-0342,1410 Kasold Dr,"Hull, Dru B",KS,"Lawrence, ",66049
"Accountants-Certified Public,Bookkeeping",(785) 842-3431,3504 Westridge Dr,Roark & Associates,KS,"Lawrence, ",66049
Financial Planning Consultants,(785) 842-3530,3227 Huntington Rd,A B Financial,KS,"Lawrence, ",66049
Financial Planning Consultants,(785) 842-3530,3227 Huntington Rd,Brown Patrick,KS,"Lawrence, ",66049
Business Coaches & Consultants,(785) 749-3031,2104 W 25th St # E,"Suderman, Bob",KS,"Lawrence, ",66047
Financial Planning Consultants,(785) 843-4422,1617 Saint Andrews Dr,Ameriprise Financial,KS,"Lawrence, ",66047
Financial Planning Consultants,(785) 865-0878,2027 E 26th St,Hui Financial Group,KS,"Lawrence, ",66046
Financial Planning Consultants,(785) 856-2136,627 Monterey Way,Northwestern Mutual Financial,KS,"Lawrence, ",66049
Business Coaches & Consultants,(785) 830-9899,1516 Alvamar Dr,Ad Astra Associated Inc,KS,"Lawrence, ",66047
Business Coaches & Consultants,(785) 843-4447,4000 W 6th St,Bsr,KS,"Lawrence, ",66049
Environmental & Ecological Consultants,(785) 856-8220,3200 Haskell Ave,Guidewire Consulting,KS,"Lawrence, ",66046
Business Coaches & Consultants,(785) 843-0048,1545 Alvamar Dr,Mynsted & Assoc Inc,KS,"Lawrence, ",66047
Business Coaches & Consultants,(888) 708-5595,3100 Ousdahl Rd,Exchange At Lawrence,KS,"Lawrence, ",66046
Financial Planning Consultants,(785) 841-0031,4124 Goldfield St,Royal Alliance Associates Inc,KS,"Lawrence, ",66049
Financial Services,(785) 856-2487,4105 W 6th St # 13,Primerica,KS,"Lawrence, ",66049
Business Coaches & Consultants,(785) 856-3330,400 Jane Ct,GMAP-Triple S,KS,"Lawrence, ",66049
Investment Advisory Service,(785) 841-4664,"2500 W 31st St, Suite B",McDaniel Knutson Financial Partners,KS,"Lawrence, ",66047
Financial Planning Consultants,(785) 842-4650,2500 W 31st St # G2,Blosser Financial Services,KS,"Lawrence, ",66047
Financial Planning Consultants,(785) 841-4664,2500 W 31st St,Cetera Advisor Networks,KS,"Lawrence, ",66047
Financial Planning Consultants,(785) 841-4664,2500 W 31st St # B,Mc Daniel Knutson Finanicial,KS,"Lawrence, ",66047
Financial Planning Consultants,(785) 830-8906,4419 Freedom Creek Dr,Grimmond Financial,KS,"Lawrence, ",66049
Consulting Engineers,(785) 842-6464,616 Vermont St # B,Mann Jarrod PE,KS,"Lawrence, ",66044
Financial Planning Consultants,(785) 865-4116,2417 Brookside Ct,Thrivent Financial-Lutherans,KS,"Lawrence, ",66047
"Consulting Engineers,Civil Engineers",(785) 841-1774,4601 W 6th St,Wade & Associates Inc,KS,"Lawrence, ",66049
,,,,,,
Business Coaches & Consultants,(785) 843-8844,734 Vermont St,Small Business Administration,KS,"Lawrence, ",66044
Environmental & Ecological Consultants,(785) 856-8220,"211 East 8th Street, Suite F",Guidewire Consulting,KS,"Lawrence, ",66044
Market Research & Analysis,(785) 841-3493,815 Massachusetts St,Konza Media Group Inc,KS,"Lawrence, ",66044
Consulting Engineers,(785) 832-0252,612 Kentucky St,Morel James PE,KS,"Lawrence, ",66044
Financial Planning Consultants,(785) 841-4561,900 Massachusetts St,"Kempf, Teresa Mulinazzi",KS,"Lawrence, ",66044
Investment Advisory Service,(785) 843-3800,900 Massachusetts St # 602,Terlizzi Garth,KS,"Lawrence, ",66044
Financing Consultants,(785) 841-4561,900 Massachusetts St Ste 403,Ameriprise Financial,KS,"Lawrence, ",66044
Financial Planning Consultants,(785) 749-1881,900 Massachusetts St,The Perspective Group,KS,"Lawrence, ",66044
Financial Planning Consultants,(785) 842-6662,901 Kentucky St,Mooberry Financial Management,KS,"Lawrence, ",66044
Financial Planning Consultants,(785) 856-7500,901 Kentucky St,Thompson Financial Group,KS,"Lawrence, ",66044
Consulting Engineers,(785) 865-2332,1001 New Hampshire St,Gpw & Associates,KS,"Lawrence, ",66044
Mold Testing & Consulting,(785) 749-6020,1008 Massachusetts St,Cromwell Environmental,KS,"Lawrence, ",66044
Financial Planning Consultants,(785) 841-2266,794 Highway 40,Primerica Financial Svc,KS,"Lawrence, ",66049
Government Offices,(785) 832-5293,1242 Massachusetts St,Douglas County,KS,"Lawrence, ",66044
Financial Planning Consultants,(785) 842-3976,713 Lake St,Jamison & Assoc,KS,"Lawrence, ",66044
Financial Planning Consultants,(785) 838-7687,2000 Bluffs Dr,Boston Financial Data Service,KS,"Lawrence, ",66044
Financial Planning Consultants,(785) 838-7687,2000 Bluffs Dr,Mason Steve,KS,"Lawrence, ",66044
Financial Planning Consultants,(785) 865-5308,515 Rockledge Rd,Rademacher Finanicial Inc,KS,"Lawrence, ",66049
"Banks,Financial Planning Consultants",(785) 749-9000,1026 Westdale Rd,Capitol Federal Savings Bank,KS,"Lawrence, ",66049
Government Consultants,(785) 842-5385,2409 Westdale Rd,D Lane Consulting,KS,"Lawrence, ",66049
Business Coaches & Consultants,(785) 830-8929,2105 Carolina St,Good Energy Solutions Inc,KS,"Lawrence, ",66046
"Mutual Funds,Investments",(785) 841-7676,2601 W 6th St,Waddell & Reed,KS,"Lawrence, ",66049
Investment Advisory Service,(785) 841-3523,2332 Haskell Ave,C Sharla Investors,KS,"Lawrence, ",66046
Financial Planning Consultants,(785) 842-8333,3110 Mesa Way # A,Alpha & Omega Financial Services,KS,"Lawrence, ",66049
Investment Advisory Service,(785) 749-0904,3120 Mesa Way,Trust Co Of Kansas,KS,"Lawrence, ",66049
Financial Planning Consultants,(785) 841-2985,3200 Mesa Way,Ameriprise Financial Services Inc,KS,"Lawrence, ",66049
Web Site Design & Services,(785) 331-0333,123 W 8th St,Flory Design,KS,"Lawrence, ",66044
Financial Planners,(785) 841-2985,3200 Mesa Way,"Brumley, Billy",KS,"Lawrence, ",66049
Investment Advisory Service,(785) 841-2985,3200 Mesa Way,"Johnson, Peggy",KS,"Lawrence, ",66049
"Consulting Engineers,Civil Engineers",(785) 856-1900,3210 Mesa Way # A,Grob Engineering,KS,"Lawrence, ",66049
,,,,,,
Marketing Consultants,(785) 856-6622,916 Massachusetts St,Miller Meiers,KS,"Lawrence, ",66044
Computer Network Design & Systems,(785) 856-2998,1001 New Hampshire St,Desktop & Data Solutions,KS,"Lawrence, ",66044
Advertising Agencies,(785) 841-2892,1015 W 9th St,Maria Arnone & Assoc,KS,"Lawrence, ",66044
Management Consultants,(785) 841-1429,1145 Louisiana St,Hawks Pointe,KS,"Lawrence, ",66044
Computer System Designers & Consultants,(785) 856-7360,2441 W 6th St,Dooph.Com,KS,"Lawrence, ",66049
Management Consultants,(785) 856-9560,2206 Gennessee Ct,Diane Burkett,KS,"Lawrence, ",66044
Web Site Design & Services,(785) 856-7810,1942 Stewart AVE,Sprout Design,KS,"Lawrence, ",66046
Management Consultants,(785) 856-2370,3210 Mesa Way Ste B,Communityworks Inc,KS,"Lawrence, ",66049
Data Systems-Consultants & Designers,(785) 840-0800,2411 Ponderosa Dr,Fundamental Technologies,KS,"Lawrence, ",66046
Marketing Programs & Services,(785) 842-1445,1305 Jonathan Dr,PDP Marketing,KS,"Lawrence, ",66049
Management Consultants,(785) 856-2356,2120 W 25th St,Bartlow Michael D Chartered,KS,"Lawrence, ",66047
Marketing Consultants,(785) 856-1990,1617 Saint Andrews Dr,Kern Marketing Inc,KS,"Lawrence, ",66047
Management Consultants,(785) 842-1890,2709 Lawrence Ave,Southwind Environmental Associates,KS,"Lawrence, ",66047
Management Consultants,(785) 832-8400,3140 Iowa St,Hurst Management Office,KS,"Lawrence, ",66046
Management Consultants,(785) 838-0036,3833 Greenway Dr,TSR Inc,KS,"Lawrence, ",66046
Marketing Programs & Services,(785) 856-0020,4516 Grove Dr,Creative Marketing Services,KS,"Lawrence, ",66049
Computer Cable & Wire Installation,(785) 865-5111,3008 W 30th St,Sanders Software,KS,"Lawrence, ",66047
Management Consultants,(785) 842-8540,5000 Congressional Way,Pyle Bill,KS,"Lawrence, ",66049
Management Consultants,(785) 842-8228,1140 N 1876 Rd,Randolph E Schwering & Associates,KS,"Lawrence, ",66049
Management Consultants,(785) 331-4206,1437 Legends Cir,Kern Management,KS,"Lawrence, ",66049
Management Consultants,(785) 749-1006,1555 Fountain Dr,Emac Assessments,KS,"Lawrence, ",66047
Computer System Designers & Consultants,(785) 766-3470,1270 N 1108 Rd,Timberkine Technology Inc,KS,"Lawrence, ",66047
Computer System Designers & Consultants,(785) 865-0660,961 E 1600 Rd,Holland Technologies Inc,KS,"Lawrence, ",66046
Management Consultants,(785) 748-0605,PO Box 3747,Growing for Market,KS,"Lawrence, ",66046
Financial Planning Consultants,(785) 856-2222,645 Massachusetts St,Edmonds Duncan Investment Advisors,KS,"Lawrence, ",66044
"Financial Planners,Financing Consultants",(785) 841-4561,"Bank Towers, Ste 403",Ameriprise Financial,KS,"Lawrence, ",66044
Consulting Engineers,(785) 856-1900,PO Box 502,Grob Engineering,KS,"Lawrence, ",66044
"Civil Engineers,Consulting Engineers",(785) 749-9452,628 Vermont St,Bartlett & West Engineers Inc,KS,"Lawrence, ",66044
Electrical Engineers,(785) 842-6464,616 Vermont St,Professional Engineering,KS,"Lawrence, ",66044
,,,,,,
Business Coaches & Consultants,(785) 842-6382,2200 W 25th St,Mayhew Environmental Training,KS,"Lawrence, ",66047
Financial Services,(785) 856-2487,4500 Bob Billings Pkwy,Primerica,KS,"Lawrence, ",66049
Consulting Engineers,(785) 841-1774,1201 Wakarusa Dr,Ch2m Hill,KS,"Lawrence, ",66049
Consulting Engineers,(785) 841-1774,1201 Wakarusa Dr # D,Wade Mark,KS,"Lawrence, ",66049
"Civil Engineers,Consulting Engineers",(785) 843-7530,1310 Wakarusa Dr # 100,Landplan Engineering,KS,"Lawrence, ",66049
"Civil Engineers,Consulting Engineers",(785) 749-4474,1405 Wakarusa Dr,B G Consultants Inc,KS,"Lawrence, ",66049
Financial Services,(785) 841-9517,"1425 Oread West St., Suite 106",Raymond James Financial Services,KS,"Lawrence, ",66049
Investments,(785) 749-1111,1429 Oread West St # 100,Morgan Stanley Wealth Management,KS,"Lawrence, ",66049
"Insurance,Financial Planning Consultants",(785) 856-8920,2311 Wakarusa Dr,Farm Bureau Financial,KS,"Lawrence, ",66047
Business Coaches & Consultants,(785) 840-0879,1031 Vermont St,I P Consulting Service Inc,KS,"Lawrence, ",66044
Management Consultants,(785) 312-9880,1930 N 7th St,Gut Works,KS,"Lawrence, ",66044
Business Coaches & Consultants,(785) 841-4363,901 Lexington Ave,Byte Maine Consulting Inc,KS,"Lawrence, ",66049
Government Consultants,(785) 760-3397,4705 McCormick St,T Birdie Consulting Inc,KS,"Lawrence, ",66047
Consulting Engineers,(785) 842-2292,714 Vermont St # 200,Hughes Consulting Engineering,KS,"Lawrence, ",66044
Consulting Engineers,(785) 832-0252,612 Kentucky St,JMC Consulting Engineers,KS,"Lawrence, ",66044
Government Consultants,(785) 840-0879,708 W 9th St,IT Consulting Services Inc,KS,"Lawrence, ",66044
Business Coaches & Consultants,(913) 370-7789,1541 Harper St,Echelon Consulting Group,KS,"Lawrence, ",66044
Business Coaches & Consultants,(785) 856-0421,325 Homestead Dr,Al Bonner Consulting,KS,"Lawrence, ",66049
Business Coaches & Consultants,(785) 749-7623,1212 Oxford Ter,Drjane R Wegner Consulting,KS,"Lawrence, ",66049
Business Coaches & Consultants,(785) 841-6942,3200 Sherwood Dr,Kristin Wethington Consulting,KS,"Lawrence, ",66049
Business Coaches & Consultants,(785) 727-4499,2929 Prairie Ct,Echelon Consulting Group,KS,"Lawrence, ",66046
Business Coaches & Consultants,(785) 865-5340,2000 Crossgate Dr,Lap Consulting Service,KS,"Lawrence, ",66047
Business Coaches & Consultants,(785) 841-6012,2006 Riviera Ct,Nalbandian Consulting,KS,"Lawrence, ",66047
Business Coaches & Consultants,(785) 856-2775,2108 W 27th St,Macxprts Kansas,KS,"Lawrence, ",66047
Management Consultants,(785) 856-8970,1104 Williamsburg Pl,Action International Bus Cchng,KS,"Lawrence, ",66049
Management Consultants,(785) 842-6498,4194 Blackjack Oak Dr,Keith Ely & Assoc,KS,"Lawrence, ",66047
Financial Planning Consultants,(785) 841-7238,1201 Wakarusa Dr,Campbell Becker Inc,KS,"Lawrence, ",66049
Marketing Consultants,(785) 832-9400,PO Box 3510,Lehman Communications Inc,KS,"Lawrence, ",66046
Marketing Programs & Services,(785) 856-1626,801 Massachusetts St,Esquina,KS,"Lawrence, ",66044
Web Site Design & Services,(785) 331-0333,123 W 8th St,Flory Design,KS,"Lawrence, ",66044
,,,,,,
Public Relations Counselors,(785) 842-8909,1236 Inverness Dr,Spread The News Public Rltns,KS,"Lawrence, ",66049
Financial Planning Consultants,(785) 856-7280,4500 Bob Billings Pkwy,Probitas Wealth,KS,"Lawrence, ",66049
Business Coaches & Consultants,(785) 838-3994,1518 Inverness Dr,"Easterday, Michael J",KS,"Lawrence, ",66047
Consulting Engineers,(785) 856-4900,1201 Wakarusa Dr,Huffman Corridor Consulting,KS,"Lawrence, ",66049
Business Coaches & Consultants,(785) 841-7120,1201 Wakarusa Dr,Crititech Inc,KS,"Lawrence, ",66049
"Investments,Stock & Bond Brokers",(785) 841-3700,1201 Wakarusa Dr,Lancaster Pollard,KS,"Lawrence, ",66049
Financial Planning Consultants,(785) 856-7111,1321 Wakarusa Dr,Ameriprise Financial Services Inc,KS,"Lawrence, ",66049
Financial Planning Consultants,(785) 856-7111,1321 Wakarusa Dr,Ameriprise Financial,KS,"Lawrence, ",66049
"Financial Planning Consultants,Insurance",(785) 856-1652,4840 Bob Billings Pkwy,Scaletty Steve,KS,"Lawrence, ",66049
Tax Return Preparation,(785) 838-4380,4840 Bob Billings Pkwy,Midwest Tax & Financial,KS,"Lawrence, ",66049
Financial Planning Consultants,(785) 371-4000,4840 Bob Billings Pkwy # 101,Secure Financial Svc Inc,KS,"Lawrence, ",66049
Tax Return Preparation,(785) 838-4380,4840 Bob Billings Pkwy Ste 104,Tax Advisory Group of Lawrence Inc,KS,"Lawrence, ",66049
Investment Advisory Service,(785) 842-9690,1441 Wakarusa Dr,Becker Investments Inc,KS,"Lawrence, ",66049
Financial Services,(785) 842-7800,4910 Corporate Centre Dr,Stifel Nicolaus,KS,"Lawrence, ",66047
Consulting Engineers,(785) 832-1105,4910 Corporate Centre Dr,Hoss & Brown Engineers Inc,KS,"Lawrence, ",66047
Consulting Engineers,(785) 832-1105,4910 Corporate Centre Dr # 177,Laughlin Peter PE,KS,"Lawrence, ",66047
"Insurance,Agriculture Insurance",(785) 331-4596,4910 Corporate Centre Dr,American Financial Group,KS,"Lawrence, ",66047
Financial Planning Consultants,(785) 331-4400,1425 Oread West St,Whitney Financial Group Inc,KS,"Lawrence, ",66049
Financial Planning Consultants,(785) 749-3209,1425 Oread West St,Gaumer Financial Service,KS,"Lawrence, ",66049
Investment Advisory Service,(785) 841-9517,1425 Oread West St,Schenewerk Roger,KS,"Lawrence, ",66049
Investment Advisory Service,(785) 841-9517,1425 Oread West St,Whitney Wayne,KS,"Lawrence, ",66049
Investment Advisory Service,(785) 841-9517,1425 Oread West St # 1006,Schenewerk Roger,KS,"Lawrence, ",66049
Financial Planning Consultants,(785) 841-9517,1425 Oread West St # 106,Dann Terri,KS,"Lawrence, ",66049
Investment Advisory Service,(785) 841-9517,1425 Oread West St # 106,Penny Kim,KS,"Lawrence, ",66049
Financial Planning Consultants,(785) 841-9517,1425 Oread West St # 106,"Johnson, Donna",KS,"Lawrence, ",66049
Investment Advisory Service,(785) 841-9517,1425 Oread West St # 106,Pavlyak Greg,KS,"Lawrence, ",66049
Financial Planning Consultants,(785) 338-9230,1425 Oread West St # 105,Risk Management,KS,"Lawrence, ",66049
Commodity Brokers,(785) 338-9230,1425 Oread West St,Intl Fc Stone Inc,KS,"Lawrence, ",66049
Financial Planning Consultants,(785) 842-7680,1811 Wakarusa Dr,Wells Fargo Advisors,KS,"Lawrence, ",66047
Annuities & Retirement Insurance Plans,(785) 842-7680,1811 Wakarusa Dr,Ingles Jeffrey,KS,"Lawrence, ",66047
,,,,,,
Investment Securities,(785) 749-1111,1429 Oread West St,Morgan Stanley,KS,"Lawrence, ",66049
Financial Planning Consultants,(785) 842-2671,2236 Killarney Ct,Bismarck Group,KS,"Lawrence, ",66047
Pharmaceutical Consultants,(785) 843-8429,1100 Summerfield Way,Midwest Pharmaceutical Consult,KS,"Lawrence, ",66049
Consulting Engineers,(785) 838-3733,5040 Bob Billings Pkwy # A,Flint Hills Scientific,KS,"Lawrence, ",66049
Investment Management,(785) 749-6030,5006 Jeffries Ct,Attucks Asset Management,KS,"Lawrence, ",66047
"Trust Companies,Investments",(785) 749-0904,5200 Bob Billings Pkwy,TCK Trust & Financial,KS,"Lawrence, ",66049
Business Coaches & Consultants,(785) 843-4447,17567 26th St,Business Service Resource Group,KS,"Lawrence, ",66044
Business Coaches & Consultants,(785) 691-9748,468 N 1700 Rd,Norman Ecological Consltng,KS,"Lawrence, ",66049
Business Coaches & Consultants,(785) 748-0842,599 N 1000 Rd,Richard D Miller,KS,"Lawrence, ",66047
General Contractor Engineers,(785) 856-3360,2029 Becker Dr,360 Energy Engineers,KS,"Lawrence, ",66047
Business Coaches & Consultants,(785) 832-2110,2029 Becker Dr,Lawrence Regional Technology Center,KS,"Lawrence, ",66047
Investment Securities,(800) 776-3350,4600 Madison Ave,Morgan Stanley,KS,"Lawrence, ",66044
Business & Personal Coaches,(785) 842-5772,,"Bethel, Marybeth MS",KS,"Lawrence, ",66044
Web Site Design & Services,(785) 550-2087,,No Hassle Design & Hosting,KS,"Lawrence, ",66046
Financing Consultants,(785) 865-0878,,Hui Financial Group,KS,"Lawrence, ",66044
Computers & Computer Equipment-Service...,(785) 331-5956,,Blue Collar Computer Consulting,KS,"Lawrence, ",66044
Pest Control Services,(785) 393-4116,,Brs Pest Control & Consulting,KS,"Lawrence, ",66044
Business Coaches & Consultants,(785) 832-8234,,Kansas Innovation Corp,KS,"Lawrence, ",66044
,(785) 832-6679,2832 Iowa St,Technical & Data Consulting,KS,"Lawrence, ",66046
Inspection Service,(816) 368-2597,,PST Engineering,,,
"Franchising,Investments",(866) 934-7167,,Sunshine Franchise Consulting & Brokerage,,,
Swimming Pool Construction,(816) 797-3115,,Classic Pool Construction,MO,"Independence, ",64050
Telephone Equipment & Systems,(816) 842-2200,,Converged Communications LLC,,,
Secretarial Services,(800) 897-9880,,Ability Answering Service,,,
Business Documents & Records-Storage...,(785) 749-2328,,Jayhawk File Express,,,
,(877) 365-4068,,Alpha Consulting Group,,,
Credit & Debt Counseling,(877) 206-8692,,ClearPoint Credit Counseling Solutions,,,
Sports & Entertainment Ticket Sales,(662) 325-2323,,Mississippi State University,,,
Mutual Funds,(888) 891-1510,,Edward Jones,,,
Swimming Pool Designing & Consulting,(913) 533-2332,,Complete Pool & Concrete Const,,,
,,,,,,
Financial Services,(785) 843-1371,730 New Hampshire St Ste 212,Edward Jones - Financial Advisor: Jeff Peterson,KS,"Lawrence, ",66044
Financial Services,(785) 838-3271,901 Kentucky St Ste #101,Edward Jones - Financial Advisor: Mark R Brosa,KS,"Lawrence, ",66044
Financial Services,(785) 841-0342,1410 Kasold Dr Suite A4,Edward Jones - Financial Advisor: Loren Gottschalk,KS,"Lawrence, ",66049
Financial Services,(785) 842-2450,2449 Iowa St Suite A-1,Edward Jones - Financial Advisor: Liz Kundin,KS,"Lawrence, ",66046
Financial Services,(785) 841-0382,4106 W 6th St Suite A,Edward Jones - Financial Advisor: Todd Walker,KS,"Lawrence, ",66049
Financial Services,(785) 841-6262,4828 Quail Crest Pl Ste B,Edward Jones - Financial Advisor: Harley D Catlin,KS,"Lawrence, ",66049
Financial Services,(785) 841-6262,4828 Quail Crest Pl Ste B,Edward Jones - Financial Advisor: Ryan J Catlin,KS,"Lawrence, ",66049
Structural Engineers,(785) 856-9600,850 E 13th St,Cook Flatt Strobel Engineers PA,KS,"Lawrence, ",66044
"Banks,Commercial & Savings Banks",(785) 749-2224,3400 W 6th St,Truity Credit Union,KS,"Lawrence, ",66049
"Estate Planning, Probate, & Living...",(785) 856-7111,1311 Wakarusa Dr Suite 2121,Ameriprise Financial Services Inc,KS,"Lawrence, ",66049
"Air Duct Cleaning,Carpet & Rug Cleaners",(785) 842-1402,,All Pro Services Inc,KS,"Lawrence, ",66044
Water Damage Restoration,(785) 842-0351,1420 N 3rd St,Paul Davis Restoration,KS,"Lawrence, ",66044
Computer System Designers & Consultants,(785) 331-5819,3804 Pinnacle Cir,Jberra Design,KS,"Lawrence, ",66049
Computers & Computer Equipment-Service...,(785) 727-1355,2625 Moundview Dr,Best Deal Computers,KS,"Lawrence, ",66049
Computers & Computer Equipment-Service...,(785) 841-8766,4105 W 6th St,DoctorDave Computer Repair,KS,"Lawrence, ",66049
Alzheimer's Care & Services,(785) 841-4262,1429 Kasold Dr,Lawrence Presbyterian Manor,KS,"Lawrence, ",66049
"Appraisers,Real Estate Appraisers",(785) 371-3072,"4000 W 6th St, Suite B130","Veritas Appraisals and Consulting, LLC",KS,"Lawrence, ",66049
"Financial Services,Stock & Bond Brokers",(785) 841-3909,3300 Clinton Parkway Ct 100,Edward Jones - Financial Advisor: Scott Burkhart,KS,"Lawrence, ",66047
Business & Economic Development,(785) 249-7893,1036 April Rain Road,"KG Consulting Group, LLC",KS,"Lawrence, ",66049
Management Consultants,(785) 312-9150,100 Riverfront Rd,EFM Integrated,KS,"Lawrence, ",66044
Computers & Computer Equipment-Service...,(785) 832-7177,1 Riverfront Plz,Geeks On Wheels,KS,"Lawrence, ",66044
Advertising Agencies,(785) 838-4774,805 New Hampshire St,Callahan Creek Inc,KS,"Lawrence, ",66044
Marketing Programs & Services,(785) 749-5336,912 Tennessee St,Volicity Marketing,KS,"Lawrence, ",66044
Computer & Equipment Dealers,(785) 841-9513,4921 Legends Dr,Microtech Computers Inc,KS,"Lawrence, ",66049
"Management Consultants,Attorneys",(785) 840-9676,5020 Bob Billings Pkwy # C,Midland Group,KS,"Lawrence, ",66049
Financial Planning Consultants,(785) 843-4939,211 E 8th St,Reinhardt Financial Services,KS,"Lawrence, ",66044
Business Coaches & Consultants,(785) 856-8400,901 Kentucky St # 106,Teamsynergy,KS,"Lawrence, ",66044
"Consulting Engineers,General Contractors",(785) 832-8866,2721 Oregon St,Pinnacle Technology Inc,KS,"Lawrence, ",66046
Consulting Engineers,(785) 832-8866,2721 Oregon St,Johnson Donna,KS,"Lawrence, ",66046
"Insurance,Financial Planning Consultants",(785) 841-7444,2201 W 25th St,Farm Bureau Financial Services,KS,"Lawrence, ",66047
,(877) 206-8692,,,,,
,(816) 751-9334,,,,,
,(816) 237-5420,1201 Walnut St,,MO,"Kansas City, ",64106
,(501) 753-0202,,,,,
,,,,,,
Computer Service & Repair-Business,(785) 393-9593,,StultsPC,,,
"Sculptors,Fine Art Artists",(620) 874-1372,,"Rickford Consulting, Sculpture & Design",,,
Employee Benefit Consulting Services,(913) 220-2266,,"HR Benefits, Inc.",,,
System Integration Engineers,(785) 766-7882,866 E 1750th Rd,Ics,KS,"Baldwin City, ",66006
Management Consultants,(785) 887-6191,878 N 1928th Rd,"Stewart, J",KS,"Lecompton, ",66050
Pharmaceutical Consultants,(785) 727-0690,925 W 14th St,Kansas Pharmaceutical Consulting,KS,"Eudora, ",66025
"Funeral Directors,Crematories",(785) 542-3030,1003 E John L Williams Dr,Warren McElwain Mortuary Eudora Chapel,KS,"Eudora, ",66025
Management Consultants,(913) 369-2127,25493 Kansas Ave,Provider Services Inc,KS,"Tonganoxie, ",66086
Computer Network Design & Systems,(785) 597-2211,2101 Oak Rd,J L Network Service,KS,"Perry, ",66073
Business Coaches & Consultants,(913) 669-6987,18065 238th St,Provider Fraud Consultants,KS,"Tonganoxie, ",66086
,(785) 542-3823,1208 E 2100th Rd,Sigmaquest Consulting Inc,KS,"Eudora, ",66025
"Banks,Financial Planning Consultants",(913) 845-2500,1525 E Highway 24-40,First State Bank & Trust,KS,"Tonganoxie, ",66086
Business Coaches & Consultants,(785) 594-2166,1501 South St,Keelers Consulting & Service Inc,KS,"Baldwin City, ",66006
Marketing Consultants,(785) 594-3189,1604 College St,Effective Marketing Solutions,KS,"Baldwin City, ",66006
Real Estate Inspection Service,(785) 594-7420,1315 Maple Leaf Ct,Bauer Inspection & Consulting,KS,"Baldwin City, ",66006
Counseling Services,(785) 594-9976,419 1st St,Dunn Counseling & Consulting Inc,KS,"Baldwin City, ",66006
Business Coaches & Consultants,(785) 594-6624,918 Jersey St,Davis Consultants Inc,KS,"Baldwin City, ",66006
Business Coaches & Consultants,(785) 594-3635,162 E 1575th Rd,Grace Reviews Inc,KS,"Baldwin City, ",66006
Annuities & Retirement Insurance Plans,(913) 845-2622,525 E 4th St,Farm Bureau Financial Services,KS,"Tonganoxie, ",66086
Investment Advisory Service,(913) 417-7131,PO Box 151,Gregg Investment Group Inc,KS,"Tonganoxie, ",66086
Business Coaches & Consultants,(913) 845-3830,628 E 4th St,H Avenue,KS,"Tonganoxie, ",66086
Consulting Engineers,(785) 597-5144,10419 Perry Park Dr,US Army Corps Of Engineers,KS,"Perry, ",66073
Financial Planning Consultants,(913) 723-3330,17289 Golden Rd,Fletcher Financial,KS,"Linwood, ",66052
Financial Planning Consultants,(913) 888-0488,17289 Golden Rd,Heiscrman Lynn,KS,"Linwood, ",66052
Investment Advisory Service,(913) 845-2100,20870 Parallel Rd,"Hummelgaard, Dean",KS,"Tonganoxie, ",66086
Financial Planning Consultants,(913) 845-2100,20870 Parallel Rd,Rosesbuds,KS,"Tonganoxie, ",66086
Investment Advisory Service,(913) 583-1700,33051 W 83rd St,Kobler Investments,KS,"De Soto, ",66018
Management Consultants,(913) 541-2020,32600 W 115th St,Case Management Associates Inc,KS,"Olathe, ",66061
Telemarketing Services,(913) 469-6767,4701 College Blvd Ste 110,ICG Call Center,KS,"Leawood, ",66211
Human Resource Consultants,(816) 237-5033,,Resumes & More,,,
,,,,,,
Employment Opportunities,(888) 836-6294,,Liberty Consulting,,,
Tax Return Preparation-Business,(855) 807-8533,,Dartmouth Financial & Tax Consulting,,,
Stock & Bond Brokers,(888) 891-1502,,Edward Jones,,,
Financial Services,(888) 891-1491,,Edward Jones,,,
Investment Securities,(888) 891-1492,,Edward Jones,,,
Investments,(888) 891-1511,,Edward Jones,,,
Computer System Designers & Consultants,(877) 938-2191,,AT&T,,,
Web Site Hosting,(888) 502-0802,,Kell Web Solutions Inc.,,,
Financing Services,(816) 751-9334,,"Country Club Financial Services, Inc.",,,
Management Consultants,(888) 279-5769,,Soyring Consulting Inc,,,
Communication Consultants,(888) 731-1352,,Tellennium,,,
Records Destruction,(888) 350-9135,,Shred Nations,,,
Computer Technical Assistance &...,(866) 698-8604,,Techs In A Sec,,,
"Call Centers,Telephone Answering Service",(800) 369-8908,,CMS Customer Solutions,,,
"Mold Remediation,Testing Labs",(888) 610-2161,,ACM Engineering & Environmental,,,
Computers & Computer Equipment-Service...,(240) 720-1995,,PC eSupport National Computer Repair,,,
Taxes-Consultants & Representatives,(888) 301-8244,,Tax Remedy Consulting,,,
Assisted Living Facilities,(888) 294-1308,,Senior Advisor,,,
Business Documents & Records-Storage...,(866) 264-1936,,Iron Mountain,,,
"Call Centers,Telecommunications Services",(800) 230-9875,,AnswerNet,,,
Barbecue Grills & Supplies,(888) 358-9324,,Royal Swimming Pools Inc.,,,
Paper-Shredded,(866) 233-4430,,Iron Mountain,,,
Computer Data Recovery,(888) 360-6035,,Iron Mountain,,,
Construction & Building Equipment,(831) 634-2970,,Tovar Industries Inc,,,
Document Imaging,(888) 766-4128,,Royal Imaging Services LLC,,,
Telephone Answering Service,(920) 490-7000,,Anser- Call Answering Service,,,
Telecommunications Services,(785) 862-7450,,TBS Electronics Inc,,,
Credit & Debt Counseling,(816) 287-4211,255 NW Blue Pkwy #200,Certified Credit Experts,MO,"Lees Summit, ",64063
Business Coaches & Consultants,(785) 594-3761,,Around To It Enterprises,KS,"Baldwin City, ",66006
Consulting Engineers,(847) 370-9049,,Biotech Advisor,,,
,,,,,,
"Home Builders,Consulting Engineers",(913) 492-0400,9801 Renner Blvd,GBA,KS,"Lenexa, ",66219
Security Equipment & Systems...,(913) 933-9456,6405 Metcalf Ave,Titan Protection and Consulting,KS,"Mission, ",66202
"Financial Planners,Investment Securities",(816) 237-5420,1201 Walnut St,"Warren Financial Group, Inc",MO,"Kansas City, ",64106
Business Documents & Records-Storage...,(816) 455-2640,,Underground Vaults & Storage,,,
Colleges & Universities,(913) 469-8500,12345 College Blvd,Johnson County Community College - JCCC,KS,"Overland Park, ",66210
"Advertising Agencies,Commercial Artists",(785) 272-8932,5942 SW 29th St Ste B,Friesen Design,KS,"Topeka, ",66614
"Tax Return Preparation,Bookkeeping",(785) 233-4829,512 SW 6th Ave,Harmon Financial & Tax Services LLC,KS,"Topeka, ",66603
Document Destruction Service,(913) 327-8889,7939 Flint St,PROSHRED Security of Kansas and Missouri,KS,"Overland Park, ",66214
Building Construction Consultants,(785) 235-1511,531 NW Tyler Ct,PDQ Construction Inc,KS,"Topeka, ",66608
Electricians,(816) 765-7112,3920 E 137th Ter,Staco Electric Company,MO,"Grandview, ",64030
Environmental & Ecological Consultants,(913) 338-2739,14955 W 101st Ter,Apex Environmental Consultants Inc,KS,"Lenexa, ",66215
Swimming Pool Equipment & Supplies,(913) 305-3392,8026 W 151st St,Banks Blue Valley Pool & Spa,KS,"Overland Park, ",66223
Business Brokers,(816) 221-8100,1927 McGee St,Building Keepers Inc,MO,"Kansas City, ",64108
"Business Brokers,Newspapers,News Stands",(816) 331-3100,,Cass Gazette,,,
Computer Technical Assistance &...,(913) 529-4227,10104 W 105th St,Hccs Inc,KS,"Overland Park, ",66212
"Professional Engineers,Civil Engineers",(913) 344-1000,8300 College Blvd,URS Corporation,KS,"Overland Park, ",66210
"Investment Management,Investments",(800) 928-6468,,Austin Rare Coins & Bullion,,,
Computer Network Design & Systems,(316) 267-5016,,Communications Technology Associates Inc,,,
Shredding-Paper,(816) 659-1070,,"Community Shredder Industries, LLC",,,
,,,,,,
