category,phone,streetAddress,name,addressState,addressCity,addressZip
"Insurance,Property & Casualty Insurance",(816) 298-1133,1312 S Noland Rd,Auto Insurance Discounters,MO,"Independence, ",64055
"Insurance,Auto Insurance",(866) 276-1219,,State Farm,,,
Auto Insurance,(913) 624-3275,7800 Shawnee Mission Pkwy Suite 12,Affordable Insurance Services,KS,"Mission, ",66202
Insurance,(877) 899-7483,,Progressive Insurance,,,
"Insurance,Auto Insurance",(877) 832-0334,,Discount Insurance Quotes,,,
"Insurance,Auto Insurance",(888) 494-5280,,Discount Insurance Quotes,,,
"Insurance,Auto Insurance",(855) 291-0255,,Discount Insurance Quotes,,,
"Insurance,Auto Insurance,Life Insurance",(785) 371-1067,3300 Bob Billings Pkwy,Chris Munk - State Farm Insurance Agent,KS,"Lawrence, ",66049
"Auto Insurance,Insurance",(785) 330-5296,2233 Louisiana St Ste. H2,Steven Dreiling LUTCF - Allstate Insurance Company,KS,"Lawrence, ",66046
"Insurance,Auto Insurance,Life Insurance",(785) 371-1069,2400 Iowa St,Mike Grosdidier - State Farm Insurance Agent,KS,"Lawrence, ",66046
"Insurance,Property & Casualty Insurance",(785) 380-8297,4106 W 6th St Ste F,Richard Hall - Allstate Insurance Company,KS,"Lawrence, ",66049
"Insurance,Homeowners Insurance",(785) 842-4193,543 Lawrence Ave,Dennis Garrison - State Farm Insurance Agent,KS,"Lawrence, ",66049
"Insurance,Homeowners Insurance",(785) 842-5000,3300 Bob Billings Pkwy,Chris Munk - State Farm Insurance Agent,KS,"Lawrence, ",66049
"Insurance,Life Insurance,Auto Insurance",(785) 843-1292,2400 Iowa St,Bob Carlson - State Farm Insurance Agent,KS,"Lawrence, ",66046
"Insurance,Homeowners Insurance",(785) 842-6407,2400 Iowa St,Mike Grosdidier - State Farm Insurance Agent,KS,"Lawrence, ",66046
"Insurance,Homeowners Insurance",(785) 842-6288,4311 W 6th St,Rochelle Tramp - State Farm Insurance Agent,KS,"Lawrence, ",66049
"Insurance,Life Insurance,Auto Insurance",(785) 330-5028,3200 Mesa Way Ste D,Thomas Pollard - Farmers Insurance,KS,"Lawrence, ",66049
"Surety & Fidelity Bonds,Insurance",(785) 865-3500,917 Iowa St,Allen & Purcell Agency,KS,"Lawrence, ",66044
Insurance,(785) 843-0702,2336 Ridge Ct Suite A,Beasley Insurance Inc,KS,"Lawrence, ",66046
Insurance,(785) 331-3607,3801 W 6th St,"Kansas Insurance, Inc.",KS,"Lawrence, ",66049
Insurance,(785) 843-0702,2336 Ridge Ct,Beasley Insurance,KS,"Lawrence, ",66046
"Auto Insurance,Insurance",(785) 843-2532,2233 Louisiana St Suite H2,Allstate Insurance Company - Steven Dreiling,KS,"Lawrence, ",66046
"Insurance,Truck Insurance,Auto Insurance",(785) 843-0702,2336 Ridge Ct Suite A,Beasley Insurance Inc,KS,"Lawrence, ",66046
"Insurance,Truck Insurance,Auto Insurance",(785) 331-3607,3801 W 6th St,"Kansas Insurance, Inc.",KS,"Lawrence, ",66049
"Financial Services,Homeowners Insurance",(785) 200-9213,1216 E 23rd St Ste B,American Family Insurance - Dave Nuzum,KS,"Lawrence, ",66046
"Financial Services,Homeowners Insurance",(785) 727-4874,2601 Iowa St,American Family Insurance - D J Flummerfelt,KS,"Lawrence, ",66046
"Financial Services,Homeowners Insurance",(785) 200-9220,708 W 9th St Ste 208,American Family Insurance - Mary Woodward,KS,"Lawrence, ",66044
"Financial Services,Homeowners Insurance",(785) 330-5467,2420 Iowa St,American Family Insurance - Jenny Huber,KS,"Lawrence, ",66046
"Financial Services,Homeowners Insurance",(785) 727-4872,2420 Iowa St,American Family Insurance - Harry Thomason Agency Inc.,KS,"Lawrence, ",66046
"Financial Services,Insurance",(785) 727-4873,4106 W 6th St Ste C,American Family Insurance - Justin Moravec,KS,"Lawrence, ",66049
"Financial Services,Homeowners Insurance",(785) 727-4871,3010 Four Wheel Dr,American Family Insurance - Ron King Agency Inc.,KS,"Lawrence, ",66047
"Title Companies,Real Estate Agents",(785) 841-0505,1420 Wakarusa Dr,Commerce Title LLC,KS,"Lawrence, ",66049
"Insurance,Auto Insurance",(866) 276-1219,,State Farm,,,
"Insurance,Property & Casualty Insurance",(816) 298-1133,,Auto Insurance Discounters,,,
Auto Insurance,(913) 624-3275,7800 Shawnee Mission Pkwy Suite 12,Affordable Insurance Services,KS,"Mission, ",66202
Insurance,(877) 899-7483,,Progressive Insurance,,,
"Insurance,Auto Insurance",(888) 444-0603,,American Family Insurance,,,
,(888) 431-3748,,,,,
,(877) 294-7187,,,,,
,(888) 444-0603,,,,,
,(877) 331-8261,,,,,
,(877) 889-9212,,,,,
,(888) 431-3748,,,,,
,(877) 826-2256,,,,,
,(866) 788-4408,,,,,
,(888) 221-3685,,,,,
,(877) 281-5725,,,,,
,(877) 294-7187,,,,,
,(816) 298-1133,1312 S Noland Rd,,MO,"Independence, ",64055
,(785) 789-4709,422 N Juliette Ave,,KS,"Manhattan, ",66502
,(816) 751-4200,,,,,
,(913) 631-9007,6339 Long Ave,,KS,"Shawnee, ",66216
,(785) 371-1067,3300 Bob Billings Pkwy,,KS,"Lawrence, ",66049
,(785) 371-1069,2400 Iowa St,,KS,"Lawrence, ",66046
,(785) 330-5296,2233 Louisiana St Ste. H2,,KS,"Lawrence, ",66046
,,,,,,
,(785) 380-8297,4106 W 6th St Ste F,,KS,"Lawrence, ",66049
,(816) 765-4321,12034 Blue Ridge Ext,,MO,"Grandview, ",64030
,(913) 661-0600,11807 College Blvd,,KS,"Overland Park, ",66210
,(785) 865-3500,917 Iowa St,,KS,"Lawrence, ",66044
,(785) 330-5028,3200 Mesa Way Ste D,,KS,"Lawrence, ",66049
,(785) 843-1292,2400 Iowa St,,KS,"Lawrence, ",66046
,(785) 842-5000,3300 Bob Billings Pkwy,,KS,"Lawrence, ",66049
,(785) 842-4193,543 Lawrence Ave,,KS,"Lawrence, ",66049
"Health Insurance,Dental Insurance",(800) 244-6224,,CIGNA,,,
"Auto Insurance,Insurance",(877) 229-9777,,GEICO,,,
"Auto Insurance,Insurance",(888) 539-6124,,Allstate Insurance Company,,,
Home Health Services,(816) 415-8200,,Assured Healthcare,,,
"Insurance,Property & Casualty Insurance",(888) 667-5311,,Ready For My Quote,,,
"Renters Insurance,Insurance",(888) 667-7806,,Ready For My Quote,,,
"Financial Services,Homeowners Insurance",(785) 594-1343,707 8th St,American Family Insurance - Melissa Mayer-Heinitz,KS,"Baldwin City, ",66006
Health Insurance,(888) 413-0960,,SelectQuote Senior,,,
Telephone Companies,(866) 336-5608,,Time Warner Cable Authorized Agent,,,
"Insurance,Truck Insurance",(888) 260-6493,,Progressive Insurance,,,
"Renters Insurance,Insurance",(888) 431-3748,,Allstate Insurance Company,,,
"Gutters & Downspouts,Building Materials",(913) 441-0003,6423 Vista Ave,"Town & Country Guttering, Inc.",KS,"Shawnee, ",66218
Title Companies,(800) 592-2323,,The Document Center Inc,,,
"Truck Insurance,Motorcycle Insurance",(888) 260-6493,,Progressive Insurance,,,
"Homeowners Insurance,Insurance",(888) 431-3748,,Allstate Insurance Company,,,
"Auto Insurance,Insurance",(866) 229-8160,,Acceptance Insurance,,,
"Auto Insurance,Insurance,Truck Insurance",(888) 231-6969,,Progressive Insurance,,,
"Surety & Fidelity Bonds,Skip Tracing",(800) 835-4931,,Anytime Bail Bonds,,,
Flood Insurance,(913) 764-1960,14106 W 135th St,Trabert Moody Insurance,KS,"Olathe, ",66062
Health Plans-Information & Referral...,(913) 823-6700,8140 Ward Pkwy Ste 430,Preferred Health Professionals,MO,"Kansas City, ",64114
Attorneys,(785) 379-3891,3601 SW 29th St,"Taff Frank D, Attorney At Law",KS,"Topeka, ",66614
Attorneys,(816) 474-0179,1100 Main St Ste 2201,"John B. Gillis, Attorney At Law",MO,"Kansas City, ",64105
"Insurance,Auto Insurance",(888) 373-8694,,American Family Insurance,,,
Insurance,(785) 330-5030,2233 Louisiana St Suite H2,"Allstate Insurance Company - Steven Dreiling, Premier Agency",KS,"Lawrence, ",66046
"Auto Insurance,Insurance,Life Insurance",(888) 522-1887,,Allstate Insurance Company,,,
"Homeowners Insurance,Life Insurance",(785) 856-2580,708 W 9th St Ste 212,Farmers Insurance - Brad Ochs,KS,"Lawrence, ",66044
Insurance,(785) 840-4924,520 W 23rd St Suite F,KC Insurance,KS,"Lawrence, ",66046
"Homeowners Insurance,Life Insurance",(785) 749-4800,601 Missouri St Ste 3,Farmers Insurance - Michael Conner,KS,"Lawrence, ",66044
"Insurance,Financial Services",(785) 843-2532,2233 Louisiana St Ste H2,Allstate Insurance - Steven Dreiling,KS,"Lawrence, ",66046
Insurance,(785) 842-4193,543 Lawrence Ave,Dennis Garrison-State Farm Insurance,KS,"Lawrence, ",66049
"Dental Insurance,Insurance",(877) 379-3563,,Encore Dental,,,
,(888) 431-3748,,,,,
,(888) 444-0603,,,,,
,(877) 294-7187,,,,,
,(877) 331-8261,,,,,
,,,,,,
Insurance,(888) 820-1956,,US Insurance Net,,,
"Homeowners Insurance,Insurance",(877) 814-2573,,US Insurance Net,,,
"Renters Insurance,Insurance",(888) 346-8628,,Insurancery,,,
"Auto Insurance,Motorcycle Insurance",(888) 760-3886,,Insurancery,,,
"Homeowners Insurance,Insurance",(888) 346-8174,,Insurancery,,,
Health Plans-Information & Referral...,(888) 346-8143,,Insurancery,,,
"Insurance,Property & Casualty Insurance",(888) 815-8846,,US Insurance Net,,,
Insurance,(888) 815-9032,,US Insurance Net,,,
Property & Casualty Insurance,(888) 815-8960,,US Insurance Net,,,
"Life Insurance,Motorcycle Insurance",(888) 816-0245,,US Insurance Net,,,
"Insurance,Auto Insurance",(888) 815-9018,,US Insurance Net,,,
"Life Insurance,Health Insurance",(888) 816-0138,,US Insurance Net,,,
"Motorcycle Insurance,Health Insurance",(888) 816-0145,,US Insurance Net,,,
Auto Insurance,(913) 661-0600,11807 College Blvd,Van Hercke Insurance Agency Inc,KS,"Overland Park, ",66210
"Insurance,Homeowners Insurance",(785) 542-3276,218 E 20th St,Keith Nowland - State Farm Insurance Agent,KS,"Eudora, ",66025
"Insurance,Auto Insurance",(888) 494-5280,,Discount Insurance Quotes,,,
"Insurance,Auto Insurance",(866) 763-0251,,Discount Insurance Quotes,,,
"Homeowners Insurance,Health Insurance",(888) 815-8828,,Esurance,,,
"Insurance,Auto Insurance",(888) 542-4965,,21st Century Insurance,,,
"Auto Insurance,Insurance",(866) 446-3955,,Cheap Auto Insurance Quotes,,,
"Insurance,Auto Insurance",(888) 312-2581,,US Insurance Net,,,
"Insurance,Homeowners Insurance",(877) 345-1044,,US Insurance Net,,,
Insurance,(866) 268-3284,,Cheap Auto Insurance Quotes,,,
"Insurance,Insurance Medical Examinations",(877) 844-1592,,US Insurance Net,,,
Auto Insurance,,,Shelter Insurance,,,
"Auto Insurance,Insurance",(866) 276-1219,,State Farm,,,
"Insurance,Auto Insurance,Banks",(877) 331-8261,,State Farm,,,
"Auto Insurance,Insurance",(877) 229-9777,,GEICO,,,
"Motorcycle Insurance,Insurance",(877) 336-4405,,GEICO,,,
,(877) 294-7187,,,,,
,(888) 444-0603,,,,,
,(877) 331-8261,,,,,
,(888) 431-3748,,,,,
,,,,,,
"Auto Insurance,Insurance",(888) 812-8697,,Allstate®,,,
"Auto Insurance,Insurance",(866) 403-0294,,21st Century,,,
"Homeowners Insurance,Insurance",(877) 815-8513,,MetLife,,,
Insurance,(866) 411-6811,,Cheap Auto Insurance Quotes,,,
Property & Casualty Insurance,(888) 807-1609,,Cheap Auto Insurance Quotes,,,
"Auto Insurance,Motorcycle Insurance",(877) 499-4774,,Cheap Auto Insurance Quotes,,,
"Insurance,Recreational Vehicle Insurance",(877) 220-5934,,Liberty Mutual,,,
Annuities & Retirement Insurance Plans,(888) 346-8536,,Insurancery,,,
"Auto Insurance,Insurance",(888) 346-8559,,Insurancery,,,
"Auto Insurance,Insurance",(888) 854-1062,,Cheap Auto Insurance Quotes,,,
"Insurance,Recreational Vehicle Insurance",(888) 850-6528,,Liberty Mutual,,,
Health Plans-Information & Referral...,(877) 204-9373,,Ready For My Quote,,,
"Motorcycle Insurance,Dental Insurance",(877) 202-8781,,MetLife,,,
"Life Insurance,Insurance",(888) 855-0113,,Ameri Quote,,,
"Truck Insurance,Insurance",(888) 287-8959,,Progressive Commercial Vehicle,,,
"Health Insurance,Insurance",(877) 261-1785,,Health Markets,,,
"Insurance,Health Insurance",(866) 389-4563,,US Insurance Net,,,
"Insurance,Life Insurance",(866) 402-7245,,US Insurance Net,,,
"Property & Casualty Insurance,Insurance",(855) 873-0572,,Ready For My Quote,,,
Insurance,(855) 880-5013,,Best Quotes,,,
"Property & Casualty Insurance,Insurance",(888) 760-3869,,Insurancery,,,
"Life Insurance,Insurance",(888) 346-8330,,Insurancery,,,
"Fire Insurance,Insurance",(888) 760-3889,,Insurancery,,,
"Homeowners Insurance,Insurance",(888) 346-8634,,Insurancery,,,
"Renters Insurance,Insurance",(877) 579-2769,,Rate Kick,,,
"Insurance,Life Insurance",(866) 317-9328,,US Insurance Net,,,
"Motorcycle Insurance,Life Insurance",(888) 346-8577,,Insurancery,,,
Insurance,(888) 346-8581,,Insurancery,,,
Health Plans-Information & Referral...,(888) 583-4219,,iCan Benefit Group,,,
"Insurance,Property & Casualty Insurance",(866) 404-3546,,US Insurance Net,,,
,(877) 294-7187,,,,,
,(877) 331-8261,,,,,
,(888) 431-3748,,,,,
,(888) 444-0603,,,,,
,,,,,,
"Insurance,Auto Insurance",(877) 294-7187,,GEICO,,,
"Insurance,Property & Casualty Insurance",(888) 431-3748,,Allstate Insurance Company,,,
"Auto Insurance,Investment Management",(877) 889-9212,,COUNTRY Financial,,,
Insurance,(866) 788-4408,,The General Insurance,,,
"Auto Insurance,Insurance",(877) 281-5725,,Nationwide Insurance,,,
"Insurance,Auto Insurance",(913) 631-9007,6339 Long Ave,John Wills - State Farm Insurance Agent,KS,"Shawnee, ",66216
Boat & Marine Insurance,(816) 765-4321,,Goode Insurance LLC,,,
Health Plans-Information & Referral...,(785) 789-4709,,Holmes Insurance Agency,,,
"Auto Insurance,Insurance",,,GEICO Insurance Agent,,,
"Auto Insurance,Insurance",(877) 826-2256,,Farmers Insurance,,,
"Insurance,Truck Insurance,Auto Insurance",(888) 221-3685,,Progressive Insurance,,,
Trust Companies,(816) 751-4200,,Country Club Trust Company,,,
"Insurance,Auto Insurance",(855) 291-0255,,Discount Insurance Quotes,,,
"Auto Insurance,Insurance",(888) 427-0542,,Esurance,,,
"Insurance,Auto Insurance",(877) 832-0334,,Discount Insurance Quotes,,,
"Motorcycle Insurance,Life Insurance",(877) 248-0512,,Liberty Mutual,,,
"Motorcycle Insurance,Insurance",(888) 309-5920,,Liberty Mutual,,,
"Motorcycle Insurance,Insurance",(888) 850-6560,,Liberty Mutual,,,
"Auto Insurance,Insurance",(866) 404-7305,,Auto Insurance Compare ©,,,
"Auto Insurance,Insurance",(877) 220-5911,,Liberty Mutual,,,
"Auto Insurance,Insurance",(888) 850-5017,,Liberty Mutual,,,
"Insurance,Auto Insurance",(877) 455-4189,,Insuring Today,,,
"Insurance,Auto Insurance",(888) 445-8127,,Insuring Tomorrow LLC,,,
"Insurance,Truck Insurance,Auto Insurance",(877) 774-5547,,Liberty Mutual,,,
"Insurance,Truck Insurance,Auto Insurance",(888) 844-0057,,Liberty Mutual,,,
"Insurance,Auto Insurance",(888) 450-3656,,Insuring Today,,,
"Auto Insurance,Insurance",(877) 866-0104,,Cheap Auto Insurance®,,,
"Life Insurance,Motorcycle Insurance",(877) 558-0536,,US Insurance Net,,,
"Insurance,Motorcycle Insurance",(877) 622-7228,,Motorcycle Insurance Pro,,,
"Insurance,Recreational Vehicle Insurance",(888) 839-6522,,RV Insurance Finder ©,,,
,(877) 331-8261,,,,,
,(888) 444-0603,,,,,
,(877) 294-7187,,,,,
,(888) 431-3748,,,,,
,(785) 542-3276,218 E 20th St,,KS,"Eudora, ",66025
,(785) 842-6407,2400 Iowa St,,KS,"Lawrence, ",66046
,(785) 842-6288,4311 W 6th St,,KS,"Lawrence, ",66049
,(785) 843-0702,2336 Ridge Ct,,KS,"Lawrence, ",66046
,(785) 843-0702,2336 Ridge Ct Suite A,,KS,"Lawrence, ",66046
,(785) 843-0702,2336 Ridge Ct Suite A,,KS,"Lawrence, ",66046
,(785) 331-3607,3801 W 6th St,,KS,"Lawrence, ",66049
,(785) 331-3607,3801 W 6th St,,KS,"Lawrence, ",66049
,(785) 843-2532,2233 Louisiana St Suite H2,,KS,"Lawrence, ",66046
,(888) 542-4965,,,,,
,(888) 812-8697,,,,,
,(888) 855-0113,,,,,
,(877) 866-0104,,,,,
,(888) 427-0542,,,,,
,(888) 346-8634,,,,,
,(888) 450-3656,,,,,
,(888) 445-8127,,,,,
,(877) 248-0512,,,,,
,(877) 204-9373,,,,,
,(888) 312-2581,,,,,
,,,,,,
,(913) 489-7712,1481 E 151st St,,KS,"Olathe, ",66062
,(816) 666-9363,,,,,
,(855) 686-2413,,,,,
,(877) 797-3514,114 W 4th Ave,,KS,"Garnett, ",66032
,(785) 330-5030,2233 Louisiana St Suite H2,,KS,"Lawrence, ",66046
Insurance,(785) 856-5355,3502 Westridge Dr,Bolz Ron,KS,"Lawrence, ",66049
"Insurance,Agriculture Insurance",(785) 856-1240,211 E 8th St,Aflac District Offcie,KS,"Lawrence, ",66044
Insurance,(785) 856-3020,123 W 8th St,Prairie Land Insurance,KS,"Lawrence, ",66044
"Insurance,Agriculture Insurance",(785) 331-4353,901 Kentucky St,"Woodward, Mary P",KS,"Lawrence, ",66044
Insurance,(785) 856-0995,237 Wisconsin St,Aflac,KS,"Lawrence, ",66044
Insurance,(785) 865-3500,917 Iowa St,Purcell Beverly,KS,"Lawrence, ",66044
Insurance,(785) 843-2772,1011 Westdale Rd,Baker Joe,KS,"Lawrence, ",66049
"Insurance,Agriculture Insurance",(785) 841-9538,2711 W 6th St,"Chapin, Cooper",KS,"Lawrence, ",66049
"Insurance,Agriculture Insurance",(785) 841-9538,2711 W 6th St # A,"Sawyers, Andrea",KS,"Lawrence, ",66049
"Insurance,Agriculture Insurance",(785) 841-9538,2711 W 6th St,"Cardova, Justin",KS,"Lawrence, ",66049
"Insurance,Agriculture Insurance",(785) 843-2532,2233 Louisiana St,Assett Conservation Group,KS,"Lawrence, ",66046
"Insurance,Agriculture Insurance",(785) 979-8407,2811 Stratford Rd,Swan & Associates,KS,"Lawrence, ",66049
Insurance,(785) 856-1240,1045 E 23rd St,AFLAC Regional Sales Office,KS,"Lawrence, ",66046
Insurance,(785) 843-8472,3017 W 6th St # B,Chapple Todd,KS,"Lawrence, ",66049
"Insurance,Agriculture Insurance",(785) 865-5200,3109 W 6th St,Shepley Sam,KS,"Lawrence, ",66049
Insurance,(785) 843-7511,3200 Mesa Way # D,Pollard T,KS,"Lawrence, ",66049
Insurance,(785) 749-5294,209 Deerfield Ln,Ford Jessie C,KS,"Lawrence, ",66049
"Insurance,Agriculture Insurance",(785) 749-5294,209 Deerfield Ln,New York Life,KS,"Lawrence, ",66049
"Homeowners Insurance,Life Insurance",(785) 843-7511,2420 Iowa St Ste E,Farmers Insurance,KS,"Lawrence, ",66046
"Insurance,Agriculture Insurance",(785) 843-6591,2420 Iowa St,American Family Ins-Harry A,KS,"Lawrence, ",66046
"Insurance,Agriculture Insurance",(785) 841-3575,1420 Kasold Dr,"Oaks, Joshua",KS,"Lawrence, ",66049
"Insurance,Agriculture Insurance",(785) 865-4040,1420 Kasold Dr # B,Wollesen Lance,KS,"Lawrence, ",66049
"Insurance,Auto Insurance",(785) 865-4040,1420 Kasold Dr,Shelter Insurance,KS,"Lawrence, ",66049
"Auto Insurance,Insurance",(785) 841-3020,2500 Iowa St,Shelter Insurance,KS,"Lawrence, ",66046
"Insurance,Agriculture Insurance",(785) 841-3020,2500 Iowa St # 1,"Peterson, Gary",KS,"Lawrence, ",66046
"Insurance,Agriculture Insurance",(785) 841-7444,2201 W 25th St,"Lilienkamp, Gayland",KS,"Lawrence, ",66047
"Insurance,Financial Planning Consultants",(785) 841-7444,2201 W 25th St,Farm Bureau Financial Services,KS,"Lawrence, ",66047
Insurance,(785) 842-7771,2708 Stone Barn Ter,Prudential Financial,KS,"Lawrence, ",66047
Insurance,(785) 841-7444,2201 W 25th St # S,Bird Don,KS,"Lawrence, ",66047
"Insurance,Auto Insurance",(785) 727-1120,2201 W 25th St,"Reed, Ron",KS,"Lawrence, ",66047
Insurance,(785) 842-7771,2708 Stone Barn Ter,Williams Chris,KS,"Lawrence, ",66047
,(877) 294-7187,,,,,
,(888) 431-3748,,,,,
,(888) 444-0603,,,,,
,(877) 331-8261,,,,,
,,,,,,
"Insurance,Agriculture Insurance",(785) 865-5200,2601 Iowa St,Farmers Insurance,KS,"Lawrence, ",66046
"Insurance,Agriculture Insurance",(785) 242-9549,3801 W 6th St,"Ramirez, Tami",KS,"Lawrence, ",66049
"Insurance,Auto Insurance",(785) 727-1329,2801 Iowa St,American Family Insurance,KS,"Lawrence, ",66046
"Insurance,Agriculture Insurance",(785) 727-1329,2801 Iowa St,"Flummerfelt, D J",KS,"Lawrence, ",66046
"Insurance,Auto Insurance",(785) 371-4055,4105 W 6th St # C,American Family Insurance,KS,"Lawrence, ",66049
Insurance,(785) 856-6767,4105 W 6th St,Hess Chad,KS,"Lawrence, ",66049
"Insurance,Agriculture Insurance",(785) 371-4055,4105 W 6th St # C,"Daniel, Garvin",KS,"Lawrence, ",66049
"Insurance,Agriculture Insurance",(785) 841-6778,4106 W 6th St # C,"Maravac, Justin",KS,"Lawrence, ",66049
"Insurance,Agriculture Insurance",(785) 841-6778,4106 W 6th St # C,Ron King Agency Inc,KS,"Lawrence, ",66049
Insurance,(785) 843-1600,3514 Clinton Pkwy # L,Soucannavong Miranda,KS,"Lawrence, ",66047
Insurance,(785) 841-8008,3010 Four Wheel Dr,American Family Insurance,KS,"Lawrence, ",66047
"Insurance,Agriculture Insurance",(785) 393-1276,4528 Grove Dr,"Cornell, Rich",KS,"Lawrence, ",66049
Insurance,(785) 843-2434,1217 Biltmore Dr # 200,Shanks Steve,KS,"Lawrence, ",66049
Insurance,(785) 856-9119,1120 Summerfield Way,New York Life Garrett Harper,KS,"Lawrence, ",66049
"Insurance,Agriculture Insurance",(785) 856-9119,5040 Bob Billings Pkwy,New York Life Garrett Harper,KS,"Lawrence, ",66049
Insurance,(785) 856-8920,2311 Wakarusa Dr # F,Reed Patricia,KS,"Lawrence, ",66047
"Insurance,Agriculture Insurance",(785) 856-8920,2311 Wakarusa Dr,"Cordova, Beth",KS,"Lawrence, ",66047
"Insurance,Financial Planning Consultants",(785) 856-8920,2311 Wakarusa Dr,Farm Bureau Financial,KS,"Lawrence, ",66047
"Insurance,Agriculture Insurance",(785) 842-3321,305 E 7th St,Gardner Insurance,KS,"Lawrence, ",66044
Insurance,(785) 856-3020,123 W 8th St,Lowe James,KS,"Lawrence, ",66044
"Insurance,Agriculture Insurance",(785) 856-6262,120 E 9th St,Rusty Thomas Insurance & Financial,KS,"Lawrence, ",66044
"Homeowners Insurance,Life Insurance",(785) 331-4353,901 Kentucky St Ste 101,American Family Insurance,KS,"Lawrence, ",66044
Insurance,(785) 841-0200,1035 Vermont St,Hedges Insurance,KS,"Lawrence, ",66044
"Insurance,Agriculture Insurance",(785) 832-1647,725 N 2nd St,Millard Management,KS,"Lawrence, ",66044
"Insurance,Auto Insurance",(785) 856-7650,935 Iowa St,Farmers Insurance,KS,"Lawrence, ",66044
Insurance,(785) 843-2772,1011 Westdale Rd,Hack Alan Jr Ins,KS,"Lawrence, ",66049
"Insurance,Agriculture Insurance",(785) 843-2772,1011 Westdale Rd,CEK Insurance,KS,"Lawrence, ",66049
"Insurance,Agriculture Insurance",(785) 843-2772,1011 Westdale Rd,"Cullers, Tracy",KS,"Lawrence, ",66049
"Insurance,Agriculture Insurance",(785) 843-2772,1011 Westdale Rd,"Karasek, Tom",KS,"Lawrence, ",66049
,(877) 331-8261,,,,,
,(888) 431-3748,,,,,
,(888) 444-0603,,,,,
,(877) 294-7187,,,,,
,,,,,,
"Insurance,Property & Casualty Insurance",(816) 298-1133,1312 S Noland Rd,Auto Insurance Discounters,MO,"Independence, ",64055
"Insurance,Auto Insurance",(866) 276-1219,,State Farm,,,
Auto Insurance,(913) 624-3275,7800 Shawnee Mission Pkwy Suite 12,Affordable Insurance Services,KS,"Mission, ",66202
Insurance,(877) 899-7483,,Progressive Insurance,,,
"Insurance,Auto Insurance",(877) 832-0334,,Discount Insurance Quotes,,,
"Insurance,Auto Insurance",(888) 494-5280,,Discount Insurance Quotes,,,
"Insurance,Auto Insurance",(855) 291-0255,,Discount Insurance Quotes,,,
"Insurance,Auto Insurance,Life Insurance",(785) 371-1067,3300 Bob Billings Pkwy,Chris Munk - State Farm Insurance Agent,KS,"Lawrence, ",66049
"Auto Insurance,Insurance",(785) 330-5296,2233 Louisiana St Ste. H2,Steven Dreiling LUTCF - Allstate Insurance Company,KS,"Lawrence, ",66046
"Insurance,Auto Insurance,Life Insurance",(785) 371-1069,2400 Iowa St,Mike Grosdidier - State Farm Insurance Agent,KS,"Lawrence, ",66046
"Insurance,Property & Casualty Insurance",(785) 380-8297,4106 W 6th St Ste F,Richard Hall - Allstate Insurance Company,KS,"Lawrence, ",66049
"Insurance,Homeowners Insurance",(785) 842-4193,543 Lawrence Ave,Dennis Garrison - State Farm Insurance Agent,KS,"Lawrence, ",66049
"Insurance,Homeowners Insurance",(785) 842-5000,3300 Bob Billings Pkwy,Chris Munk - State Farm Insurance Agent,KS,"Lawrence, ",66049
"Insurance,Life Insurance,Auto Insurance",(785) 843-1292,2400 Iowa St,Bob Carlson - State Farm Insurance Agent,KS,"Lawrence, ",66046
"Insurance,Homeowners Insurance",(785) 842-6407,2400 Iowa St,Mike Grosdidier - State Farm Insurance Agent,KS,"Lawrence, ",66046
"Insurance,Homeowners Insurance",(785) 842-6288,4311 W 6th St,Rochelle Tramp - State Farm Insurance Agent,KS,"Lawrence, ",66049
"Insurance,Life Insurance,Auto Insurance",(785) 330-5028,3200 Mesa Way Ste D,Thomas Pollard - Farmers Insurance,KS,"Lawrence, ",66049
"Surety & Fidelity Bonds,Insurance",(785) 865-3500,917 Iowa St,Allen & Purcell Agency,KS,"Lawrence, ",66044
Insurance,(785) 843-0702,2336 Ridge Ct Suite A,Beasley Insurance Inc,KS,"Lawrence, ",66046
Insurance,(785) 331-3607,3801 W 6th St,"Kansas Insurance, Inc.",KS,"Lawrence, ",66049
Insurance,(785) 843-0702,2336 Ridge Ct,Beasley Insurance,KS,"Lawrence, ",66046
"Auto Insurance,Insurance",(785) 843-2532,2233 Louisiana St Suite H2,Allstate Insurance Company - Steven Dreiling,KS,"Lawrence, ",66046
"Insurance,Truck Insurance,Auto Insurance",(785) 843-0702,2336 Ridge Ct Suite A,Beasley Insurance Inc,KS,"Lawrence, ",66046
"Insurance,Truck Insurance,Auto Insurance",(785) 331-3607,3801 W 6th St,"Kansas Insurance, Inc.",KS,"Lawrence, ",66049
"Financial Services,Homeowners Insurance",(785) 200-9213,1216 E 23rd St Ste B,American Family Insurance - Dave Nuzum,KS,"Lawrence, ",66046
"Financial Services,Homeowners Insurance",(785) 727-4874,2601 Iowa St,American Family Insurance - D J Flummerfelt,KS,"Lawrence, ",66046
"Financial Services,Homeowners Insurance",(785) 200-9220,708 W 9th St Ste 208,American Family Insurance - Mary Woodward,KS,"Lawrence, ",66044
"Financial Services,Homeowners Insurance",(785) 330-5467,2420 Iowa St,American Family Insurance - Jenny Huber,KS,"Lawrence, ",66046
"Financial Services,Homeowners Insurance",(785) 727-4872,2420 Iowa St,American Family Insurance - Harry Thomason Agency Inc.,KS,"Lawrence, ",66046
"Financial Services,Insurance",(785) 727-4873,4106 W 6th St Ste C,American Family Insurance - Justin Moravec,KS,"Lawrence, ",66049
"Financial Services,Homeowners Insurance",(785) 727-4871,3010 Four Wheel Dr,American Family Insurance - Ron King Agency Inc.,KS,"Lawrence, ",66047
"Title Companies,Real Estate Agents",(785) 841-0505,1420 Wakarusa Dr,Commerce Title LLC,KS,"Lawrence, ",66049
"Insurance,Auto Insurance",(866) 276-1219,,State Farm,,,
"Insurance,Property & Casualty Insurance",(816) 298-1133,,Auto Insurance Discounters,,,
Auto Insurance,(913) 624-3275,7800 Shawnee Mission Pkwy Suite 12,Affordable Insurance Services,KS,"Mission, ",66202
Insurance,(877) 899-7483,,Progressive Insurance,,,
"Insurance,Auto Insurance",(888) 444-0603,,American Family Insurance,,,
,(877) 331-8261,,,,,
,(877) 294-7187,,,,,
,(888) 444-0603,,,,,
,(888) 431-3748,,,,,
,(877) 889-9212,,,,,
,(888) 431-3748,,,,,
,(877) 826-2256,,,,,
,(866) 788-4408,,,,,
,(888) 221-3685,,,,,
,(877) 281-5725,,,,,
,(877) 294-7187,,,,,
,(816) 298-1133,1312 S Noland Rd,,MO,"Independence, ",64055
,(785) 789-4709,422 N Juliette Ave,,KS,"Manhattan, ",66502
,(816) 751-4200,,,,,
,(913) 631-9007,6339 Long Ave,,KS,"Shawnee, ",66216
,(785) 371-1067,3300 Bob Billings Pkwy,,KS,"Lawrence, ",66049
,(785) 371-1069,2400 Iowa St,,KS,"Lawrence, ",66046
,(785) 330-5296,2233 Louisiana St Ste. H2,,KS,"Lawrence, ",66046
,,,,,,
,(785) 380-8297,4106 W 6th St Ste F,,KS,"Lawrence, ",66049
,(816) 765-4321,12034 Blue Ridge Ext,,MO,"Grandview, ",64030
,(913) 661-0600,11807 College Blvd,,KS,"Overland Park, ",66210
,(785) 865-3500,917 Iowa St,,KS,"Lawrence, ",66044
,(785) 330-5028,3200 Mesa Way Ste D,,KS,"Lawrence, ",66049
,(785) 843-1292,2400 Iowa St,,KS,"Lawrence, ",66046
,(785) 842-5000,3300 Bob Billings Pkwy,,KS,"Lawrence, ",66049
,(785) 842-4193,543 Lawrence Ave,,KS,"Lawrence, ",66049
"Insurance,Agriculture Insurance",(785) 842-6702,5200 Bob Billings Pkwy,American National Insurance Co,KS,"Lawrence, ",66049
Insurance,(785) 856-5100,"1540 Wakarusa Dr., Suite D",Integrity Midwest Insurance,KS,"Lawrence, ",66047
Insurance,(800) 579-1104,,Hewins Allen,KS,"Lawrence, ",66044
Auto Insurance,(785) 841-6979,545 Columbia Dr Ste 2002,Farmers Insurance - Eduardo Almanza,KS,"Lawrence, ",66049
Retirement Planning Services,(785) 842-3530,3227 Huntington Rd,"Abram Brown Financial Consultants, LLC",KS,"Lawrence, ",66049
Financial Planning Consultants,(785) 843-4939,211 E 8th St,Reinhardt Financial Services,KS,"Lawrence, ",66044
Health Plans-Information & Referral...,(785) 843-2772,1011 Westdale Rd,Calvin Eddy & Kappelman Insurance,KS,"Lawrence, ",66049
"Agriculture Insurance,Insurance",(785) 843-8472,3017 W 6th St,Blue Cross & Blue Shield,KS,"Lawrence, ",66049
"Agriculture Insurance,Insurance",(785) 856-6767,4105 W 6th St,Farm Bureau Insurance,KS,"Lawrence, ",66049
"Auto Insurance,Insurance",(785) 841-6776,4106 W 6th St # C,"Garvin, Daniel",KS,"Lawrence, ",66049
"Insurance,Travel Agencies",(800) 365-5222,3514 Clinton Pkwy,A Aa,KS,"Lawrence, ",66047
Financial Services,(785) 856-2487,4500 Bob Billings Pkwy,Primerica,KS,"Lawrence, ",66049
"Financial Planning Consultants,Insurance",(785) 856-2490,1421 Oread West St,Primerica,KS,"Lawrence, ",66049
"Agriculture Insurance,Insurance",(785) 838-9800,612 New Hampshire St,Executive Benefits Network,KS,"Lawrence, ",66044
"Agriculture Insurance,Insurance",(785) 838-9800,612 New Hampshire St,"Stoetzner, Jacob",KS,"Lawrence, ",66044
"Agriculture Insurance,Insurance",(785) 838-9800,612 New Hampshire St,"Jones, Nancy",KS,"Lawrence, ",66044
"Agriculture Insurance,Insurance",(785) 856-2136,612 New Hampshire St,Northwestern Mutual Financial,KS,"Lawrence, ",66044
"Agriculture Insurance,Insurance",(785) 838-9800,612 New Hampshire St,"Terbovich, Steven",KS,"Lawrence, ",66044
"Auto Insurance,Health Insurance,Insurance",(785) 856-3200,740 New Hampshire St Ste 110,Nathan L Harrison - Aflac Insurance Agent,KS,"Lawrence, ",66044
Financial Planning Consultants,(785) 841-2266,794 Highway 40,Primerica Financial Svc,KS,"Lawrence, ",66049
"Agriculture Insurance,Insurance",(785) 832-1647,725 N 2nd St # H,"Geist, Deborah",KS,"Lawrence, ",66044
"Agriculture Insurance,Insurance",(785) 842-8333,3110 Mesa Way,"Graves, Heather",KS,"Lawrence, ",66049
"Agriculture Insurance,Insurance",(785) 842-8333,3110 Mesa Way,"Schlesener, Jodi",KS,"Lawrence, ",66049
"Agriculture Insurance,Insurance",(785) 842-8333,3110 Mesa Way,"Poteet, Heather",KS,"Lawrence, ",66049
"Title Companies,Insurance",(785) 749-1708,1501 Kasold Dr,First American Title Insurance Company,KS,"Lawrence, ",66047
"Auto Insurance,Insurance",(785) 331-3607,2706 Iowa St Suite F,Douglas County Insurance,KS,"Lawrence, ",66046
Annuities & Retirement Insurance Plans,(785) 842-9210,2002 Camelback Dr,Dixon Sam Financial,KS,"Lawrence, ",66047
Financial Planning Consultants,(785) 856-2136,627 Monterey Way,Northwestern Mutual Financial,KS,"Lawrence, ",66049
"Agriculture Insurance,Insurance",(785) 843-4447,4000 W 6th St,"Berger, Carey",KS,"Lawrence, ",66049
"Title Companies,Insurance",(785) 749-5990,4100 W 6th St Ste A,First American,KS,"Lawrence, ",66049
,(888) 444-0603,,,,,
,(877) 331-8261,,,,,
,(877) 294-7187,,,,,
,(888) 431-3748,,,,,
,,,,,,
"Insurance,Agriculture Insurance",(785) 843-2772,1011 Westdale Rd,"Alexander, Frank",KS,"Lawrence, ",66049
"Insurance,Agriculture Insurance",(785) 843-2772,1011 Westdale Rd,"Tomes, Mark",KS,"Lawrence, ",66049
"Insurance,Retirement Planning Services",(785) 841-7711,2601 W 6th St,Kummer Affiliated Insurors,KS,"Lawrence, ",66049
"Insurance,Agriculture Insurance",(785) 748-0870,818 N Michigan St,Student Assurance Services,KS,"Lawrence, ",66044
"Insurance,Agriculture Insurance",(785) 865-0077,600 Lawrence Ave,"Arensberg, Tom",KS,"Lawrence, ",66049
"Life Insurance,Auto Insurance,Insurance",(785) 841-6979,545 Columbia Dr,Farmers Insurance,KS,"Lawrence, ",66049
"Insurance,Agriculture Insurance",(785) 843-1891,3109 W 6th St,"Suder, John M",KS,"Lawrence, ",66049
"Insurance,Agriculture Insurance",(785) 856-3343,3109 W 6th St,Edie Insurance Group,KS,"Lawrence, ",66049
"Auto Insurance,Insurance",(785) 865-4040,1424 W 23rd St,Shelter Insurance,KS,"Lawrence, ",66046
Insurance,(785) 841-0154,3320 Peterson Rd Ste 101,Norton James,KS,"Lawrence, ",66049
"Insurance,Agriculture Insurance",(785) 856-5355,3502 Westridge Dr,Insurance Is A Helping Hand,KS,"Lawrence, ",66049
Insurance,(785) 843-4229,1617 W 27th St,Murphy Insurance,KS,"Lawrence, ",66046
Insurance,(785) 843-1891,2601 Iowa St,John Suder Agency,KS,"Lawrence, ",66046
"Insurance,Homeowners Insurance",(785) 865-5200,2601 Iowa St,Farmers Insurance - Shepley Agency,KS,"Lawrence, ",66046
"Insurance,Agriculture Insurance",(785) 331-3607,3801 W 6th St,Douglas County Insurance & Financial,KS,"Lawrence, ",66049
Insurance,(785) 331-3607,3801 W 6th St,Oliver Travis J,KS,"Lawrence, ",66049
Insurance,(785) 843-0511,2706 Iowa St # A,Miller David,KS,"Lawrence, ",66046
"Insurance,Auto Insurance",(785) 843-0511,2706 Iowa St,Miller Insurance,KS,"Lawrence, ",66046
"Insurance,Agriculture Insurance",(785) 856-6463,1201 Hacienda Ln,Mohr Insurance Inc,KS,"Lawrence, ",66049
Insurance,(785) 749-4800,3320 Clinton Parkway Ct,Conner Michael J,KS,"Lawrence, ",66047
Insurance,(785) 749-1171,4105 W 6th St,Mutual Security Insurance,KS,"Lawrence, ",66049
Insurance,(785) 843-3139,2708 Lockridge Dr,Davis Agency,KS,"Lawrence, ",66047
Insurance,(785) 838-9800,4601 W 6th St,Executive Benefits Network,KS,"Lawrence, ",66049
Insurance,(785) 856-2136,4601 W 6th St,Northwestern Mutual Financial,KS,"Lawrence, ",66049
Insurance,(785) 838-9800,4601 W 6th St,Jones Joe,KS,"Lawrence, ",66049
Insurance,(785) 749-0421,4840 Bob Billings Pkwy,Insurance Planning Associates,KS,"Lawrence, ",66049
Insurance,(785) 840-1100,4910 Corporate Centre Dr # 200,Fisher Chris,KS,"Lawrence, ",66047
"Insurance,Agriculture Insurance",(785) 331-4596,4910 Corporate Centre Dr,American Financial Group,KS,"Lawrence, ",66047
Insurance,(785) 843-7982,5212 Deer Run Ct,Munk Chris J Ins,KS,"Lawrence, ",66049
"Insurance,Agriculture Insurance",(785) 842-6702,5200 Bob Billings Pkwy,John Kirby Insurance,KS,"Lawrence, ",66049
,(888) 444-0603,,,,,
,(877) 331-8261,,,,,
,(888) 431-3748,,,,,
,(877) 294-7187,,,,,
,,,,,,
Insurance,(785) 841-0200,1035 Vermont St,Hedges Insurance,KS,"Topeka, ",66614
Insurance,(913) 845-1119,22800 Woodend Rd,Blancarte Lindsey,KS,"Tonganoxie, ",66086
Insurance,(785) 597-0196,112 Quarry Ln,Pearson Insurance,KS,"Perry, ",66073
Insurance,(785) 597-2444,605 Cedar St,Gantz Angie,KS,"Perry, ",66073
Insurance,(913) 585-1981,34102 Commerce Dr B,Kansas Preferred Insurance Group,KS,"De Soto, ",66018
"Insurance,Auto Insurance",(913) 369-4444,307 Ridge St,American Family Insurance,KS,"Tonganoxie, ",66086
"Insurance,Agriculture Insurance",(913) 369-4444,307 Ridge St,Kevin Gallagher Agency Inc,KS,"Tonganoxie, ",66086
Insurance,(913) 299-2946,34102 Commerce Dr,Dave Buff Insurance Agency,KS,"De Soto, ",66018
Insurance,(913) 583-3331,33550 Lexington Ave,J Scott Smith Ins Agency,KS,"De Soto, ",66018
"Insurance,Auto Insurance",(913) 583-3331,33550 Lexington Ave,Farmers Insurance,KS,"De Soto, ",66018
"Insurance,Agriculture Insurance",(913) 585-1969,34102 Commerce Dr,Turnbaugh Insurance Inc,KS,"De Soto, ",66018
"Insurance,Agriculture Insurance",(913) 585-1981,2297 N 1137rd Rd,Ks Preferred Insurance Group,KS,"De Soto, ",66018
Insurance,(913) 796-6614,211 N Union St,Woodhead Teresa,KS,"Mc Louth, ",66054
Insurance,(785) 379-5177,7930 SE 32nd Ter,Northwestern Mutual Financial,KS,"Tecumseh, ",66542
"Homeowners Insurance,Auto Insurance",(785) 597-2444,605 Cedar St,A G Insurance,KS,"Perry, ",66073
"Real Estate Appraisers,Appraisers",(913) 845-2400,502 E 4th St,"Evans Real Estate Company, Inc.",KS,"Tonganoxie, ",66086
Annuities & Retirement Insurance Plans,(913) 845-2622,525 E 4th St,Farm Bureau Financial Services,KS,"Tonganoxie, ",66086
"Auto Insurance,Life Insurance",(913) 585-1968,9170 Lexington Ave,"Turnbaugh, Keith - Farmers Insurance",KS,"De Soto, ",66018
"Auto Insurance,Insurance",(913) 585-1981,34102 Commerce Dr Ste A,Mug Expressions by Mooch & Mouse Creations,KS,"De Soto, ",66018
Business & Commercial Insurance,(785) 379-5177,7930 SE 32nd Ter,Haley Russell W CLU,KS,"Tecumseh, ",66542
,(888) 444-0603,,,,,
,(888) 431-3748,,,,,
,(877) 331-8261,,,,,
,(877) 294-7187,,,,,
,,,,,,
Financial Services,(785) 856-2487,4105 W 6th St # 13,Primerica,KS,"Lawrence, ",66049
Investment Advisory Service,(785) 841-4664,"2500 W 31st St, Suite B",McDaniel Knutson Financial Partners,KS,"Lawrence, ",66047
Financial Planning Consultants,(785) 842-4650,2500 W 31st St # G2,Blosser Financial Services,KS,"Lawrence, ",66047
"Agriculture Insurance,Insurance",(785) 841-4664,2500 W 31st St # B,"Mcdaniel, Judith",KS,"Lawrence, ",66047
Financial Planning Consultants,(785) 865-4116,2417 Brookside Ct,Thrivent Financial-Lutherans,KS,"Lawrence, ",66047
"Agriculture Insurance,Insurance",(785) 838-9800,4601 W 6th St # B,Stoetzner Jacob,KS,"Lawrence, ",66049
"Agriculture Insurance,Insurance",(785) 838-9800,4601 W 6th St # B,Terbovich Steven,KS,"Lawrence, ",66049
"Agriculture Insurance,Insurance",(785) 856-7111,1321 Wakarusa Dr,"Cary, Charles",KS,"Lawrence, ",66049
"Financial Planning Consultants,Insurance",(785) 856-1652,4840 Bob Billings Pkwy,Scaletty Steve,KS,"Lawrence, ",66049
Financial Planning Consultants,(785) 371-4000,4840 Bob Billings Pkwy # 101,Secure Financial Svc Inc,KS,"Lawrence, ",66049
"Insurance Adjusters,Insurance",(785) 749-0992,1012 Congressional Ct,Frontier Adjusters,KS,"Lawrence, ",66049
"Agriculture Insurance,Insurance",(785) 843-5077,5123 Congressional Pl,"Clifford, L W",KS,"Lawrence, ",66049
Health Plans-Information & Referral...,(785) 843-2395,,Farm Bureau Financial Services,KS,"Lawrence, ",66049
"Insurance,Agriculture Insurance",(785) 542-2000,711 Main St,Miller Agency Insurance,KS,"Eudora, ",66025
"Insurance,Agriculture Insurance",(785) 542-3027,1218 Church St,Hartwell Doug,KS,"Eudora, ",66025
Insurance,(785) 594-2441,707 8th St,American Family Insurance,KS,"Baldwin City, ",66006
Insurance,(785) 594-2441,707 8th St,Sloan Michael,KS,"Baldwin City, ",66006
Insurance,(785) 594-6822,802 Ames St,Baldwin Insurance,KS,"Baldwin City, ",66006
Insurance,(785) 865-0077,,Boulevard Insurance,,,
Investments,(785) 542-5100,1302 Walnut St,Brokerage Unlimited Inc,KS,"Eudora, ",66025
"Agriculture Insurance,Insurance",(785) 594-1055,721 8th St,Farm Bureau Financial Service,KS,"Baldwin City, ",66006
"Homeowners Insurance,Auto Insurance",(785) 594-7400,707 8th St,American Family Insurance - David Sneider,KS,"Baldwin City, ",66006
Pension & Profit Sharing Plans,(785) 843-5454,,Willis HRH,,,
Employee Benefit Consulting Services,(913) 220-2266,,"HR Benefits, Inc.",,,
Insurance Consultants & Analysts,(913) 369-6600,219 Hwy 24-40,Insurance Center The,KS,"Tonganoxie, ",66086
"Financial Services,Homeowners Insurance",(913) 204-9092,32565 Lexington Ave Ste B,American Family Insurance - Julie Coover,KS,"De Soto, ",66018
"Insurance,Real Estate Agents",(913) 845-2400,502 E 4th St,Evans Insurance Agency,KS,"Tonganoxie, ",66086
"Homeowners Insurance,Life Insurance",(913) 369-4000,200 W 2nd St,American Family Insurance,KS,"Tonganoxie, ",66086
Insurance,(913) 845-2622,525 E 4th St,Jones Robin,KS,"Tonganoxie, ",66086
"Homeowners Insurance,Life Insurance",(913) 369-4444,4TH & Delaware,American Family Insurance Agents,KS,"Tonganoxie, ",66086
,(888) 444-0603,,,,,
,(877) 294-7187,,,,,
,(888) 431-3748,,,,,
,(877) 331-8261,,,,,
,,,,,,
