category,phone,streetAddress,name,addressState,addressCity,addressZip
Churches & Places of Worship,(480) 990-1234,,Acts Messianic Congregation,AZ,"Tempe, ",85282
Churches & Places of Worship,(480) 452-3107,3400 S Mill Ave,Tempe Life Church,AZ,"Tempe, ",85282
Churches & Places of Worship,(480) 350-9535,1040 E Apache Blvd,City In The Desert Metro Church,AZ,"Tempe, ",85281
Churches & Places of Worship,(480) 456-6356,1250 E Baseline Rd,Southwest Bible Fellowship,AZ,"Tempe, ",85283
Churches & Places of Worship,(480) 446-3316,1011 S McClintock Dr,Gpccc Student Center,AZ,"Tempe, ",85281
Churches & Places of Worship,(480) 966-2895,1101 S Hardy Dr,New Beginnings In Christ,AZ,"Tempe, ",85281
Churches & Places of Worship,(877) 774-6469,. . .,Front Land Church International,AZ,"Tempe, ",85281
Churches & Places of Worship,(480) 839-7966,5815 S Mcclintock Dr,Tempe Christian Church,AZ,"Tempe, ",85283
Churches & Places of Worship,(480) 968-3966,318 E 15th St,Friends Meeting of Tempe,AZ,"Tempe, ",85281
Churches & Places of Worship,(480) 968-5895,711 W University Dr,City Of The Lord,AZ,"Tempe, ",85281
Churches & Places of Worship,(480) 777-9900,1805 E Elliot Rd,Tempe Vineyard Church,AZ,"Tempe, ",85284
Churches & Places of Worship,(480) 966-4678,707 E Broadway Rd,Door Christian Fellowship,AZ,"Tempe, ",85282
Churches & Places of Worship,(480) 456-6356,700 W 10th St,Southwest Bible Fellowship,AZ,"Tempe, ",85281
"Churches & Places of Worship,Synagogues",(480) 838-1414,5801 S Rural Rd,Temple Emanuel,AZ,"Tempe, ",85283
Churches & Places of Worship,(480) 727-0916,21 E 6th St,Community Snap Of Arizona,AZ,"Tempe, ",85281
Churches & Places of Worship,(602) 437-2081,2737 W Southern Ave # 1,Lamb of God Christian Ctr,AZ,"Tempe, ",85282
Churches & Places of Worship,(480) 373-6843,2229 W Broadway Rd,Calvary Chapel Of East Mesa,AZ,"Mesa, ",85202
Churches & Places of Worship,(480) 894-9754,615 S Beck Ave,First Church Of God Of Tempe,AZ,"Tempe, ",85281
Churches & Places of Worship,(480) 966-6193,947 S McAllister Ave,Church of Jesus Christ of LDS,AZ,"Tempe, ",85281
"Churches & Places of Worship,Mosques",(480) 894-6070,131 E 6th St,Islamic Community Ctr,AZ,"Tempe, ",85281
Churches & Places of Worship,(480) 829-9700,3400 S Mill Ave,Arizona Brothers Keeper Ministry,AZ,"Tempe, ",85282
Churches & Places of Worship,(480) 478-8380,3501 S McClintock Dr,Arizona Tempe Mission,AZ,"Tempe, ",85282
Churches & Places of Worship,(480) 656-3093,1715 S El Camino Dr,Ambassadors For Peace Embassy,AZ,"Tempe, ",85281
Churches & Places of Worship,(480) 570-8132,1608 E Palmcroft Dr,A-Saem Church,AZ,"Tempe, ",85282
Churches & Places of Worship,(480) 838-0689,1871 E Del Rio Dr,Church Of Jesus Christ Of Latter Day Saints,AZ,"Tempe, ",85282
Churches & Places of Worship,(480) 755-7853,6574 S Dateland Dr,Dominion Life Worship Center,AZ,"Tempe, ",85283
Churches & Places of Worship,(480) 491-6707,6411 S River Dr,Trinity Center of New Thought,AZ,"Tempe, ",85283
Churches & Places of Worship,(480) 298-2613,611 S San Jose,Legacy Baptist Church,AZ,"Mesa, ",85202
Churches & Places of Worship,(480) 838-2424,2720 S Dorsey Ln,First Christian Church-Tempe,AZ,"Tempe, ",85282
Churches & Places of Worship,(480) 838-2887,3929 S Rural Rd,Tempe Church Of Nazarene,AZ,"Tempe, ",85282
,,,,,,
Churches & Places of Worship,(480) 414-4490,751 N Country Club Dr,Real Life Christian Church,AZ,"Mesa, ",85201
Churches & Places of Worship,(480) 892-6224,143 S Alma School Rd,Saint Ignatius Of Antioch,AZ,"Mesa, ",85210
Churches & Places of Worship,(480) 610-8336,527 W Broadway Rd,Iglesia La Roca,AZ,"Mesa, ",85210
Churches & Places of Worship,(480) 981-5457,,Living Christ Fellowship,AZ,"Mesa, ",85205
Churches & Places of Worship,(480) 941-4345,8017 E Roosevelt St,Prayer Center,AZ,"Scottsdale, ",85257
Churches & Places of Worship,(602) 283-1046,650 W Southern Ave,Church Of Jesus Christ Of Latter Day Saints,AZ,"Mesa, ",85210
Churches & Places of Worship,(480) 964-3646,235 W 10th Pl,Church Of Jesus Christ Of Latter Day Saints,AZ,"Mesa, ",85201
Churches & Places of Worship,(480) 945-9331,1803 S Longmore,Salt River United Presbyterian,AZ,"Mesa, ",85202
Churches & Places of Worship,(480) 733-4348,460 S Country Club Dr,Women Of Power International Ministries,AZ,"Mesa, ",85210
Churches & Places of Worship,(480) 610-8336,527 W Broadway Rd,Oasis Christian Center,AZ,"Mesa, ",85210
Churches & Places of Worship,(480) 962-1479,554 W 6th Dr,The Free Church of Tonga,AZ,"Mesa, ",85210
Churches & Places of Worship,(623) 537-1691,8451 E Oak St,Word of Life Christian Ctr,AZ,"Scottsdale, ",85257
Churches & Places of Worship,(480) 946-4583,7934 E Oak St,Scottsdale Christian Church,AZ,"Scottsdale, ",85257
Churches & Places of Worship,(480) 983-0560,GRACE Community Church Of Ea,Grace Community Church of East Valley,AZ,"Apache Junction, ",85119
Churches & Places of Worship,(480) 291-9127,,Oasis of Truth Church,,,
Churches & Places of Worship,(480) 838-7309,2540 W Baseline Rd,St Matthew United Methodist,AZ,"Mesa, ",85202
Churches & Places of Worship,(480) 474-0442,255 S Winchester Rd,Jehovah's Witnesses,AZ,"Apache Junction, ",85119
Churches & Places of Worship,(480) 834-3312,314 W University Dr,New Life Assembly of God,AZ,"Mesa, ",85201
Churches & Places of Worship,(480) 844-2687,56 S Robson,Shiloh Baptist Church,AZ,"Mesa, ",85210
Churches & Places of Worship,(480) 897-2036,2425 S Alma School Rd,Mesa Baptist Church,AZ,"Mesa, ",85210
Churches & Places of Worship,(480) 947-7385,2500 N Scottsdale Rd,Scottsdale Baptist Church,AZ,"Scottsdale, ",85257
Churches & Places of Worship,(480) 775-5200,1730 W Guadalupe Rd,St Timothy Catholic Church,AZ,"Mesa, ",85202
Churches & Places of Worship,(480) 834-4473,1310 S Dobson Rd,Church Of Jesus Christ Of Latter Day Saints,AZ,"Mesa, ",85202
Churches & Places of Worship,(480) 223-0157,215 N Robson,Mesa Vista,AZ,"Mesa, ",85201
Churches & Places of Worship,(480) 839-5807,1810 S Longmore,College View Baptist Church,AZ,"Mesa, ",85202
Churches & Places of Worship,(480) 969-7221,142 N Date,First Evangelical Lutheran Chr,AZ,"Mesa, ",85201
Churches & Places of Worship,(480) 838-8550,2530 S Alma School Rd,Celebration-Life Presbyterian,AZ,"Mesa, ",85210
Churches & Places of Worship,(480) 497-6063,,Gilbert Independent Baptist,AZ,"Gilbert, ",85299
Churches & Places of Worship,(480) 233-1210,745 N Alma School Rd,Valley Chinese Baptist Church,AZ,"Mesa, ",85201
Churches & Places of Worship,(480) 543-9535,444 W Main St,Rose Of Sharon Pentecostal Church,AZ,"Mesa, ",85201
,,,,,,
Churches & Places of Worship,(480) 966-8600,2707 S College Ave,Church of Jesus Christ of Latter-Day Saints,AZ,"Tempe, ",85282
Churches & Places of Worship,(480) 967-8577,45 W Broadway Rd,Church Of Jesus Christ Of Latter Day Saints,AZ,"Tempe, ",85282
Churches & Places of Worship,(480) 820-0753,4400 S Butte Ave,Jehovah's Witnesses,AZ,"Tempe, ",85282
Churches & Places of Worship,(480) 966-8300,1221 W Howe St,Church Of Jesus Christ Of Latter Day Saints,AZ,"Tempe, ",85281
Churches & Places of Worship,(480) 777-9046,6001 S Lakeshore Dr,Church of Jesus Christ of Latter-Day Saints,AZ,"Tempe, ",85283
Churches & Places of Worship,(480) 752-8993,6304 S Price Rd,Bethany Christian School,AZ,"Tempe, ",85283
Churches & Places of Worship,(480) 839-4005,1111 E Knox Rd,Church Of Jesus Christ Of Latter Day Saints,AZ,"Tempe, ",85284
Churches & Places of Worship,(480) 730-5501,2150 E Southern Ave,Tri-City Baptist Church TDD,AZ,"Tempe, ",85282
Churches & Places of Worship,(480) 820-3675,1826 E Southern Ave,Christian Science Reading Room,AZ,"Tempe, ",85282
Churches & Places of Worship,(480) 491-0303,W Baseline Rd,Salvation Army,AZ,"Tempe, ",85283
Churches & Places of Worship,(480) 838-7379,BAHA I Faith,Baha'l Faith,AZ,"Tempe, ",85283
Churches & Places of Worship,(480) 835-0257,997 E Broadway Rd,Church of Jesus Christ of Latter-Day Saints,AZ,"Tempe, ",85282
Churches & Places of Worship,(480) 892-9709,1415 E Southern Ave,Church of Jesus Christ of Latter-Day Saints,AZ,"Tempe, ",85282
Churches & Places of Worship,(480) 834-0042,1050 W Grove W Grove Pkwy,Church of Jesus Christ of Latter-Day Saints,AZ,"Tempe, ",85282
Churches & Places of Worship,(602) 276-4790,650 W Southern Ave,Church of Jesus Christ of Latter-Day Saints,AZ,"Tempe, ",85282
Churches & Places of Worship,(480) 831-0030,6016 S McClintock Dr,Centro Evangelico Fuente De Vida,AZ,"Tempe, ",85283
Churches & Places of Worship,(480) 926-2357,777 E Elliot Rd,Church of Jesus Christ of Latter-Day Saints,AZ,"Tempe, ",85284
Churches & Places of Worship,(480) 947-7495,515 E Continental Dr,Abiding Savior Lutheran Church,AZ,"Tempe, ",85281
Churches & Places of Worship,(480) 945-5250,455 E Continental Dr,Abiding Savior Luth Church,AZ,"Tempe, ",85281
Churches & Places of Worship,(480) 966-5892,1824 E Loma Vista Dr,Christian Science First Church,AZ,"Tempe, ",85282
Churches & Places of Worship,(480) 967-4498,1000 S McAllister Ave,Church Of Jesus Christ Of Latter Day Saints,AZ,"Tempe, ",85281
Churches & Places of Worship,(480) 894-1568,1243 E Broadway Rd Ste 103,PRESBYTERIAN Services Agency,AZ,"Tempe, ",85282
Churches & Places of Worship,(480) 894-2610,1034 S Mill Ave,Alleluia Lutheran Student,AZ,"Tempe, ",85281
Churches & Places of Worship,(480) 838-0689,1881 E Del Rio Dr,Church of Jesus Christ of Latter-Day Saints,AZ,"Tempe, ",85282
Churches & Places of Worship,(480) 897-1544,1050 W Grove Pkwy,Church Of Jesus Christ Of Latter Day Saints,AZ,"Tempe, ",85283
Churches & Places of Worship,(480) 838-0659,1871 E Del Rio Dr,Arizona Tempe Mission,AZ,"Tempe, ",85282
Churches & Places of Worship,(480) 967-3792,Eck Mary Louise C,Eck Mary Louise C S,AZ,"Tempe, ",85281
Churches & Places of Worship,(480) 556-6060,2003 E 5th St,Clint Rogers Ministries,AZ,"Tempe, ",85281
Churches & Places of Worship,(480) 820-0224,2115 W Guadalupe Rd Ste 102,Divine Word Ministries,AZ,"Mesa, ",85202
Churches & Places of Worship,(480) 463-5811,101 W Main St,Faith Harvest Church,AZ,"Mesa, ",85201
,,,,,,
Churches & Places of Worship,(480) 890-0864,310 N Dobson Rd,Lovingkindness Pentecost Church,AZ,"Mesa, ",85201
Churches & Places of Worship,(480) 838-5700,1001 E Southern Ave,Valley Chinese Baptist Church,AZ,"Tempe, ",85282
Churches & Places of Worship,(480) 446-3316,1011 S McClintock Dr,Greater Phoenix Chinese Christian Church,AZ,"Tempe, ",85281
Churches & Places of Worship,(480) 656-1273,1711 W. University Rd ,Iglesia Enlace,AZ,"Tempe, ",85281
Churches & Places of Worship,(602) 456-1049,2741 W Southern Ave,Faithful Word Baptist Church,AZ,"Tempe, ",85282
Churches & Places of Worship,(480) 967-7280,1341 E University Dr,Metro Phoenix Chinese Alliance,AZ,"Tempe, ",85281
Churches & Places of Worship,(480) 730-8600,8600 S McClintock Dr,Desert Cross Lutheran Church,AZ,"Tempe, ",85284
Churches & Places of Worship,(480) 838-0207,3201 S Evergreen Rd,Church Of The Resurrection,AZ,"Tempe, ",85282
Churches & Places of Worship,(480) 966-2895,1101 S Hardy Dr,Tempe Wesleyan Church,AZ,"Tempe, ",85281
Churches & Places of Worship,(480) 820-9944,1565 E Warner Rd,Mission Del Sol Presbyterian,AZ,"Tempe, ",85284
Churches & Places of Worship,(480) 345-0405,975 E Warner Rd,St James Episcopal Church,AZ,"Tempe, ",85284
Churches & Places of Worship,(480) 967-4022,41 E 13th St,Tempe Seventh Day Adventist,AZ,"Tempe, ",85281
Churches & Places of Worship,(480) 839-0926,4525 S McClintock Dr,First Baptist Church Of Tempe,AZ,"Tempe, ",85282
Churches & Places of Worship,(480) 967-3543,340 E 15th St,University Lutheran Church,AZ,"Tempe, ",85281
Churches & Places of Worship,(480) 967-0379,2435 E McArthur Dr,Saint Margaret Church,AZ,"Tempe, ",85281
Churches & Places of Worship,(480) 839-7966,5815 S McClintock Dr,So McClintock Baptist Church,AZ,"Tempe, ",85283
Churches & Places of Worship,(480) 994-9425,2722 N College Ave,Grace Baptist Church,AZ,"Tempe, ",85281
Churches & Places of Worship,(480) 967-3376,215 E University Dr,First United Methodist Church,AZ,"Tempe, ",85281
Churches & Places of Worship,(480) 894-6353,1448 E Cedar St,Haku-Un-Ji Zen Ctr,AZ,"Tempe, ",85281
Churches & Places of Worship,(480) 491-2210,9325 S Rural Rd,Arizona Community Church,AZ,"Tempe, ",85284
Churches & Places of Worship,(480) 838-4240,6415 S Lakeshore Dr,Lakeshore Bible Church,AZ,"Tempe, ",85283
Churches & Places of Worship,(480) 968-6606,1619 S Hardy Dr,Salvation Army,AZ,"Tempe, ",85281
Churches & Places of Worship,(480) 736-8672,971 S Ash Ave,Merkos Chabad Lubavitch,AZ,"Tempe, ",85281
Churches & Places of Worship,(480) 894-6151,235 S El Dorado Cir,Church of Jesus Christ of Latter-Day Saints,AZ,"Mesa, ",85202
Churches & Places of Worship,(480) 425-0691,536 E Fillmore St,Korean Global Mission Church,AZ,"Tempe, ",85281
Churches & Places of Worship,(480) 968-5317,2707 S College Ave,Bodily Howard Bishop,AZ,"Tempe, ",85282
Churches & Places of Worship,(480) 921-2800,605 S Ash Ave,Huellmantel & Affiliates,AZ,"Tempe, ",85281
Churches & Places of Worship,(480) 967-2660,1337 W 11th St,Beautiful Savior Lutheran Church,AZ,"Tempe, ",85281
Churches & Places of Worship,(480) 491-6610,1835 E Elliot Rd,Vineyard Christian Fellowship,AZ,"Tempe, ",85284
Churches & Places of Worship,(480) 829-3905,101 E 6th St,Antioch Community Church,AZ,"Tempe, ",85281
,,,,,,
Churches & Places of Worship,(480) 967-6022,2066 E Don Carlos Ave,Calvary Baptist Church,AZ,"Tempe, ",85281
Churches & Places of Worship,(480) 967-7037,655 W Warner Rd,Crosspoint Church of God,AZ,"Tempe, ",85284
Churches & Places of Worship,(480) 345-6200,2334 E Southern Ave,Calvary Chapel,AZ,"Tempe, ",85282
Churches & Places of Worship,(480) 967-5266,1701 S College Ave,Community Christian Church,AZ,"Tempe, ",85281
Churches & Places of Worship,(480) 838-5700,1001 E Southern Ave,Cross Poin Tempe Church,AZ,"Tempe, ",85282
Churches & Places of Worship,(480) 968-4111,2222 S Price Rd,Episcopal Church-The Epiphany,AZ,"Tempe, ",85282
Churches & Places of Worship,(480) 966-6267,139 E Alameda Dr,University Presbyterian Church,AZ,"Tempe, ",85282
Churches & Places of Worship,(480) 968-7847,2424 S Mill Ave,Tempe Church Of Christ,AZ,"Tempe, ",85282
Churches & Places of Worship,(480) 968-7006,1316 S Martin Ln,Evangelical Fomosan Church,AZ,"Tempe, ",85281
Churches & Places of Worship,(480) 967-2275,101 E 6th St,First Congregational Church,AZ,"Tempe, ",85281
Churches & Places of Worship,(480) 831-5005,6240 S Price Rd,Bethany Community Church,AZ,"Tempe, ",85283
Churches & Places of Worship,(480) 967-3295,1735 S College Ave,St Augustine's Pre-School,AZ,"Tempe, ",85281
Churches & Places of Worship,(480) 967-3983,715 W Southern Ave,Emmanuel Ev Lutheran Church,AZ,"Tempe, ",85282
Churches & Places of Worship,(480) 839-8599,5700 S Country Club Way,Desert Rose Lutheran Brethren,AZ,"Tempe, ",85283
Churches & Places of Worship,(480) 838-3479,1800 E Libra Dr,Holy Spirit Catholic Church,AZ,"Tempe, ",85283
Churches & Places of Worship,(480) 838-1446,1365 E Elliot Rd,Dayspring United Methodist Chr,AZ,"Tempe, ",85284
"Churches & Places of Worship,Child Care",(520) 255-3888,2245 W University Dr Suite 12,Endurance Church of the Valley,AZ,"Tempe, ",85281
Churches & Places of Worship,(480) 491-1631,4515 S Lakeshore Dr,Lighthouse Christian Community Church,AZ,"Tempe, ",85282
Churches & Places of Worship,(480) 894-2201,"1200 E Southern Ave,",Grace Community Church,AZ,"Tempe, ",85282
Churches & Places of Worship,(480) 345-4400,1945 E Guadalupe Rd,Living Faith Anglican Church,AZ,"Tempe, ",85283
Churches & Places of Worship,(480) 894-2805,225 W University Dr Ste 109,Landmark Apostolic Church,AZ,"Tempe, ",85281
Churches & Places of Worship,(480) 831-0065,1230 E Guadalupe Rd,Desert Palm United Church,AZ,"Tempe, ",85283
Churches & Places of Worship,(480) 838-0477,2085 E Southern Ave,King of Glory Lutheran Church,AZ,"Tempe, ",85282
Churches & Places of Worship,(480) 968-6085,1035 E Guadalupe Rd,Grace Bible Church,AZ,"Tempe, ",85283
Churches & Places of Worship,(480) 839-4803,1323 E Fremont Dr,Gideons International,AZ,"Tempe, ",85282
Churches & Places of Worship,(480) 967-0569,1300 S Mill Ave,Church On Mill,AZ,"Tempe, ",85281
Churches & Places of Worship,(480) 839-0906,1035 E Guadalupe Rd,Gethsemane Lutheran Church and School,AZ,"Tempe, ",85283
Churches & Places of Worship,(480) 967-8791,2121 S Rural Rd,Our Lady of Mt Carmel Church,AZ,"Tempe, ",85282
Churches & Places of Worship,(480) 967-7823,230 E University Dr,Newman Center At ASU,AZ,"Tempe, ",85281
Churches & Places of Worship,(480) 777-9803,1137 E Warner Rd,Christ Life Church,AZ,"Tempe, ",85284
,,,,,,
Churches-Baptist,(480) 235-6963,2655 W Guadalupe Rd Suite 31,East Valley Baptist Church,AZ,"Mesa, ",85202
Churches & Places of Worship,(480) 420-4174,739 W Erie St,Holy Trinity Lutheran Church,AZ,"Chandler, ",85225
"Churches & Places of Worship,Cemeteries",(877) 799-9607,2033 N 48th St,St Francis Catholic Cemetery,AZ,"Phoenix, ",85008
Churches & Places of Worship,(480) 962-8071,25 E 8th Ave,Potter's House,AZ,"Mesa, ",85210
Churches & Places of Worship,(480) 941-1783,4640 N Granite Reef Rd,Open Arms Church,AZ,"Scottsdale, ",85251
Churches & Places of Worship,(480) 962-1111,761 S Horne,Progressive Baptist Church,AZ,"Mesa, ",85204
Churches & Places of Worship,(480) 497-9668,1303 S Lindsay Rd,Church On The Journey,AZ,"Mesa, ",85204
Churches & Places of Worship,(480) 899-1400,397 S Gilbert Rd,Light Of Christ Lutheran Church,AZ,"Gilbert, ",85296
Churches & Places of Worship,(480) 632-2220,1820 W Elliot Rd,Redemption Church,AZ,"Gilbert, ",85233
Churches & Places of Worship,(480) 833-8216,1368 N Arizona Ave,Cornerstone Worship Center,AZ,"Chandler, ",85225
Churches & Places of Worship,(480) 838-2587,2542 W Warner Rd,Without Walls Christian Center,AZ,"Chandler, ",85224
Churches & Places of Worship,(480) 471-6614,101 E Comstock Dr,Harvest Bible Chapel,AZ,"Chandler, ",85225
Churches & Places of Worship,(602) 252-1850,102 N 13th St,Pentecost Church-Jesus Christ,AZ,"Phoenix, ",85034
Churches & Places of Worship,(602) 437-9355,4001 E Baseline Rd,Desert Valley Church of God,AZ,"Phoenix, ",85042
Churches & Places of Worship,(602) 253-1076,615 N 20th St,St Philip-Deacon Catholic Ctr,AZ,"Phoenix, ",85006
Churches & Places of Worship,(480) 456-1927,550 N Center St,Voice Of Pentecost Apostoltic,AZ,"Mesa, ",85201
Churches & Places of Worship,(602) 305-7743,2802 E South Mountain Ave,House-Rhema Full Gospel Baptist,AZ,"Phoenix, ",85042
Churches & Places of Worship,(602) 604-1874,2828 E Thomas Rd,Calvary Chapel Arcadia,AZ,"Phoenix, ",85016
Churches & Places of Worship,(602) 268-0784,1921 E Wood St,Shiloh Apostolic,AZ,"Phoenix, ",85040
Churches & Places of Worship,(602) 276-4444,3213 E Southern Ave,Trinity Baptist Fellowship Church,AZ,"Phoenix, ",85040
Churches & Places of Worship,(480) 732-7479,1368 N Arizona Ave,Agape Fellowship Gospel Church,AZ,"Chandler, ",85225
Churches & Places of Worship,(480) 722-0810,730 N Alma School Rd,Community of Christ,AZ,"Chandler, ",85224
Churches & Places of Worship,(480) 649-4275,264 N Center St,The Free Church of Tonga,AZ,"Mesa, ",85201
Churches & Places of Worship,(480) 649-5520,61 N Hibbert,New Beginning Christian,AZ,"Mesa, ",85201
Churches & Places of Worship,(480) 831-0030,2542 W Warner Rd,Centro Evangelico Fuente De Vd,AZ,"Chandler, ",85224
Churches & Places of Worship,(602) 956-2853,2505 E Thomas Rd,Holy Ghost Baptist Chr-Miracles,AZ,"Phoenix, ",85016
Churches & Places of Worship,(480) 706-6063,4629 E Chandler Blvd Ste 115,Calvary Chapel,AZ,"Phoenix, ",85048
Churches & Places of Worship,(480) 834-7472,1430 N Grand,Church of Jesus Christ of LDS,AZ,"Mesa, ",85201
"Churches & Places of Worship,Clergy",(602) 955-4495,3250 N 40th St,"Lawson, David",AZ,"Phoenix, ",85018
Churches & Places of Worship,(602) 237-5966,2102 E Alta Vista Rd,First Watch Ministries House,AZ,"Phoenix, ",85042
,,,,,,
Churches & Places of Worship,(602) 751-1449,,Second Mile Church,AZ,"Queen Creek, ",85142
Churches & Places of Worship,(480) 899-0599,,Presbyterian Service Agency,AZ,"Chandler, ",85224
Churches & Places of Worship,(480) 969-9166,141 N Macdonald,Queen of Peace Catholic Church,AZ,"Mesa, ",85201
Churches & Places of Worship,(480) 833-7312,805 N Country Club Dr,First Christian Chr Disciples,AZ,"Mesa, ",85201
Churches & Places of Worship,(480) 833-6441,611 N Stewart,Church Of Jesus Christ Of Latter Day Saints,AZ,"Mesa, ",85201
Churches & Places of Worship,(480) 839-9324,2300 W Javelina Ave,Church of Jesus Christ of Latter-Day Saints,AZ,"Mesa, ",85202
Churches & Places of Worship,(480) 897-8147,2244 W Keating Ave,Church Of Jesus Christ Of Latter Day Saints,AZ,"Mesa, ",85202
Churches & Places of Worship,(480) 649-0483,142 N Date,Lutheran Social Ministry of The Southwest,AZ,"Mesa, ",85201
Churches & Places of Worship,(480) 833-0191,840 W 8th Ave,Church of Jesus Christ of Latter-Day Saints,AZ,"Mesa, ",85210
Churches & Places of Worship,(480) 964-4013,554 S Longmore,Longmore Road Baptist Church,AZ,"Mesa, ",85202
Churches & Places of Worship,(480) 655-8323,301 N Longmore,Tongan United Methodist Church,AZ,"Mesa, ",85201
Churches & Places of Worship,(480) 464-9376,1500 W 6th Ave,Church Of Jesus Christ Of Latter Day Saints,AZ,"Mesa, ",85202
Churches & Places of Worship,(480) 964-6115,1345 W University Dr,Church of Jesus Christ of Latter-Day Saints,AZ,"Mesa, ",85201
Churches & Places of Worship,(480) 964-4129,1054 W 2nd Pl,Church Of Jesus Christ Of Latter Day Saints,AZ,"Mesa, ",85201
Churches & Places of Worship,(480) 835-0257,997 W Broadway Rd,Church of Jesus Christ of Latter-Day Saints,AZ,"Mesa, ",85210
Churches & Places of Worship,(480) 964-2172,710 N Westwood,Church Of Jesus Christ Of Latter Day Saints,AZ,"Mesa, ",85201
Churches & Places of Worship,(480) 471-8804,848 N Westwood,Church of Jesus Christ of LDS,AZ,"Mesa, ",85201
Churches & Places of Worship,(480) 833-1373,616 S Extension Rd,Church Of Jesus Christ Of Latter Day Saints,AZ,"Mesa, ",85210
Churches & Places of Worship,(480) 655-0572,1718 N Date,Church Of Jesus Christ Of Latter Day Saints,AZ,"Mesa, ",85201
Churches & Places of Worship,(480) 946-1761,2202 N 74th St,Church Of Jesus Christ Of Latter Day Saints,AZ,"Scottsdale, ",85257
Churches & Places of Worship,(480) 945-0880,2240 N Hayden Rd,Arizona Southern Baptist Conv,AZ,"Scottsdale, ",85257
Churches & Places of Worship,(480) 947-3211,7320 E Palm Ln,Palm Lane Christian Reformed,AZ,"Scottsdale, ",85257
Churches & Places of Worship,(480) 949-8034,1030 N Hayden Rd,St Daniel's Catholic Church,AZ,"Scottsdale, ",85257
"Churches & Places of Worship,Bibles",(480) 239-3041,3990 E Riggs Rd,"haitian church, arizona",AZ,"Chandler, ",85249
Churches & Places of Worship,(480) 949-9494,2340 N Hayden Rd,Scottsdale Church The Nzrn,AZ,"Scottsdale, ",85257
Churches & Places of Worship,(520) 418-3400,,Church of Jesus Christ,AZ,"Chandler, ",85249
Churches & Places of Worship,(480) 610-5351,,Filipino American Baptist Church,AZ,"Mesa, ",85201
Churches & Places of Worship,(480) 969-1060,,Paloma Community Church,AZ,"Mesa, ",85201
Churches & Places of Worship,(480) 641-1200,,Song of Life United Methodist,AZ,"Mesa, ",85205
Churches & Places of Worship,(480) 883-3733,,Grove Bible Church,AZ,"Chandler, ",85224
,,,,,,
Churches & Places of Worship,(480) 990-1234,,Acts Messianic Congregation,AZ,"Tempe, ",85282
Churches & Places of Worship,(480) 452-3107,3400 S Mill Ave,Tempe Life Church,AZ,"Tempe, ",85282
Churches & Places of Worship,(480) 350-9535,1040 E Apache Blvd,City In The Desert Metro Church,AZ,"Tempe, ",85281
Churches & Places of Worship,(480) 456-6356,1250 E Baseline Rd,Southwest Bible Fellowship,AZ,"Tempe, ",85283
Churches & Places of Worship,(480) 446-3316,1011 S McClintock Dr,Gpccc Student Center,AZ,"Tempe, ",85281
Churches & Places of Worship,(480) 966-2895,1101 S Hardy Dr,New Beginnings In Christ,AZ,"Tempe, ",85281
Churches & Places of Worship,(877) 774-6469,. . .,Front Land Church International,AZ,"Tempe, ",85281
Churches & Places of Worship,(480) 839-7966,5815 S Mcclintock Dr,Tempe Christian Church,AZ,"Tempe, ",85283
Churches & Places of Worship,(480) 968-3966,318 E 15th St,Friends Meeting of Tempe,AZ,"Tempe, ",85281
Churches & Places of Worship,(480) 968-5895,711 W University Dr,City Of The Lord,AZ,"Tempe, ",85281
Churches & Places of Worship,(480) 777-9900,1805 E Elliot Rd,Tempe Vineyard Church,AZ,"Tempe, ",85284
Churches & Places of Worship,(480) 966-4678,707 E Broadway Rd,Door Christian Fellowship,AZ,"Tempe, ",85282
Churches & Places of Worship,(480) 456-6356,700 W 10th St,Southwest Bible Fellowship,AZ,"Tempe, ",85281
"Churches & Places of Worship,Synagogues",(480) 838-1414,5801 S Rural Rd,Temple Emanuel,AZ,"Tempe, ",85283
Churches & Places of Worship,(480) 727-0916,21 E 6th St,Community Snap Of Arizona,AZ,"Tempe, ",85281
Churches & Places of Worship,(602) 437-2081,2737 W Southern Ave # 1,Lamb of God Christian Ctr,AZ,"Tempe, ",85282
Churches & Places of Worship,(480) 373-6843,2229 W Broadway Rd,Calvary Chapel Of East Mesa,AZ,"Mesa, ",85202
Churches & Places of Worship,(480) 894-9754,615 S Beck Ave,First Church Of God Of Tempe,AZ,"Tempe, ",85281
Churches & Places of Worship,(480) 966-6193,947 S McAllister Ave,Church of Jesus Christ of LDS,AZ,"Tempe, ",85281
"Churches & Places of Worship,Mosques",(480) 894-6070,131 E 6th St,Islamic Community Ctr,AZ,"Tempe, ",85281
Churches & Places of Worship,(480) 829-9700,3400 S Mill Ave,Arizona Brothers Keeper Ministry,AZ,"Tempe, ",85282
Churches & Places of Worship,(480) 478-8380,3501 S McClintock Dr,Arizona Tempe Mission,AZ,"Tempe, ",85282
Churches & Places of Worship,(480) 656-3093,1715 S El Camino Dr,Ambassadors For Peace Embassy,AZ,"Tempe, ",85281
Churches & Places of Worship,(480) 570-8132,1608 E Palmcroft Dr,A-Saem Church,AZ,"Tempe, ",85282
Churches & Places of Worship,(480) 838-0689,1871 E Del Rio Dr,Church Of Jesus Christ Of Latter Day Saints,AZ,"Tempe, ",85282
Churches & Places of Worship,(480) 755-7853,6574 S Dateland Dr,Dominion Life Worship Center,AZ,"Tempe, ",85283
Churches & Places of Worship,(480) 491-6707,6411 S River Dr,Trinity Center of New Thought,AZ,"Tempe, ",85283
Churches & Places of Worship,(480) 298-2613,611 S San Jose,Legacy Baptist Church,AZ,"Mesa, ",85202
Churches & Places of Worship,(480) 838-2424,2720 S Dorsey Ln,First Christian Church-Tempe,AZ,"Tempe, ",85282
Churches & Places of Worship,(480) 838-2887,3929 S Rural Rd,Tempe Church Of Nazarene,AZ,"Tempe, ",85282
,,,,,,
Churches & Places of Worship,(602) 243-5104,1728 E Pueblo Ave,Walk by Faith Christian Fellowship,AZ,"Phoenix, ",85040
Churches & Places of Worship,(602) 381-8441,3875 N 44th St,Church of Scientology Phoenix,AZ,"Phoenix, ",85018
Churches & Places of Worship,(602) 275-4875,2728 E Gary Way,Word of Truth Christian Ctr,AZ,"Phoenix, ",85042
Churches & Places of Worship,(602) 957-3054,3044 N 27th St,Saint Anthony Orthodox Monastery,AZ,"Phoenix, ",85016
Churches & Places of Worship,(602) 212-0850,2515 E Thomas Rd,Highways & Hedges Ministries,AZ,"Phoenix, ",85016
Churches & Places of Worship,(480) 981-5457,1188 W Galveston St,Living Christ Fellowship,AZ,"Chandler, ",85224
Churches & Places of Worship,(602) 349-6516,298 N Nebraska St,Cornerstone Revival Ministries,AZ,"Chandler, ",85225
Churches & Places of Worship,(602) 840-5066,4633 N 54th St,MT Claret Center,AZ,"Phoenix, ",85018
"Churches & Places of Worship,Temples",(602) 368-1818,8222 S 48th St,Danielle Fragnito - Lisa Temple,AZ,"Phoenix, ",85044
Churches & Places of Worship,(480) 946-2900,4425 N Granite Reef Rd,Scucc,AZ,"Scottsdale, ",85251
Churches & Places of Worship,(602) 243-5003,950 E Pecan Rd,Family of Faith Ministries,AZ,"Phoenix, ",85040
Churches & Places of Worship,(480) 497-2076,777 W Elliot Rd,Church Of Jesus Christ Of Latter Day Saints,AZ,"Gilbert, ",85233
Churches & Places of Worship,(480) 497-5433,459 N Gilbert Rd,Lifechurch East Valley,AZ,"Gilbert, ",85234
Churches & Places of Worship,(480) 821-6893,650 S Cooper Rd,Church of Jesus Christ of LDS,AZ,"Gilbert, ",85233
Churches & Places of Worship,(480) 946-7770,4215 N Winfield Scott Plz,Gateway Church,AZ,"Scottsdale, ",85251
Churches & Places of Worship,(602) 252-0914,1725 E Brill St,King Felton Bishop,AZ,"Phoenix, ",85006
Churches & Places of Worship,(480) 945-1738,8310 E Thomas Rd,El Dorado Park Congregation,AZ,"Scottsdale, ",85251
Churches & Places of Worship,(602) 956-3710,3530 N 32nd St,Aldersgate United Methodist,AZ,"Phoenix, ",85018
Churches & Places of Worship,(602) 437-0104,4141 E Raymond St,Heaven's Place Ministries,AZ,"Phoenix, ",85040
Churches & Places of Worship,(480) 945-7596,6235 E Camelback Rd,Camelback Christian Church,AZ,"Scottsdale, ",85251
Churches & Places of Worship,(480) 948-5636,7405 E McDonald Dr,First Christian Church,AZ,"Scottsdale, ",85250
Churches & Places of Worship,(480) 946-3464,8524 E Thomas Rd,Grace Chapel,AZ,"Scottsdale, ",85251
Churches & Places of Worship,(480) 892-2700,2700 E Southern Ave,Unity Church Of Mesa,AZ,"Mesa, ",85204
Churches & Places of Worship,(480) 598-9985,9807 S 48th St,Friendship Community Church,AZ,"Phoenix, ",85044
Churches & Places of Worship,(480) 893-6189,11832 S Warner Elliot Loop,Ahwatukee Assembly Of God,AZ,"Phoenix, ",85044
Churches & Places of Worship,(480) 456-9200,202 S Gilbert Rd,New Life Family Church,AZ,"Gilbert, ",85296
Churches & Places of Worship,(480) 893-8770,3550 E Knox Rd,Corpus Christi Catholic Church,AZ,"Phoenix, ",85044
Churches & Places of Worship,(480) 892-6753,235 E Guadalupe Rd,Gilbert Presbyterian Church,AZ,"Gilbert, ",85234
Churches & Places of Worship,(480) 835-7877,161 N Mesa Dr,First Presbyterian Preschool,AZ,"Mesa, ",85201
Churches & Places of Worship,(480) 940-3540,4633 E Chandler Blvd,Adventure Community Church,AZ,"Phoenix, ",85048
,,,,,,
Churches & Places of Worship,(602) 460-2994,1728 east Pueblo,Work While It's Day Ministries,AZ,"Phoenix, ",85042
Churches & Places of Worship,(602) 494-6501,3180 N Alma School Rd,Faith Christian Community Church,AZ,"Chandler, ",85224
Churches & Places of Worship,(480) 964-5210,805 S Mesa Dr,Pilgrim Nazarene,AZ,"Mesa, ",85210
Churches & Places of Worship,(602) 956-3689,2732 East  Pinchot Ave,Primera Iglesia Del Nazareno,AZ,"Phoenix, ",85016
"Churches & Places of Worship,Mosques",(480) 644-0074,55 N Matlock St,Masjid Noor,AZ,"Mesa, ",85203
Churches & Places of Worship,(480) 981-1966,1445 E. University Dr.,Kingdom International,AZ,"Mesa, ",85214
Churches & Places of Worship,(480) 963-5829,2520 N Hartford St,Faucett Bishop,AZ,"Chandler, ",85225
Churches & Places of Worship,(480) 917-8950,101 E Comstock Dr,Calvary Chapel of Chandler,AZ,"Chandler, ",85225
Churches & Places of Worship,(480) 926-3529,920 S Lindsay Rd,Church Of Jesus Christ Of Latter Day Saints,AZ,"Mesa, ",85204
Churches & Places of Worship,(602) 276-5355,2536 E Pueblo Ave,Pueblo Fellowship Missionary,AZ,"Phoenix, ",85040
"Churches & Places of Worship,Mosques",(602) 306-4959,1818 N 32nd St,Muslim Community Mosque,AZ,"Phoenix, ",85008
Churches & Places of Worship,(602) 388-4269,615 N 48th St,St Mary's,AZ,"Phoenix, ",85008
Churches & Places of Worship,(602) 267-1511,1034 N 24th St,Set Free Baptist Fellowship,AZ,"Phoenix, ",85008
Churches & Places of Worship,(480) 272-6949,3050 S Country Club Dr # 24,Upon This Rock Christian Church,AZ,"Mesa, ",85210
Churches & Places of Worship,(602) 258-2089,1421 S 12th St,Sacred Heart Parish,AZ,"Phoenix, ",85034
Churches & Places of Worship,(480) 948-7460,5802 E Lincoln Dr,Franciscan Renewal Center,AZ,"Paradise Valley, ",85253
Churches & Places of Worship,(602) 475-2395,2108 E Broadway Rd,Martha Emerson Good Shephard,AZ,"Phoenix, ",85040
Churches & Places of Worship,(602) 276-6181,6646 S 16th St,South Phoenix Church Of Christ,AZ,"Phoenix, ",85042
Churches & Places of Worship,(480) 833-8383,757 N 25th St,Church of Jesus Christ of LDS,AZ,"Mesa, ",85213
Churches & Places of Worship,(480) 981-4693,3319 E University Dr,Church of Jesus Christ of LDS,AZ,"Mesa, ",85213
Churches & Places of Worship,(602) 275-2250,3535 E McDowell Rd,Life Skills Institute,AZ,"Phoenix, ",85008
"Churches & Places of Worship,Synagogues",(602) 955-6413,3313 N 40th St,Beth Simchat,AZ,"Phoenix, ",85018
Churches & Places of Worship,(602) 268-1070,1614 E Wood St,Agapee Services Inc,AZ,"Phoenix, ",85040
Churches & Places of Worship,(602) 381-1875,2314 E Pinchot Ave,Centro Cristiano Nissi,AZ,"Phoenix, ",85016
Churches & Places of Worship,(602) 276-0081,1241 E Baseline Rd,Phoenix Tabernacle-Latin Amer,AZ,"Phoenix, ",85042
Churches & Places of Worship,(480) 367-0805,PO Box 1784,Immanuel Congregation,AZ,"Scottsdale, ",85252
Churches & Places of Worship,(602) 268-2821,2417 E Atlanta Ave,Gethsemane Garden of Prayer,AZ,"Phoenix, ",85040
Churches & Places of Worship,(602) 276-8625,2405 E Mobile Ln,Faith Tabernacle Church-God,AZ,"Phoenix, ",85040
"Churches & Places of Worship,Synagogues",(480) 991-0359,6805 E McDonald Dr,Temple Solel,AZ,"Paradise Valley, ",85253
Churches & Places of Worship,(602) 268-5930,1248 E Roeser Rd,Church Of The Living God Cwff,AZ,"Phoenix, ",85040
,,,,,,
Churches & Places of Worship,(480) 890-5724,131 E Southern Ave,Temple Of The Redeemer Apostlc,AZ,"Mesa, ",85210
Churches & Places of Worship,(480) 821-4801,1550 W Chandler Blvd,Christ's Community Church,AZ,"Chandler, ",85224
Churches & Places of Worship,(602) 955-5484,3313 N 40th St,Monte Vista Church-Nazarene,AZ,"Phoenix, ",85018
Churches & Places of Worship,(480) 899-1990,3450 W Ray Rd,St Andrew the Apostle Catholic,AZ,"Chandler, ",85226
Churches & Places of Worship,(480) 786-0165,2140 N Arizona Ave,Living by The Word-Family Church,AZ,"Chandler, ",85225
Churches & Places of Worship,(602) 258-9951,1320 N 15th St,Seventh Day Adventist Comm Center,AZ,"Phoenix, ",85006
Churches & Places of Worship,(480) 632-2220,1820 W Elliot Rd,East Valley Bible Church,AZ,"Gilbert, ",85233
"Churches & Places of Worship,Child Care",(602) 275-8085,2030 N 36th St,Phoenix Christian Assembly,AZ,"Phoenix, ",85008
Churches & Places of Worship,(480) 839-8546,3003 S Saguaro Cir,Church Of Jesus Christ Of Latter Day Saints,AZ,"Mesa, ",85202
Churches & Places of Worship,(480) 588-7960,2601 E Brown Rd,Life's Destiny Church,AZ,"Mesa, ",85213
Churches & Places of Worship,(602) 242-3818,2601 E Thomas Rd,Western Bible College,AZ,"Phoenix, ",85016
Churches & Places of Worship,(480) 545-1111,415 N Gilbert Rd Ste 101,Life Community Church,AZ,"Gilbert, ",85234
Churches & Places of Worship,(480) 964-7335,851 N Stapley Dr # A,First Southern Baptist Church,AZ,"Mesa, ",85203
Churches & Places of Worship,(480) 964-6392,15 W 1st Ave,Church of Jesus Christ of Latter-Day Saints,AZ,"Mesa, ",85210
Churches & Places of Worship,(480) 926-3399,75 W Olive Ave,Sonrise Assembly Of God,AZ,"Gilbert, ",85233
Churches & Places of Worship,(480) 970-0688,1260 N Arizona Ave,Goodtree Community Church,AZ,"Chandler, ",85225
Churches & Places of Worship,(480) 947-4331,7655 E Main St,Our Lady of Perpetual Help,AZ,"Scottsdale, ",85251
Churches & Places of Worship,(480) 830-1723,3257 E University Dr,Pilgrim Evangelical Lutheran,AZ,"Mesa, ",85213
Churches & Places of Worship,(480) 963-3238,445 N Alma School Rd,Church Of Christ,AZ,"Chandler, ",85224
Churches & Places of Worship,(480) 963-3207,230 W Galveston St,St Mary's Catholic Church Gift Shop,AZ,"Chandler, ",85225
Churches & Places of Worship,(480) 948-8380,6261 N Granite Reef Rd,St Maria Goretti Catholic Chr,AZ,"Scottsdale, ",85250
Churches & Places of Worship,(602) 441-1491,5210 S 31st Pl,Autom,AZ,"Phoenix, ",85040
Churches & Places of Worship,(602) 685-3200,2707 E Van Buren St,Salvation Army,AZ,"Phoenix, ",85008
Churches & Places of Worship,(480) 949-0901,5230 N Scottsdale Rd,First Southern Baptist Church,AZ,"Paradise Valley, ",85253
Churches & Places of Worship,(480) 892-2435,645 N Gilbert Rd,Two Rivers Church,AZ,"Gilbert, ",85234
Churches & Places of Worship,(480) 946-4207,3421 N Hayden Rd,Scottsdale Presbyterian Church,AZ,"Scottsdale, ",85251
Churches & Places of Worship,(480) 609-9023,8130 E Vista Dr De Negocio,Leroy Jenkins Evangelistic,AZ,"Scottsdale, ",85250
Churches & Places of Worship,(480) 940-5560,15220 S 50th St # 101,New Valley Church,AZ,"Phoenix, ",85044
Churches & Places of Worship,(480) 964-1743,1223 E Dana Ave,Church Of Christ-Mesa,AZ,"Mesa, ",85204
Churches & Places of Worship,(480) 792-1800,325 N Austin Dr Ste 4,Unity Of Divine Love,AZ,"Chandler, ",85226
,,,,,,
Churches & Places of Worship,(480) 964-1719,1551 E Dana Ave,Christ The King Catholic Chr,AZ,"Mesa, ",85204
Churches & Places of Worship,(480) 994-4848,3130 N Hayden Rd,Holy Cross Lutheran Church,AZ,"Scottsdale, ",85251
Churches & Places of Worship,(480) 675-8284,3214 N 70th St,God's Grace Church,AZ,"Scottsdale, ",85251
Churches & Places of Worship,(480) 969-5631,1020 N Horne,Desert Heritage Church,AZ,"Mesa, ",85203
Churches & Places of Worship,(480) 874-3720,3801 N Miller Rd,Our Lady Of Perpetual Help,AZ,"Scottsdale, ",85251
Churches & Places of Worship,(602) 840-2661,5225 E Camelback Rd,Camelback Church of Christ,AZ,"Phoenix, ",85018
Churches & Places of Worship,(480) 733-7076,430 N Lewis,Calvary Korean Community Church,AZ,"Mesa, ",85201
Churches & Places of Worship,(480) 947-3781,5902 E Camelback Rd,Camelback SDA Church,AZ,"Phoenix, ",85018
Churches & Places of Worship,(480) 835-6320,931 S Stapley Dr,Canaan Missionary Baptist Church,AZ,"Mesa, ",85204
Churches & Places of Worship,(480) 539-6811,201 E Elliot Rd,Royal View Baptist Church,AZ,"Gilbert, ",85234
Churches & Places of Worship,(602) 273-7383,2409 N 36th St,Monte Vista Baptist Church,AZ,"Phoenix, ",85008
Churches & Places of Worship,(602) 258-0831,1401 E Jefferson St,Pilgrim Rest Baptist Church,AZ,"Phoenix, ",85034
Churches & Places of Worship,(480) 969-5577,15 E 1st Ave,First United Methodist Church,AZ,"Mesa, ",85210
Churches & Places of Worship,(480) 834-9091,1621 N Pasadena,Gateway Bible Church,AZ,"Mesa, ",85201
Churches & Places of Worship,(602) 323-9505,2037 E Desert Ln,Holy Archangels Orthodox Church,AZ,"Phoenix, ",85042
Churches & Places of Worship,(480) 835-6085,134 E 2nd Ave,First Church-Christ Scientist,AZ,"Mesa, ",85210
Churches & Places of Worship,(480) 963-6868,532 W Ray Rd,First Assembly Of God,AZ,"Chandler, ",85225
Churches & Places of Worship,(480) 892-5828,601 S Cooper Rd,Vineyard Community Church,AZ,"Gilbert, ",85233
Churches & Places of Worship,(602) 268-0348,2701 E Marguerite Ave,First Pentecostal Church,AZ,"Phoenix, ",85040
Churches & Places of Worship,(602) 957-0981,4224 N 44th St,Community of Christ,AZ,"Phoenix, ",85018
Churches & Places of Worship,(602) 253-0924,1702 E Jefferson St,Trinity Church of God-Christ,AZ,"Phoenix, ",85034
Churches & Places of Worship,(480) 962-1300,1720 E 8th Ave,Mesa Bible Church,AZ,"Mesa, ",85204
Churches & Places of Worship,(602) 956-5120,2601 E Whitton Ave,Whitton Avenue Bible Church,AZ,"Phoenix, ",85016
Churches & Places of Worship,(602) 437-1597,4001 E Broadway Rd,Azusa World Ministries South,AZ,"Phoenix, ",85040
Churches & Places of Worship,(480) 924-9828,933 N Lindsay Rd,Central Christian Church,AZ,"Mesa, ",85213
Churches & Places of Worship,(480) 945-6346,7025 E Osborn Rd,First Baptist Chr-Scottsdale,AZ,"Scottsdale, ",85251
Churches & Places of Worship,(480) 833-7500,717 N Stapley Dr,Church Of The Redeemer,AZ,"Mesa, ",85203
Churches & Places of Worship,(480) 507-0307,1280 N Cooper Rd,Sovereign Grace Church,AZ,"Gilbert, ",85233
Churches & Places of Worship,(480) 821-9469,835 E Warner Rd,Northpointe Baptist Church,AZ,"Chandler, ",85225
Churches & Places of Worship,(602) 956-1156,3426 N 32nd St,Heavenly Cross Pentecostal,AZ,"Phoenix, ",85018
,,,,,,
Churches & Places of Worship,(480) 722-0700,2950 W Ray Rd,Crossroads Nazarene Church,AZ,"Chandler, ",85224
Churches & Places of Worship,(480) 963-7887,1950 W Galveston St,Church of Jesus Christ of Latter-Day Saints,AZ,"Chandler, ",85224
Churches & Places of Worship,(480) 813-7343,1150 W Elliot Rd,Church of Jesus Christ of Latter-Day Saints,AZ,"Chandler, ",85224
Churches & Places of Worship,(480) 899-4150,2252 W Mesquite St,Palmer Rodney,AZ,"Chandler, ",85224
Churches & Places of Worship,(480) 545-7994,230 N Sunway Dr,Lord-Life Christian Fellowship,AZ,"Gilbert, ",85233
Churches & Places of Worship,(480) 844-2226,1255 E Nance St,White Elegance,AZ,"Mesa, ",85203
Churches & Places of Worship,(480) 830-1181,1245 N Lindsay Rd,Church of Jesus Christ of Latter-Day Saints,AZ,"Mesa, ",85213
Churches & Places of Worship,(480) 892-5906,3701 N Arizona Ave,Arizona Avenue Baptist Church,AZ,"Chandler, ",85225
Churches & Places of Worship,(480) 844-2308,1512 E McDowell Rd,Ferguson Memorial Baptist,AZ,"Mesa, ",85203
Churches & Places of Worship,(480) 833-4251,1844 E Dana Ave,St Peter Lutheran Church,AZ,"Mesa, ",85204
Churches & Places of Worship,(480) 446-7121,1375 N McClintock Dr,Saint Columbia Kim Catholic Church,AZ,"Chandler, ",85226
Churches & Places of Worship,(602) 840-0850,5045 E Thomas Rd,Saint Theresa Catholic Church,AZ,"Phoenix, ",85018
Churches & Places of Worship,(480) 963-6129,1125 N Dobson Rd,Faith Community Church,AZ,"Chandler, ",85224
Churches & Places of Worship,(480) 964-1083,1718 N Mesa Dr,Fountain of Life,AZ,"Mesa, ",85201
Churches & Places of Worship,(480) 963-5829,2520 N Hartford St,Church Of Jesus Christ Of Latter Day Saints,AZ,"Chandler, ",85225
Churches & Places of Worship,(480) 834-0167,1455 N Harris Dr,Church Of Jesus Christ Of Latter Day Saints,AZ,"Mesa, ",85203
Churches & Places of Worship,(480) 813-7343,1150 W Elliot Rd,Church Of Jesus Christ Of Latter Day Saints,AZ,"Gilbert, ",85233
Churches & Places of Worship,(480) 461-8468,2220 N Harris Dr,Church Of Jesus Christ Of Latter Day Saints,AZ,"Mesa, ",85203
Churches & Places of Worship,(480) 963-3119,1115 W Ray Rd,Church of Jesus Christ of Latter-Day Saints,AZ,"Chandler, ",85224
Churches & Places of Worship,(480) 898-3252,2152 E Adobe St,Church Of Jesus Christ Of Latter Day Saints,AZ,"Mesa, ",85213
Churches & Places of Worship,(480) 802-0333,1280 W Del Rio St,Church Of Jesus Christ Of Latter Day Saints,AZ,"Chandler, ",85224
Churches & Places of Worship,(480) 890-8899,2334 E Pueblo Ave,Church of Jesus Christ of Latter-Day Saints,AZ,"Mesa, ",85204
Churches & Places of Worship,(480) 962-6172,2228 E Brown Rd,Church of Jesus Christ of Latter-Day Saints,AZ,"Mesa, ",85213
Churches & Places of Worship,(480) 892-1552,1315 N 24th St,Church of Jesus Christ of Latter-Day Saints,AZ,"Mesa, ",85213
Churches & Places of Worship,(480) 844-1709,1911 N 24th St,Church of Jesus Christ of Latter-Day Saints,AZ,"Mesa, ",85213
Churches & Places of Worship,(480) 214-0671,825 S 32nd St,Church of Jesus Christ of Latter-Day Saints,AZ,"Mesa, ",85204
Churches & Places of Worship,(480) 834-1366,2618 N Lindsay Rd,Church Of Jesus Christ Of Latter Day Saints,AZ,"Mesa, ",85213
Churches & Places of Worship,(480) 343-4579,5104 E Thomas Rd,SpiceRecordz,AZ,"Phoenix, ",85018
Churches & Places of Worship,(480) 947-1084,3040 N Extension Rd,Church Of Jesus Christ Of Latter Day Saints,AZ,"Scottsdale, ",85256
Churches & Places of Worship,(602) 840-3130,5524 E Lafayette Blvd,Shepherd-The Hls United Church,AZ,"Phoenix, ",85018
,,,,,,
Churches & Places of Worship,(480) 883-7732,6135 W Detroit St,Foothills Community SDA Church,AZ,"Chandler, ",85226
Churches & Places of Worship,(480) 785-1850,6135 W Detroit St,Springs Church,AZ,"Chandler, ",85226
Churches & Places of Worship,(480) 705-7756,10 S Twelve Oaks Blvd,Church Of Jesus Christ Of Latter Day Saints,AZ,"Chandler, ",85226
Churches & Places of Worship,(480) 785-9500,251 N Roosevelt Ave,New Hope Community Church,AZ,"Chandler, ",85226
Churches & Places of Worship,(602) 955-4770,4518 N 32nd St,American Foundation,AZ,"Phoenix, ",85018
Churches & Places of Worship,(480) 763-8210,250 N 54th St,Life Quest Church,AZ,"Chandler, ",85226
Churches & Places of Worship,(602) 244-0349,1954 N 24th St,Carmelite Fathers,AZ,"Phoenix, ",85008
Churches & Places of Worship,(480) 834-9120,2130 E University Dr,Trinity Preschool & Kindergarten,AZ,"Mesa, ",85213
Churches & Places of Worship,(602) 268-1677,2011 E Saint Catherine Ave,St Stephen Missionary Bapt Chr,AZ,"Phoenix, ",85042
Churches & Places of Worship,(480) 545-7684,229 E Palo Verde St,Jodo Shu Dharma Center,AZ,"Gilbert, ",85296
Churches & Places of Worship,(602) 276-3738,2145 E Grenadine Rd,Solid Rock Church,AZ,"Phoenix, ",85040
Churches & Places of Worship,(602) 956-0600,2728 N 24th St,Temple Of 1,AZ,"Phoenix, ",85008
Churches & Places of Worship,(480) 834-9120,2130 E University Dr,Trinity Baptist Church,AZ,"Mesa, ",85213
Churches & Places of Worship,(480) 947-6012,6701 E Osborn Rd,Salem Lutheran Church,AZ,"Scottsdale, ",85251
Churches & Places of Worship,(480) 839-2860,5445 E Calle San Angelo,Our Lady of Guadalupe Church,AZ,"Guadalupe, ",85283
Churches & Places of Worship,(480) 621-7220,3543 N Granite Reef Rd,Living Fountain Church of God,AZ,"Scottsdale, ",85251
Churches & Places of Worship,(480) 874-3200,3033 N Hayden Rd,Hindu Temple of Arizona,AZ,"Scottsdale, ",85251
Churches & Places of Worship,(480) 947-5525,4300 N 82nd St,Bethany Lutheran Church,AZ,"Scottsdale, ",85251
Churches & Places of Worship,(602) 956-5440,2438 E Earll Dr,Phoenix Christian Reformed Church,AZ,"Phoenix, ",85016
Churches & Places of Worship,(480) 969-0126,645 N Horne,Jehovah's Witnesses,AZ,"Mesa, ",85203
Churches & Places of Worship,(480) 946-9822,2450 N 64th St,Papago Buttes Church-Brethren,AZ,"Scottsdale, ",85257
Churches & Places of Worship,(480) 343-4579,7531 E Thomas Rd,SpiceRecordz,AZ,"Scottsdale, ",85251
Churches & Places of Worship,(480) 969-9792,451 E 2nd Ave,Church of Jesus Christ of Latter-Day Saints,AZ,"Mesa, ",85204
Churches & Places of Worship,(480) 962-9103,241 E 6th St,Salvation Army,AZ,"Mesa, ",85201
Churches & Places of Worship,(480) 827-3142,308 E University Dr,Holy Temple Chr-God In Christ,AZ,"Mesa, ",85201
Churches & Places of Worship,(480) 962-4517,933 E Brown Rd,"Anderson, Robert J",AZ,"Mesa, ",85203
Churches & Places of Worship,(480) 834-1822,655 E University Dr,Word of Grace Church,AZ,"Mesa, ",85203
Churches & Places of Worship,(480) 899-3330,2716 N Dobson Rd,St Katherine Greek Orthodox,AZ,"Chandler, ",85224
Churches & Places of Worship,(480) 963-9397,1270 N Dobson Rd,Calvary Lutheran Church,AZ,"Chandler, ",85224
Churches & Places of Worship,(480) 899-4150,2252 W Mesquite St,Church of Jesus Christ of Latter-Day Saints,AZ,"Chandler, ",85224
,,,,,,
Churches & Places of Worship,(602) 276-2582,1923 E Broadway Rd,Southminster Presbyterian Chr,AZ,"Phoenix, ",85040
Churches & Places of Worship,(602) 255-0602,2801 N 31st St,Iglesia Episcopal De San Pablo,AZ,"Phoenix, ",85008
Churches & Places of Worship,(602) 253-7156,1401 E Adams St,Phillips Memorial Christian Methodist Episcopal Church,AZ,"Phoenix, ",85034
Churches & Places of Worship,(480) 786-3124,1200 N Price Rd,Chandler Bible Church,AZ,"Chandler, ",85226
Churches & Places of Worship,(480) 964-8747,2024 E University Dr,Grace United Methodist Church,AZ,"Mesa, ",85213
Churches & Places of Worship,(480) 892-0720,23 E Cullumber Ave,Church of Christ-Gilbert,AZ,"Gilbert, ",85234
Churches & Places of Worship,(602) 275-7360,4436 E McKinley St,Saint Sava Serbian Orthodox Church,AZ,"Phoenix, ",85008
Churches & Places of Worship,(602) 667-3280,5406 E Virginia Ave,St Joseph Catholic Maronite,AZ,"Phoenix, ",85008
Churches & Places of Worship,(602) 267-1797,2202 N 40th St,Church Of Christ Monte Vista,AZ,"Phoenix, ",85008
Churches & Places of Worship,(602) 268-2632,6802 S 24th St,Holy Family Roman Catholic Church,AZ,"Phoenix, ",85042
Churches & Places of Worship,(602) 268-6428,1854 E Roeser Rd,Roeser Road Church Of Christ,AZ,"Phoenix, ",85040
Churches & Places of Worship,(602) 268-7311,9009 S 18th St,Our Lady of Quito,AZ,"Phoenix, ",85042
Churches & Places of Worship,(480) 834-0042,Stake Offices,Church of Jesus Christ of Latter-Day Saints,AZ,"Mesa, ",85201
Churches & Places of Worship,(480) 964-6248,1050 S Hobson,Church Of Jesus Christ Of Latter Day Saints,AZ,"Mesa, ",85204
Churches & Places of Worship,(480) 835-5520,830 E 2nd Ave,Church Of Jesus Christ Of Latter Day Saints,AZ,"Mesa, ",85204
Churches & Places of Worship,(480) 969-4451,933 E Brown Rd,Church Of Jesus Christ Of Latter Day Saints,AZ,"Mesa, ",85203
Churches & Places of Worship,(480) 892-6342,940 E Southern Ave,Church Of Jesus Christ Of Latter Day Saints,AZ,"Mesa, ",85204
Churches & Places of Worship,(480) 633-9607,1451 W Guadalupe Rd,Church Of Jesus Christ Of Latter Day Saints,AZ,"Gilbert, ",85233
Churches & Places of Worship,(480) 833-3941,810 E Lehi Rd,Church Of Jesus Christ Of Latter Day Saints,AZ,"Mesa, ",85203
Churches & Places of Worship,(480) 350-9451,1852 N Stapley Dr,Church Of Jesus Christ Of Latter Day Saints,AZ,"Mesa, ",85203
Churches & Places of Worship,(480) 833-0400,925 N Harris Dr,Church of Jesus Christ of Latter-Day Saints,AZ,"Mesa, ",85203
Churches & Places of Worship,(480) 964-5225,1028 S Harris Dr,Church Of Jesus Christ Of Latter Day Saints,AZ,"Mesa, ",85204
Churches & Places of Worship,(480) 926-1053,1025 S 24th St,Jehovah's Witnesses,AZ,"Mesa, ",85204
Churches & Places of Worship,(480) 773-7705,683 N Alma School Rd,Pentecostal Church of God,AZ,"Chandler, ",85224
Churches & Places of Worship,(480) 899-4177,1188 W Galveston St,Chandler Seventh-Day Adventist,AZ,"Chandler, ",85224
Churches & Places of Worship,(480) 924-3870,2835 E Des Moines St,Church of Jesus Christ of Latter-Day Saints,AZ,"Mesa, ",85213
Churches & Places of Worship,(480) 802-8365,800 W Chandler Blvd,Church Of Jesus Christ Of Latter Day Saints,AZ,"Chandler, ",85225
Churches & Places of Worship,(480) 963-6182,630 W Chandler Blvd,Jehovah's Witnesses,AZ,"Chandler, ",85225
Churches & Places of Worship,(480) 963-5954,400 N Washington St,Church Of Jesus Christ Of Latter Day Saints,AZ,"Chandler, ",85225
Churches & Places of Worship,(480) 654-2521,1266 S 32nd St,Church of Jesus Christ of Latter-Day Saints,AZ,"Mesa, ",85204
,,,,,,
Churches & Places of Worship,(602) 254-8744,1606 S 14th St,Jehovah's Witnesses,AZ,"Phoenix, ",85034
Churches & Places of Worship,(480) 945-9331,1803 N Longmore Rd,Salt River United Presbyterian Church,AZ,"Scottsdale, ",85256
Churches & Places of Worship,(480) 558-1146,301 E Chilton Dr,Ame Southwest,AZ,"Chandler, ",85225
Churches & Places of Worship,(602) 243-7426,6642 S 16th St,Church of Christ @ the Vineyard (formerly South Phoenix Church of Christ,AZ,"Phoenix, ",85042
Churches & Places of Worship,(480) 963-2416,2505 N Dobson Rd,Koinonia Mennonite Church,AZ,"Chandler, ",85224
Churches & Places of Worship,(480) 659-5199,644 E Southern Ave,New Hope Community Church,AZ,"Mesa, ",85204
Churches & Places of Worship,(480) 899-4249,6400 W Del Rio St,Valley Unitarian Universalist,AZ,"Chandler, ",85226
Churches & Places of Worship,(480) 892-3770,1313 N 24th St,Church of Jesus Christ of Latter-Day Saints,AZ,"Mesa, ",85213
Churches & Places of Worship,(480) 497-9668,1303 S Lindsay Rd,First Assembly of God Mesa Inc,AZ,"Mesa, ",85204
Churches & Places of Worship,(602) 468-2428,2602 N 52nd St,Landmark Apostolic Church,AZ,"Phoenix, ",85008
Churches & Places of Worship,(480) 898-8988,2334 E Pueblo Ave,Church of Jesus Christ of Latter-Day Saints,AZ,"Phoenix, ",85040
Churches & Places of Worship,(602) 955-4495,3250 N 40th St,Valley Community Church Of God,AZ,"Phoenix, ",85018
Churches & Places of Worship,(602) 243-4357,2851 E Chipman Rd,New Revelation Baptist Church,AZ,"Phoenix, ",85040
Churches & Places of Worship,(602) 243-5913,1607 E South Mountain Ave,Fisher Chapel A M E Zion Church,AZ,"Phoenix, ",85042
Churches & Places of Worship,(480) 964-5048,1720 E Broadway Rd,Mt Calvary Baptist Church,AZ,"Mesa, ",85204
Churches & Places of Worship,(602) 438-8100,7202 S 48th St,Twin Butte Baptist Church,AZ,"Phoenix, ",85042
Churches & Places of Worship,(602) 268-2469,2759 E Tamarisk Ave,Broadway Baptist Church,AZ,"Phoenix, ",85040
Churches & Places of Worship,(602) 276-6871,2760 E Mobile Ln,Union Institutional Baptist Church,AZ,"Phoenix, ",85040
Churches & Places of Worship,(602) 268-6032,2608 E Jones Ave,Second National Baptist Church,AZ,"Phoenix, ",85040
Churches & Places of Worship,(602) 268-2512,2006 E Broadway Rd,South Phoenix Missionary Baptist,AZ,"Phoenix, ",85040
Churches & Places of Worship,(602) 955-1544,4233 N 40th St,Mountain View Baptist Church,AZ,"Phoenix, ",85018
Churches & Places of Worship,(602) 956-0330,2828 E Thomas Rd,Eastside Baptist Church,AZ,"Phoenix, ",85016
Churches & Places of Worship,(602) 243-1866,1431 E Southern Ave,Rio Vista Baptist Church,AZ,"Phoenix, ",85040
Churches & Places of Worship,(602) 276-1006,906 E Jones Ave,Bethesda Community Baptist Church,AZ,"Phoenix, ",85040
Churches & Places of Worship,(480) 969-4023,1763 N Gilbert Rd,Immanuel Presbyterian Church,AZ,"Mesa, ",85203
Churches & Places of Worship,(602) 840-0437,2310 N 56th St,St Stephen's Episcopal Church,AZ,"Phoenix, ",85008
Churches & Places of Worship,(480) 945-9537,3641 N 56th St,Prince Of Peace Preschool,AZ,"Phoenix, ",85018
Churches & Places of Worship,(480) 893-2579,11002 S 48th St,Mountain View Lutheran Church,AZ,"Phoenix, ",85044
Churches & Places of Worship,(602) 955-4270,4141 E Thomas Rd,Memorial Presbyterian Church,AZ,"Phoenix, ",85018
Churches & Places of Worship,(602) 956-1620,3546 E Thomas Rd,MT Of Olives Lutheran Church,AZ,"Phoenix, ",85018
,,,,,,
Churches & Places of Worship,(623) 327-3883,3535 E McDowell Rd,New Day Worhship Center,AZ,"Phoenix, ",85008
Churches & Places of Worship,(602) 276-7396,1351 E Broadway Rd,Salvation Army,AZ,"Phoenix, ",85040
Churches & Places of Worship,(602) 956-6794,2434 E Earll Dr,Phoenix Christian Reformed Church,AZ,"Phoenix, ",85016
Churches & Places of Worship,(602) 957-1360,2903 E Indian School,JIMS VIDEO SERVICE,AZ,"Phoenix, ",85016
Churches & Places of Worship,(602) 252-6921,1301 E Buckeye Rd,Church-Lord Jesus Christ,AZ,"Phoenix, ",85034
Churches & Places of Worship,(602) 252-0914,1725 E Brill St,Church of God In Christ,AZ,"Phoenix, ",85006
Churches & Places of Worship,(602) 254-0155,1122 E Buckeye Rd,Chicanos Por La Casa,AZ,"Phoenix, ",85034
Churches & Places of Worship,(480) 991-6424,6947 E McDonald Dr,Valley Presbyterian Church,AZ,"Paradise Valley, ",85253
Churches & Places of Worship,(480) 963-6105,800 W Ray Rd,Epiphany Lutheran Church,AZ,"Chandler, ",85225
Churches & Places of Worship,(480) 899-7386,901 W Erie St,St Matthews Episcopal Church,AZ,"Chandler, ",85225
Churches & Places of Worship,(602) 243-3109,2804 E Mobile Ln,Amos Metropolitan Christian Methodist Episcopal Church,AZ,"Phoenix, ",85040
Churches & Places of Worship,(480) 892-9166,331 S Cooper Rd,First United Methodist Church,AZ,"Gilbert, ",85233
Churches & Places of Worship,(480) 497-6726,19 W Bruce Ave,St Thomas the Apostle Byzntn,AZ,"Gilbert, ",85233
Churches & Places of Worship,(480) 892-0905,440 E Elliot Rd,St Anne's Catholic Church,AZ,"Gilbert, ",85234
Churches & Places of Worship,(602) 431-0800,7040 S 40th St,Greater Bethal Ame Church,AZ,"Phoenix, ",85042
Churches & Places of Worship,(480) 964-1200,41 S Hobson,Church Of Jesus Christ Of Lds,AZ,"Mesa, ",85204
Churches & Places of Worship,(480) 899-7100,2400 W Warner Rd,Cathedral Of Praise,AZ,"Chandler, ",85224
Churches & Places of Worship,(480) 926-4118,1100 N Cooper Rd,Church Of Jesus Christ Of Latter Day Saints,AZ,"Gilbert, ",85233
Churches & Places of Worship,(480) 632-0638,220 E Cullumber Ave,Church of Jesus Christ of Latter-Day Saints,AZ,"Gilbert, ",85234
Churches & Places of Worship,(480) 926-4325,1150 N Lindsay Rd,Church Of Jesus Christ Of Latter Day Saints,AZ,"Gilbert, ",85234
Churches & Places of Worship,(602) 276-3176,2801 E Mobile Ln,New Bethel Chr-God In Christ,AZ,"Phoenix, ",85040
Churches & Places of Worship,(602) 268-8076,2766 E Marguerite Ave,Free Church-God In Christ In,AZ,"Phoenix, ",85040
Churches & Places of Worship,(602) 276-2042,6216 S 22nd St,Church-God In Christ Cngrgtnl,AZ,"Phoenix, ",85042
Churches & Places of Worship,(480) 368-1325,6265 N 82nd St,Church Of Jesus Christ Of Latter Day Saints,AZ,"Scottsdale, ",85250
Churches & Places of Worship,(480) 946-2900,4425 N Granite Reef Rd,Scottsdale Congregational United Church of Christ,AZ,"Scottsdale, ",85251
Churches & Places of Worship,(480) 844-7793,302 S Catalina St,Church of Jesus Christ of Latter-Day Saints,AZ,"Gilbert, ",85233
Churches & Places of Worship,(480) 705-4900,100 S Weber Dr,International Society-Krishna,AZ,"Chandler, ",85226
Churches & Places of Worship,(480) 945-1738,8310 E Thomas Rd,Jehovah's Witnesses,AZ,"Scottsdale, ",85251
Churches & Places of Worship,(480) 945-1362,4301 N Winfield Scott Plz,Christian Science Reading Room,AZ,"Scottsdale, ",85251
Churches & Places of Worship,(480) 946-1567,4643 N 74th Pl,"Farb, Stanley M",AZ,"Scottsdale, ",85251
,,,,,,
Churches & Places of Worship,(602) 840-1410,2324 N 53rd St,Jehovah's Witnesses,AZ,"Phoenix, ",85008
Churches & Places of Worship,(480) 945-3721,6427 E Indian School Rd,Christian Science First Church,AZ,"Scottsdale, ",85251
Churches & Places of Worship,(602) 283-0963,2222 N 40th St,Church Of Jesus Christ Of Latter Day Saints,AZ,"Phoenix, ",85008
Churches & Places of Worship,(480) 994-9126,4225 N 56th St,Church Of Jesus Christ Of Latter Day Saints,AZ,"Phoenix, ",85018
Churches & Places of Worship,(602) 276-8314,2401 E Pueblo Ave,Prayer House Sanctuary Church,AZ,"Phoenix, ",85040
Churches & Places of Worship,(602) 667-5520,3920 N 44th Pl,Church Of Jesus Christ Of Latter Day Saints,AZ,"Phoenix, ",85018
Churches & Places of Worship,(602) 956-0393,2617 N 32nd St,Glad Tiding Assembly Of God,AZ,"Phoenix, ",85008
Churches & Places of Worship,(602) 243-1339,2108 E Broadway Rd,Progressive Church Of God,AZ,"Phoenix, ",85040
Churches & Places of Worship,(602) 508-8373,2502 N 28th Pl,Holy Trinity Orthodox Church,AZ,"Phoenix, ",85008
Churches & Places of Worship,(602) 955-1191,2626 N 28th St,Jehovah's Witnesses,AZ,"Phoenix, ",85008
Churches & Places of Worship,(602) 243-1900,2020 E Baseline Rd,Southgate Church,AZ,"Phoenix, ",85042
Churches & Places of Worship,(602) 276-7650,4655 S 16th St,Greater Paradise Church Of God,AZ,"Phoenix, ",85040
Churches & Places of Worship,(480) 948-7310,6107 N Invergordon Rd,Calvary Church Of The Valley,AZ,"Paradise Valley, ",85253
Churches & Places of Worship,(602) 267-9571,2300 N 24th St,Bethel Temple Latin Amer,AZ,"Phoenix, ",85008
Churches & Places of Worship,(602) 257-1937,1937 E Diamond St,Fire & Water International,AZ,"Phoenix, ",85006
Churches & Places of Worship,(602) 343-4000,2601 E Thomas Rd Ste 210,Assemblies Of God Arizona Dist,AZ,"Phoenix, ",85016
Churches & Places of Worship,(602) 276-8653,1348 E Broadway Rd,Grace Temple,AZ,"Phoenix, ",85040
Churches & Places of Worship,(602) 276-0153,4215 S 12th St,Jehovah's Witnesses,AZ,"Phoenix, ",85040
Churches & Places of Worship,(480) 464-2877,819 S Macdonald,Casa De Amor Baptist Center,AZ,"Mesa, ",85210
Churches & Places of Worship,(480) 833-9535,1820 E Dana Ave,St Peter Lutheran Mission Resource Center,AZ,"Mesa, ",85204
Churches & Places of Worship,(602) 840-1080,4900 E Thomas Rd,Creighton United Methodist Church,AZ,"Phoenix, ",85018
Churches & Places of Worship,(602) 267-4122,2702 E Washington St,Salvation Army,AZ,"Phoenix, ",85034
Churches & Places of Worship,(602) 244-0349,1954 N 24th St,St Agnes-St Vincent De Paul,AZ,"Phoenix, ",85008
Churches & Places of Worship,(480) 964-5210,805 S Mesa Dr,Church of God-Holiness,AZ,"Mesa, ",85210
Churches & Places of Worship,(480) 237-7000,3180 N Alma School Rd Ste 2,Arizona District Chr-The Nazarene,AZ,"Chandler, ",85224
Churches & Places of Worship,(480) 539-1382,410 S McQueen Rd,Church of Jesus Christ of Latter-Day Saints,AZ,"Gilbert, ",85233
Churches & Places of Worship,(480) 732-1428,1260 W Del Rio St,Church of Jesus Christ of LDS,AZ,"Chandler, ",85224
Churches & Places of Worship,(480) 722-0810,730 N Alma School Rd,Church of Jesus Christ of LDS,AZ,"Chandler, ",85224
Churches & Places of Worship,(602) 431-1600,4039 E Raymond St,River Of Life Tabernacle,AZ,"Phoenix, ",85040
Churches & Places of Worship,(602) 438-7080,4828 S 40th St # 2,Victory Community Church,AZ,"Phoenix, ",85040
,,,,,,
Churches & Places of Worship,(480) 483-2381,7361 E Del Acero Dr,Fountain Of Life Church,AZ,"Scottsdale, ",85258
Churches & Places of Worship,(480) 483-2401,6508 E Cactus Rd,Scottsdale Worship Center,AZ,"Scottsdale, ",85254
Churches & Places of Worship,(480) 917-5437,13439 S Val Vista Dr,Word Alive Christian Ctr Inc,AZ,"Gilbert, ",85296
Churches & Places of Worship,(480) 830-4548,5525 E Baseline Rd,Baseline Christian Fellowship,AZ,"Mesa, ",85206
Churches & Places of Worship,(480) 807-2112,5013 E Broadway Rd,New Vision Christian Fellowship Church,AZ,"Mesa, ",85206
Churches & Places of Worship,(480) 331-8714,101 S. Greenfield Rd.,Heritage of Faith Family Church,AZ,"Gilbert, ",85296
Churches & Places of Worship,(602) 254-0989,1206 N Laurel Ave,Iglesia La Luz Del Mundo,AZ,"Phoenix, ",85007
Churches & Places of Worship,(480) 963-7698,50 S McQueen Rd,Trinity Christian Fellowship,AZ,"Chandler, ",85225
Churches & Places of Worship,(480) 654-0688,4151 E Pueblo Ave,Newlife Four Square-Greenfield,AZ,"Mesa, ",85206
Churches & Places of Worship,(480) 726-0436,1500 W Germann Rd,Light-Christ Christian,AZ,"Chandler, ",85286
Churches & Places of Worship,(602) 304-0072,2450 W South Mountain Ave,Crosswalk Church,AZ,"Phoenix, ",85041
Churches & Places of Worship,(602) 266-4602,2710 N 7th Ave,Encanto Community Church,AZ,"Phoenix, ",85007
Churches & Places of Worship,(602) 266-0571,6630 N Central Ave,Ceieration Church,AZ,"Phoenix, ",85012
Churches & Places of Worship,(480) 835-5600,319 N 64th Street,Compassion Christian Center,AZ,"Mesa, ",85205
"Churches & Places of Worship,Synagogues",(480) 247-2891,10636 N 71st Way,Congregation Beth Tefillah,AZ,"Scottsdale, ",85254
Churches & Places of Worship,(602) 268-1201,5802 S 15th Ave,Way of Life Church,AZ,"Phoenix, ",85041
Churches & Places of Worship,(480) 733-9673,319 N 64th St,Word Alive Christian Center,AZ,"Mesa, ",85205
Churches & Places of Worship,(480) 545-5495,1644 S Lindsay Rd,Lord of Life Christian,AZ,"Gilbert, ",85295
Churches & Places of Worship,(602) 264-4488,3424 N 18th Ave,St Gregory's Church,AZ,"Phoenix, ",85015
Churches & Places of Worship,(602) 468-3815,917 E Sheridan St,Christian Church Of Arizona,AZ,"Phoenix, ",85006
Churches & Places of Worship,(480) 219-1176,2291 E Elgin St,Whole Truth Christian Church,AZ,"Chandler, ",85225
Churches & Places of Worship,(480) 706-6063,16233 S 48th St,Calvary Chapel Of Ahwatukee,AZ,"Phoenix, ",85048
Churches & Places of Worship,(866) 332-3319,742 W Southgate Ave,Deliverance International Ministries,AZ,"Phoenix, ",85041
Churches & Places of Worship,(602) 265-3587,6502 N 12th St # 1,Begin Anew,AZ,"Phoenix, ",85014
Churches & Places of Worship,(602) 237-0233,7010 S 27th Ave,Masterpiece Church,AZ,"Phoenix, ",85041
Churches & Places of Worship,(480) 706-6063,14620 S Desert Foothills Pkwy,Calvary Chapel Ahwatukee,AZ,"Phoenix, ",85048
Churches & Places of Worship,(480) 981-8566,6263 E Brown Rd,Jehovah Witnesses-Orchard Glen,AZ,"Mesa, ",85205
Churches & Places of Worship,(480) 830-5307,745 N Val Vista Dr,Church Of Jesus Christ Of Latter Day Saints,AZ,"Mesa, ",85213
Churches & Places of Worship,(480) 892-1844,920 E Linda Ln,Church Of Jesus Christ Of Latter Day Saints,AZ,"Gilbert, ",85234
Churches & Places of Worship,(480) 832-4364,150 N Sulleys Dr,Community of Christ,AZ,"Mesa, ",85205
,,,,,,
Churches & Places of Worship,(602) 267-9700,2640 E McDowell Rd,Faith Christian Ctr,AZ,"Phoenix, ",85008
Churches & Places of Worship,(602) 955-3114,4910 E Earll Dr,First Chinese Baptist Church,AZ,"Phoenix, ",85018
Churches & Places of Worship,(480) 924-9111,2213 N Lindsay Rd,St Bridget Catholic Church,AZ,"Mesa, ",85213
Churches & Places of Worship,(480) 964-5820,322 N Horne,St Mark's Episcopal Church,AZ,"Mesa, ",85203
Churches & Places of Worship,(480) 946-5301,4140 N Miller Rd,Scottsdale United Methodist,AZ,"Scottsdale, ",85251
Churches & Places of Worship,(480) 964-7176,422 E University Dr,Church Of Jesus Christ Of Latter Day Saints,AZ,"Mesa, ",85203
Churches & Places of Worship,(480) 644-1609,464 E 1st Ave,Church Of Jesus Christ Of Latter Day Saints,AZ,"Mesa, ",85204
Churches & Places of Worship,(480) 833-1211,101 S Lesueur,Church Of Jesus Christ Of Latter Day Saints,AZ,"Mesa, ",85204
Churches & Places of Worship,(480) 964-4179,525 E Main St,Church Of Jesus Christ Of Latter Day Saints,AZ,"Mesa, ",85203
Churches & Places of Worship,(480) 964-5062,955 E University Dr,First Church Of The Nazarene,AZ,"Mesa, ",85203
Churches & Places of Worship,(480) 307-6303,1933 E University Dr,Greater Works Ministries,AZ,"Mesa, ",85203
Churches & Places of Worship,(480) 948-8800,8620 E McDonald Dr,Glass & Garden Community Chr,AZ,"Scottsdale, ",85250
Churches & Places of Worship,(480) 964-6559,220 S Chestnut,Holy Trintity Community African Methodist Episcopal,AZ,"Mesa, ",85204
Churches & Places of Worship,(602) 268-9591,2502 E Wood St,Greater Saint Luke Powerhouse,AZ,"Phoenix, ",85040
Churches & Places of Worship,(480) 951-8098,6265 N 82nd St,The Arizona Mesa Mission,AZ,"Scottsdale, ",85250
Churches & Places of Worship,(480) 786-4977,890 W Ray Rd,Greater Phoenix Chinese Chr,AZ,"Chandler, ",85225
Churches & Places of Worship,(480) 838-4040,4450 W Ray Rd,Corona Baptist Church,AZ,"Chandler, ",85226
Churches & Places of Worship,(480) 496-6302,4411 E Knox Rd,Church Of Jesus Christ Of Latter Day Saints,AZ,"Phoenix, ",85044
Churches & Places of Worship,(480) 838-8500,3425 E Cherokee St,Fellowship Ministries,AZ,"Phoenix, ",85044
Churches & Places of Worship,(602) 957-7010,3901 E Indian School Rd,Christ Lutheran School,AZ,"Phoenix, ",85018
Churches & Places of Worship,(480) 598-0802,4525 E Knox Rd,Church Of Jesus Christ Of Latter Day Saints,AZ,"Phoenix, ",85044
Churches & Places of Worship,(602) 667-0554,2131 E Thomas Rd,Creighton Christian Church School,AZ,"Phoenix, ",85016
Churches & Places of Worship,(602) 267-0503,400 N 30th St,St Mark's Catholic Church,AZ,"Phoenix, ",85008
"Churches & Places of Worship,Cemeteries",(602) 267-1329,2033 N 48th St,St Francis Cemetery & Mausoleum,AZ,"Phoenix, ",85008
Churches & Places of Worship,(480) 630-0297,1237 S Val Vista Dr,"David C. Hubbard, Ph. D., P.L.C.",AZ,"Mesa, ",85204
Churches & Places of Worship,(480) 478-0256,3405 S Arizona Ave,First Baptist Church Chandler,AZ,"Chandler, ",85248
Churches & Places of Worship,(480) 500-6912,3520 E Brown Rd,Living Word Bible Church,AZ,"Mesa, ",85213
Churches & Places of Worship,(480) 374-8036,1825 S Alma School Rd,Chandler Christian Church,AZ,"Chandler, ",85286
Churches & Places of Worship,(480) 922-0595,12215 N 71st St,Calvary Chapel Of Scottsdale,AZ,"Scottsdale, ",85254
Churches & Places of Worship,(480) 614-0001,10475 E Lakeview Dr,Scottsdale Family Church,AZ,"Scottsdale, ",85258
,,,,,,
Churches & Places of Worship,(602) 996-4040,9849 N 40th St,Canaan In The Desert,AZ,"Phoenix, ",85028
Churches & Places of Worship,(602) 272-0312,2925 W Polk St,Mission Gospel Ministries Intl,AZ,"Phoenix, ",85009
Churches & Places of Worship,(602) 955-1643,2002 E Missouri Ave,Phoenix United Reformed Church,AZ,"Phoenix, ",85016
Churches & Places of Worship,(602) 276-8570,5210 S 21st Ave,Good Shepherd Missionary Baptist Church,AZ,"Phoenix, ",85041
Churches & Places of Worship,(623) 330-6741,5811 N 20th ST,Telugu Congregation - Phoenix (Church),AZ,"Phoenix, ",85016
Churches & Places of Worship,(602) 254-2329,2407 W Papago St,We Are Warriors For Jesus,AZ,"Phoenix, ",85009
Churches & Places of Worship,(602) 279-6140,6111 N Central Ave,Self-Realization Fellowship,AZ,"Phoenix, ",85012
Churches & Places of Worship,(480) 917-7200,585 E Frye Rd,Door The Christian,AZ,"Chandler, ",85225
Churches & Places of Worship,(480) 240-9252,16831 S Greenfield Rd,Abundant Life Chandler Gilbert,AZ,"Gilbert, ",85295
Churches & Places of Worship,(602) 274-5246,700 W Campbell Ave,Kingdom Life Christian,AZ,"Phoenix, ",85013
Churches & Places of Worship,(602) 266-1471,3819 N 27th Ave,New Bethel Church-The Living,AZ,"Phoenix, ",85017
Churches & Places of Worship,(480) 998-1222,7300 N Via Paseo Del Sur,Vlife Church,AZ,"Scottsdale, ",85258
Churches & Places of Worship,(602) 954-1417,1002 N 3rd St,Church of Scientology of Arizona,AZ,"Phoenix, ",85004
Churches & Places of Worship,(602) 257-9338,2145 W Virginia Ave,Church of Spirit Awareness,AZ,"Phoenix, ",85009
Churches & Places of Worship,(480) 283-2104,1420 E Chandler Blvd,Ubf,AZ,"Phoenix, ",85048
Churches & Places of Worship,(480) 832-3384,745 N Val Vista Dr,Church Of Jesus Christ Of Latter Day Saints,AZ,"Gilbert, ",85234
Churches & Places of Worship,(602) 437-0260,PO Box 91003,Willow Grove Baptist Church,AZ,"Phoenix, ",85066
"Churches & Places of Worship,Synagogues",(602) 277-8858,515 E Bethany Home Rd,Beth Joseph Congregation,AZ,"Phoenix, ",85012
Churches & Places of Worship,(602) 262-2157,1007 W Taylor St,Cristo Viene,AZ,"Phoenix, ",85007
Churches & Places of Worship,(480) 844-3657,2701 E Lehi Rd,Church Of Jesus Christ Of Latter Day Saints,AZ,"Mesa, ",85213
Churches & Places of Worship,(602) 258-9775,1769 Grand Ave,Rock of Salvation Ministries,AZ,"Phoenix, ",85007
Churches & Places of Worship,(480) 948-3315,6480 E Gold Dust Ave,Church Of Jesus Christ Of Latter Day Saints,AZ,"Paradise Valley, ",85253
Churches & Places of Worship,(480) 981-8566,6263 E Brown Rd,Orchard Glenn Congregation,AZ,"Mesa, ",85205
Churches & Places of Worship,(480) 706-6063,4326 E Silverwood Dr,Calvary Chapel,AZ,"Phoenix, ",85048
Churches & Places of Worship,(602) 254-6229,1946 W Monroe St,Centro De Fraternidad Crstn,AZ,"Phoenix, ",85009
Churches & Places of Worship,(602) 253-3262,919 E Mohave St,Gospel Center Church,AZ,"Phoenix, ",85034
Churches & Places of Worship,(602) 795-1533,4221 S 4th St,Salt Of The Earth Baptist Church,AZ,"Phoenix, ",85040
Churches & Places of Worship,(602) 604-2365,75 E Mariposa St,Carmelite Priory,AZ,"Phoenix, ",85012
Churches & Places of Worship,(602) 277-4491,777 W Montecito Ave,Phoenix Central SDA Church,AZ,"Phoenix, ",85013
Churches & Places of Worship,(602) 272-4632,2937 W Almeria Rd,Grace Temple Apostolic Church,AZ,"Phoenix, ",85009
,,,,,,
Churches & Places of Worship,(480) 497-1600,234 S Greenfield Rd,Church Of Jesus Christ Of Latter Day Saints,AZ,"Gilbert, ",85296
Churches & Places of Worship,(602) 274-5246,4120 N 20th St,Redeemed Life Christian Church,AZ,"Phoenix, ",85016
Churches & Places of Worship,(623) 327-0255,23300 W White Tank Mountain Rd,Living Way Ministries,AZ,"Phoenix, ",85037
Churches & Places of Worship,(602) 253-4550,402 W Monroe St,City Of Grace,AZ,"Phoenix, ",85003
Churches & Places of Worship,(602) 468-3818,1550 E Meadowbrook Ave,Arizona Ecumenical Council,AZ,"Phoenix, ",85014
Churches & Places of Worship,(623) 872-0721,809 N 5th Ave,Uncommon,AZ,"Phoenix, ",85003
Churches & Places of Worship,(602) 279-5416,2929 N Central Ave,Church Of Jesus Christ Of Latter Day Saints,AZ,"Phoenix, ",85012
Churches & Places of Worship,(602) 268-1317,1127 W Baseline Rd,La Hermosa Church,AZ,"Phoenix, ",85041
Churches & Places of Worship,(602) 241-9444,4333 N Central Ave,Church Of Jesus Christ Of Latter Day Saints,AZ,"Phoenix, ",85012
Churches & Places of Worship,(602) 266-0571,6630 N Central Ave,Phoenix Calvary Temple,AZ,"Phoenix, ",85012
Churches & Places of Worship,(480) 588-6861,2035 E Amber Ln,Christian Legacy International,AZ,"Gilbert, ",85296
Churches & Places of Worship,(602) 243-7734,4628 S 7th St,Whole Truth Church of God in Christ,AZ,"Phoenix, ",85040
Churches & Places of Worship,(602) 468-3830,4423 N 24th St # 600,United Church Christ Sthwst,AZ,"Phoenix, ",85016
Churches & Places of Worship,(602) 840-8400,4027 E Lincoln Dr,UU Congregation Of Phoenix,AZ,"Paradise Valley, ",85253
"Churches & Places of Worship,Synagogues",(602) 955-6413,5604 N 24th St,"Simchat, Beth",AZ,"Phoenix, ",85016
Churches & Places of Worship,(602) 955-5076,4000 N 7th St # 118,Wheat,AZ,"Phoenix, ",85014
Churches & Places of Worship,(602) 304-1380,5602 S 19th Ave,Gospel Restoration Ctr,AZ,"Phoenix, ",85041
Churches & Places of Worship,(602) 604-0139,6703 N 15th Pl,Ibaan,AZ,"Phoenix, ",85014
Churches & Places of Worship,(602) 444-4735,2437 W Yuma St,Megafaith Ministries Intl Inc,AZ,"Phoenix, ",85009
Churches & Places of Worship,(602) 276-5581,6401 S Central Ave,St Catherine of Siena,AZ,"Phoenix, ",85042
Churches & Places of Worship,(602) 954-2311,3029 E Elm St,Christian Philosophy Church,AZ,"Phoenix, ",85016
Churches & Places of Worship,(602) 253-0092,1637 W Fillmore St,Kings Chapel Alter Of Prayer,AZ,"Phoenix, ",85007
Churches & Places of Worship,(602) 906-4080,6530 N 7th St,Creative Living Fellowship,AZ,"Phoenix, ",85014
Churches & Places of Worship,(602) 272-1627,3101 W Palm Ln,Emmanuel Temple,AZ,"Phoenix, ",85009
Churches & Places of Worship,(480) 279-6737,2654 E Williams Field Rd,St Mary Magdalene,AZ,"Gilbert, ",85295
Churches & Places of Worship,(602) 268-6629,43 W Broadway Rd,Southside Church of Christ,AZ,"Phoenix, ",85041
Churches & Places of Worship,(602) 481-9948,PO Box 90523,Lamb Of God Christian Center,AZ,"Phoenix, ",85066
Churches & Places of Worship,(480) 214-0082,495 N Greenfield Rd,Church Of Jesus Christ Of Latter Day Saints,AZ,"Mesa, ",85205
Churches & Places of Worship,(602) 246-7038,5235 N 19th Ave,Encanto Congregation,AZ,"Phoenix, ",85015
Churches & Places of Worship,(480) 264-4100,8541 E Mercer Ln,Saint Patricks,AZ,"Scottsdale, ",85260
,,,,,,
Churches & Places of Worship,(480) 830-3474,706 S Greenfield Rd,East Mesa Christian Church,AZ,"Mesa, ",85206
Churches & Places of Worship,(480) 227-1442,15303 S Gilbert Rd,Chalice Christian Church,AZ,"Gilbert, ",85295
Churches & Places of Worship,(602) 864-6404,717 E Southern Ave,Gentle Shepherd MCC,AZ,"Phoenix, ",85040
Churches & Places of Worship,(480) 661-9209,9610 E Cactus Rd,City of Grace,AZ,"Scottsdale, ",85260
Churches & Places of Worship,(602) 254-6356,402 W Monroe St,Historic First Presbyterian,AZ,"Phoenix, ",85003
Churches & Places of Worship,(480) 838-6559,2125 E Chandler Blvd,Faith Church Of The Valley,AZ,"Chandler, ",85225
Churches & Places of Worship,(480) 883-3733,2777 S Gilbert Rd,Grove Bible Church,AZ,"Chandler, ",85286
Churches & Places of Worship,(480) 759-2118,15450 S 21st St,Foothills Baptist Church,AZ,"Phoenix, ",85048
Churches & Places of Worship,(480) 759-1515,2601 E Thunderhill Pl,Esperanza Lutheran Church,AZ,"Phoenix, ",85048
Churches & Places of Worship,(480) 460-1480,1401 E Liberty Ln,Horizon Presbyterian Church,AZ,"Phoenix, ",85048
Churches & Places of Worship,(480) 460-1025,2156 E Liberty Ln,Desert Foothills United Mthdst,AZ,"Phoenix, ",85048
Churches & Places of Worship,(480) 926-9595,1351 E Guadalupe Rd,Wonderful Mercy Church,AZ,"Gilbert, ",85234
Churches & Places of Worship,(480) 706-4130,2420 E Liberty Ln,Bridgeway Community Church,AZ,"Phoenix, ",85048
Churches & Places of Worship,(602) 712-0000,1601 Grand Ave,Phoenix World Outreach,AZ,"Phoenix, ",85007
Churches & Places of Worship,(480) 759-6200,2408 E Pecos Rd,Mountain Park Community Church,AZ,"Phoenix, ",85048
Churches & Places of Worship,(480) 832-1150,4248 E Broadway Rd,Cornerstone Church,AZ,"Mesa, ",85206
Churches & Places of Worship,(602) 252-1423,745 W Fillmore St,Church On Fillmore,AZ,"Phoenix, ",85007
Churches & Places of Worship,(602) 254-7126,100 W Roosevelt St,Episcopal Cathedral,AZ,"Phoenix, ",85003
Churches & Places of Worship,(623) 465-9740,2825 W Rose Canyon Cir,Catholic Community Of The Good,AZ,"Phoenix, ",85086
Churches & Places of Worship,(602) 258-8048,1875 N Central Ave,Central United Methodist Church,AZ,"Phoenix, ",85004
Churches & Places of Worship,(602) 263-5013,5510 N Central Ave,First United Methodist Church,AZ,"Phoenix, ",85012
Churches & Places of Worship,(480) 305-7500,965 E Germann Rd,Central Christian Church,AZ,"Gilbert, ",85297
Churches & Places of Worship,(602) 955-2040,5811 N 20th St,Christ Church Anglican,AZ,"Phoenix, ",85016
Churches & Places of Worship,(602) 264-7223,3805 N 12th St,Phoenix Reformed Baptist Chr,AZ,"Phoenix, ",85014
Churches & Places of Worship,(602) 956-6969,2001 E Campbell Ave # 104,Morningside Presbyterian Church,AZ,"Phoenix, ",85016
Churches & Places of Worship,(602) 274-9978,1830 W Glenrosa Ave,American Ev Lutheran Infant,AZ,"Phoenix, ",85015
Churches & Places of Worship,(602) 253-6129,909 E Washington St,Immaculate Heart Church,AZ,"Phoenix, ",85034
Churches & Places of Worship,(602) 253-8426,20 S 8th St,Tanner Chapel Ame Church,AZ,"Phoenix, ",85034
Churches & Places of Worship,(480) 948-4488,12000 N Scottsdale Rd,Scottsdale Church,AZ,"Scottsdale, ",85254
Churches & Places of Worship,(480) 518-4951,860 E Warner Rd Ste 101,NEW SPIRIT COMMUNITY CHURCH,AZ,"Gilbert, ",85296
,,,,,,
Churches & Places of Worship,(602) 955-6370,3900 E Stanford Dr,Roosevelt Community Church,AZ,"Paradise Valley, ",85253
Churches & Places of Worship,(602) 258-1530,1330 W Buckeye Rd,Tempie Wade Memorial Church,AZ,"Phoenix, ",85007
Churches & Places of Worship,(602) 256-9178,3102 N 29th Ave,Berean Church,AZ,"Phoenix, ",85017
Churches & Places of Worship,(602) 253-4932,1246 E Garfield St,Phoenix Gospel Hall,AZ,"Phoenix, ",85006
Churches & Places of Worship,(602) 243-6577,705 W Southgate Ave,Templo Cristiano Casa De Orcn,AZ,"Phoenix, ",85041
Churches & Places of Worship,(602) 254-0498,809 S 7th Ave,St Pius X,AZ,"Phoenix, ",85007
Churches & Places of Worship,(602) 252-9023,1203 W Polk St,Andre House,AZ,"Phoenix, ",85007
Churches & Places of Worship,(602) 956-9266,3330 E Camelback Rd,Biltmore Bible Christian Ctr,AZ,"Phoenix, ",85018
Churches & Places of Worship,(602) 268-5073,4401 S 7th Pl,Azusa World Ministries,AZ,"Phoenix, ",85040
"Churches & Places of Worship,Missions",(602) 283-4635,1821 E Avalon Dr,United State Mission,AZ,"Phoenix, ",85016
Churches & Places of Worship,(602) 252-4029,1021 E McKinley St,Pilgrims Rest Media Ministry,AZ,"Phoenix, ",85006
"Churches & Places of Worship,Synagogues",(602) 944-2753,2110 E Lincoln Dr,Chabad-Lubavitch Ctr,AZ,"Phoenix, ",85016
Churches & Places of Worship,(602) 232-2005,2844 W Broadway Rd,Proleum Energy Inc,AZ,"Phoenix, ",85041
Churches & Places of Worship,(480) 832-9175,6134 E Main St,Dominion Christian Center,AZ,"Mesa, ",85205
Churches & Places of Worship,(602) 971-0078,5811 N 20th Street,Phoenix Chinese Baptist Church,AZ,"Phoenix, ",85016
Churches & Places of Worship,(480) 832-4418,2525 N 32nd St,Church Of Jesus Christ Of Latter Day Saints,AZ,"Mesa, ",85213
Churches & Places of Worship,(602) 996-4840,4101 E Shea Blvd,Church Of The Valley,AZ,"Phoenix, ",85028
Churches & Places of Worship,(480) 483-2401,6508 E Cactus Rd,Swc,AZ,"Scottsdale, ",85254
Churches & Places of Worship,(602) 243-3999,6055 S 20th Ave,Supreme Council-House Of Jacob,AZ,"Phoenix, ",85041
Churches & Places of Worship,(480) 497-5433,3343 E Ivanhoe St,Lifechurch East Valley,AZ,"Gilbert, ",85295
Churches & Places of Worship,(602) 277-3497,1117 E Devonshire Ave,First Reformed Presbyterian,AZ,"Phoenix, ",85014
Churches & Places of Worship,(480) 854-7952,3850 E Houston Ave,Church of Jesus Christ of LDS,AZ,"Gilbert, ",85234
Churches & Places of Worship,(602) 462-5525,1523 W McDowell Rd,Greater Progresion Christian Church,AZ,"Phoenix, ",85007
Churches & Places of Worship,(602) 412-7376,401 E Monroe St,Maranatha Ethiopian Evangelic,AZ,"Phoenix, ",85004
Churches & Places of Worship,(480) 219-3281,6910 E Shea Blvd,Baha'i Faith Community Center,AZ,"Scottsdale, ",85254
Churches & Places of Worship,(602) 230-4767,4710 N 16th St # 104,Vertical,AZ,"Phoenix, ",85016
Churches & Places of Worship,(480) 659-0021,5740 E Shea Blvd,Total Life Ministries,AZ,"Scottsdale, ",85254
Churches & Places of Worship,(602) 820-3951,2437 W. Yuma,Promiseland Community Christian Church,AZ,"Phoenix, ",85009
Churches & Places of Worship,(602) 468-3820,4423 N 24th St # 200,Presbytery of Grand Canyon,AZ,"Phoenix, ",85016
Churches & Places of Worship,(602) 243-3898,775 E Baseline Rd,Glorious 1 Christian Center,AZ,"Phoenix, ",85042
,,,,,,
Churches & Places of Worship,(602) 263-0402,5105 N 7th Ave,Mt Calvary Lutheran Church,AZ,"Phoenix, ",85013
Churches & Places of Worship,(602) 274-2122,4735 N 19th Ave,Westminster Presbyterian Church,AZ,"Phoenix, ",85015
Churches & Places of Worship,(602) 277-4368,522 E Roanoke Ave,Universal Church,AZ,"Phoenix, ",85004
Churches & Places of Worship,(602) 266-5364,4715 N Central Ave,St Francis Xavier Catholic Chr,AZ,"Phoenix, ",85012
Churches & Places of Worship,(602) 957-7500,7000 N Central Ave,Living Streams Church,AZ,"Phoenix, ",85020
Churches & Places of Worship,(480) 726-0399,19620 S McQueen Rd,Desert Springs Church,AZ,"Chandler, ",85286
Churches & Places of Worship,(602) 955-5850,5604 N 24th St,Biltmore Church-The Nazarene,AZ,"Phoenix, ",85016
Churches & Places of Worship,(602) 230-1588,5536 N 6th St,Central Gathering Place,AZ,"Phoenix, ",85012
Churches & Places of Worship,(602) 279-6011,498 W Missouri Ave,Jesus First Church,AZ,"Phoenix, ",85013
Churches & Places of Worship,(602) 264-1221,555 W Glendale Ave,Church Of The Beatitudes,AZ,"Phoenix, ",85021
Churches & Places of Worship,(951) 229-1400,2416 W Saint Catherine Ave,Fullers Field Church By Christ,AZ,"Phoenix, ",85041
Churches & Places of Worship,(602) 864-6404,715 E Southern Ave,Gentle Shepherd Metropolitan Comm Church,AZ,"Phoenix, ",85040
Churches & Places of Worship,(602) 708-3356,777 W. Montecito Ave.,Praise Chapel Phoenix,AZ,"Phoenix, ",85013
Churches & Places of Worship,(602) 248-4400,2020 W Indian School Rd Ste E26,Lutheran Social Ministries,AZ,"Phoenix, ",85015
Churches & Places of Worship,(480) 497-6125,1537 E Stanford Ave,Gateway Church Of Christ Inc,AZ,"Gilbert, ",85234
Churches & Places of Worship,(602) 268-7673,750 E Baseline Rd,Our Lady Of Sorrows Church,AZ,"Phoenix, ",85042
Churches & Places of Worship,(602) 268-5031,749 E Baseline Rd,Apostolic Assembly,AZ,"Phoenix, ",85042
Churches & Places of Worship,(480) 539-8933,11530 E Queen Creek Rd,Faith Family Church,AZ,"Chandler, ",85286
Churches & Places of Worship,(480) 786-0165,319 N 64th St,Living By The Word-Family Chr,AZ,"Mesa, ",85205
Churches & Places of Worship,(480) 314-2400,10700 N 124th St,McDowell Mountain Community Church,AZ,"Scottsdale, ",85259
Churches & Places of Worship,(602) 252-7852,1101 W Tonto St,Tonto Church of Christ,AZ,"Phoenix, ",85007
Churches & Places of Worship,(480) 807-5868,6101 E Virginia St,Red Mountain Community Church,AZ,"Mesa, ",85215
Churches & Places of Worship,(602) 953-1922,4530 E Gold Dust Ave,St George Antiochian Orthodox,AZ,"Phoenix, ",85028
Churches & Places of Worship,(602) 242-4243,6060 N 7th Ave,Child Evangelism Fellowship,AZ,"Phoenix, ",85013
Churches & Places of Worship,(480) 641-0739,1525 N Power Rd,Lutheran Social Service,AZ,"Mesa, ",85205
Churches & Places of Worship,(602) 268-5584,5802 S 7th Ave,Faith Missionary Baptist Church,AZ,"Phoenix, ",85041
Churches & Places of Worship,(602) 954-9089,2312 E Campbell Ave,St Thomas The Apostle School,AZ,"Phoenix, ",85016
Churches & Places of Worship,(602) 252-1771,909 S 1st Ave,St Anthony Roman Catholic,AZ,"Phoenix, ",85003
Churches & Places of Worship,(480) 832-1549,4930 E Main St Ste 7,Hand-Mercy Christian Fllwshp,AZ,"Mesa, ",85205
Churches & Places of Worship,(480) 926-8230,950 N Greenfield Rd,Desert View Baptist Church,AZ,"Gilbert, ",85234
,,,,,,
Churches & Places of Worship,(602) 354-2100,231 N 3rd St,Saint Mary's Basilica,AZ,"Phoenix, ",85004
Churches & Places of Worship,(480) 948-8370,11300 N 64th St,Blessed Sacrament School,AZ,"Scottsdale, ",85254
Churches & Places of Worship,(602) 274-4866,6300 N Central Ave,All Saint's Episcopal Day School,AZ,"Phoenix, ",85012
Churches & Places of Worship,(602) 246-9788,6060 N 7th Ave,Bethany Bible Church,AZ,"Phoenix, ",85013
Churches & Places of Worship,(480) 963-5213,472 S Colorado St,Mount Olive Missionary Baptist Church,AZ,"Chandler, ",85225
Churches & Places of Worship,(480) 632-8920,456 E Ray Rd,Sun Valley Community Church,AZ,"Gilbert, ",85296
Churches & Places of Worship,(480) 981-9684,4801 E Brown Rd,First Baptist Church,AZ,"Mesa, ",85205
Churches & Places of Worship,(602) 243-5108,4601 S 7th St,El Faro Spanish Baptist Church,AZ,"Phoenix, ",85040
Churches & Places of Worship,(602) 323-3968,5601 S 7th Ave,Steadfast Missionary Baptist Church,AZ,"Phoenix, ",85041
Churches & Places of Worship,(602) 265-4827,3301 N 19th Ave,West High Baptist Church,AZ,"Phoenix, ",85015
Churches & Places of Worship,(480) 832-0462,2745 N 32nd St,Bethlehem Lutheran Church,AZ,"Mesa, ",85213
Churches & Places of Worship,(480) 759-9004,3501 E Chandler Blvd,Family of Christ Child Development Cent Er,AZ,"Phoenix, ",85048
Churches & Places of Worship,(602) 265-3394,801 E Camelback Rd,Faith Lutheran Church,AZ,"Phoenix, ",85014
Churches & Places of Worship,(602) 957-3223,7227 N 16th St,Evangelical Lutheran Church,AZ,"Phoenix, ",85020
Churches & Places of Worship,(602) 997-6944,1212 E Glendale Ave,Our Saviour's Lutheran Church,AZ,"Phoenix, ",85020
Churches & Places of Worship,(602) 276-0050,717 E Southern Ave,South Mountain Community Chr,AZ,"Phoenix, ",85040
Churches & Places of Worship,(602) 234-2180,4121 N 7th Ave,Community Church of Hope,AZ,"Phoenix, ",85013
Churches & Places of Worship,(480) 948-0529,11735 N Scottsdale Rd,North Scottsdale United Mthdst,AZ,"Scottsdale, ",85254
Churches & Places of Worship,(480) 985-3140,6263 E Thomas Rd,Mesa Palms Seventh Day Advntst,AZ,"Mesa, ",85215
Churches & Places of Worship,(602) 253-9515,1614 E Monte Vista Rd,Saint Peter & Paul Eastern Orthdx,AZ,"Phoenix, ",85006
Churches & Places of Worship,(602) 264-7863,1973 E Maryland Ave,Holy Trinity Greek Orthodox,AZ,"Phoenix, ",85016
Churches & Places of Worship,(602) 992-9540,9230 N 26th St,Apostolic Christian Church,AZ,"Phoenix, ",85028
Churches & Places of Worship,(602) 249-1033,2232 W Campbell Ave,First Arabic Baptist Church,AZ,"Phoenix, ",85015
Churches & Places of Worship,(480) 963-4205,191 S California St,Latin American Church-The Nzrn,AZ,"Chandler, ",85225
Churches & Places of Worship,(602) 265-2831,1029 E Turney Ave,Cristo Aids Ministry,AZ,"Phoenix, ",85014
Churches & Places of Worship,(602) 861-1313,1930 E Myrtle Ave,Soka Gakkai International USA,AZ,"Phoenix, ",85020
Churches & Places of Worship,(480) 245-7900,2211 W. Germann Rd.,Tri City Baptist Church,AZ,"Chandler, ",85286
Churches & Places of Worship,(480) 985-6361,6502 E Brown Rd,Brown Road Baptist Church,AZ,"Mesa, ",85205
Churches & Places of Worship,(480) 981-6199,1525 N Power Rd,Love of Christ Lutheran Church,AZ,"Mesa, ",85205
Churches & Places of Worship,(602) 276-7318,9027 S 8th Pl,Saint Luke's At The Mountain Episcopal,AZ,"Phoenix, ",85042
,,,,,,
Churches & Places of Worship,(602) 955-9414,2927 E Campbell Ave,Mountain View Christian Church,AZ,"Phoenix, ",85016
Churches & Places of Worship,(480) 991-9878,6451 E Shea Blvd,Chaparral Christian Church,AZ,"Scottsdale, ",85254
Churches & Places of Worship,(602) 354-2139,400 E Monroe St,Catholic Sun,AZ,"Phoenix, ",85004
Churches & Places of Worship,(480) 786-4446,17817 S McQueen Rd,Church Of Jesus Christ Of Latter Day Saints,AZ,"Chandler, ",85286
Churches & Places of Worship,(480) 279-6737,654 E Williams Field Rd,Saint Mary Magdalene,AZ,"Gilbert, ",85295
Churches & Places of Worship,(602) 264-4338,4002 N 18th Ave,Phoenix Christian Elementary,AZ,"Phoenix, ",85015
Churches & Places of Worship,(602) 953-1921,4530 E Gold Dust Ave,St George Fellowship Hall,AZ,"Phoenix, ",85028
Churches & Places of Worship,(602) 996-4040,9849 N 40th St,Prayer Garden,AZ,"Phoenix, ",85028
Churches & Places of Worship,(602) 314-5489,1509 W Sherman St,St Paul Missionary Baptist,AZ,"Phoenix, ",85007
Churches & Places of Worship,(602) 256-4535,24 E Mohave St,Salvation Army,AZ,"Phoenix, ",85004
Churches & Places of Worship,(480) 722-0224,1251 W Hawken Way,Courts of Praise,AZ,"Chandler, ",85286
Churches & Places of Worship,(480) 844-9115,4833 E Southern Ave,Church of Jesus Christ of Latter-Day Saints,AZ,"Mesa, ",85206
Churches & Places of Worship,(480) 539-8933,11530 East Queen Creek Road,Faith Family Church,AZ,"Chandler, ",85286
Churches & Places of Worship,(480) 895-4097,3770 S Cooper Rd,Church of Jesus Christ of Latter-Day Saints,AZ,"Chandler, ",85286
Churches & Places of Worship,(602) 443-7100,4423 N 24th St,Crosier,AZ,"Phoenix, ",85016
Churches & Places of Worship,(602) 840-8400,4027 E Lincoln Dr,Unitarian Universalist Congregation of Phx,AZ,"Paradise Valley, ",85253
Churches & Places of Worship,(602) 271-4810,2302 N 9th St,Sikh Dharma Phoenix Gurdwara,AZ,"Phoenix, ",85006
Churches & Places of Worship,(602) 553-0988,4343 N 16th St,Salvation Army Church,AZ,"Phoenix, ",85016
Churches & Places of Worship,(602) 268-1201,5802 S 15th Ave,Templo Ebenezer Assembly-God,AZ,"Phoenix, ",85041
Churches & Places of Worship,(602) 386-4560,1110 E Missouri Ave,Disciple Nations Alliance,AZ,"Phoenix, ",85014
Churches & Places of Worship,(480) 991-5268,8010 E Morgan Trl,Just Moved Ministry,AZ,"Scottsdale, ",85258
Churches & Places of Worship,(602) 264-1700,4343 N 7th Ave,Sanctum,AZ,"Phoenix, ",85013
Churches & Places of Worship,(623) 465-9740,2825 W Rose Canyon Cir,St Rose Catholic Church,AZ,"Phoenix, ",85086
Churches & Places of Worship,(602) 237-3927,7848 S 27th Ave,New Destiny Christian Church,AZ,"Laveen, ",85339
Churches & Places of Worship,(480) 545-4321,3015 E Warner Rd,Oasis Family Church,AZ,"Gilbert, ",85296
Churches & Places of Worship,(480) 657-7030,10250 N 124th St,Landmark Pentecostal Church,AZ,"Scottsdale, ",85259
Churches & Places of Worship,(480) 307-6060,8706 E Via Taz Norte,Desert View A Christian Science Visiting Nurse Service,AZ,"Scottsdale, ",85258
Churches & Places of Worship,(602) 264-8575,1 N 1st St,Fellowship Christian Athletes,AZ,"Phoenix, ",85004
Churches & Places of Worship,(480) 985-8121,740 N Power Rd,Red Mountain Christian Ctr,AZ,"Mesa, ",85205
Churches & Places of Worship,(602) 276-4085,1902 W Roeser Rd,First New Life Missionary Baptist Church,AZ,"Phoenix, ",85041
,,,,,,
Churches & Places of Worship,(602) 276-4030,200 W Southern Ave,Seventh-Day Adventist Church,AZ,"Phoenix, ",85041
Churches & Places of Worship,(480) 991-0048,5631 E Shea Blvd,New Church Of Phoenix,AZ,"Scottsdale, ",85254
Churches & Places of Worship,(602) 258-1789,320 N 20th Dr,St Matthew Catholic Church,AZ,"Phoenix, ",85009
Churches & Places of Worship,(480) 240-9252,16831 S. Greenfield Rd.,LifeChurch,AZ,"Gilbert, ",85295
Churches & Places of Worship,(602) 258-6891,1407 N 2nd St,First Congregational UCC,AZ,"Phoenix, ",85004
Churches & Places of Worship,(480) 857-0455,2175 S Gilbert Rd,Desert Gateway Baptist Church,AZ,"Gilbert, ",85295
Churches & Places of Worship,(480) 922-9495,6789 E Cactus Rd,St Nicholas Anglican Church,AZ,"Scottsdale, ",85254
Churches & Places of Worship,(480) 497-6125,907 N Sailors Way,Church Of Christ Gateway,AZ,"Gilbert, ",85234
Churches & Places of Worship,(480) 279-1723,2700 E Galveston St,Church Of Jesus Christ Of Latter Day Saints,AZ,"Gilbert, ",85233
Churches & Places of Worship,(602) 307-5312,905 N 9th St,Apostolic Assembly Phoenix,AZ,"Phoenix, ",85006
Churches & Places of Worship,(480) 358-9851,6644 E Baseline Rd Ste 101,Mountain Vista Bible Church,AZ,"Mesa, ",85206
Churches & Places of Worship,(602) 253-6904,700 E Jefferson St,Tanner Community Development,AZ,"Phoenix, ",85034
Churches & Places of Worship,(480) 991-5268,8010 E Morgan Trl Ste 7,New Ministries Inc,AZ,"Scottsdale, ",85258
Churches & Places of Worship,(480) 926-8290,15804 E Elliot Rd,Elliot Road Baptist Church,AZ,"Gilbert, ",85234
Churches & Places of Worship,(480) 892-8314,425 N Greenfield Rd,Christ's Greenfield School,AZ,"Gilbert, ",85234
Churches & Places of Worship,(480) 981-0327,2115 N Gayridge Rd,Apache Wells Community Church,AZ,"Mesa, ",85215
Churches & Places of Worship,(480) 451-8171,8849 E Cholla St,Armenian Apostolic Church,AZ,"Scottsdale, ",85260
Churches & Places of Worship,(480) 596-6798,12225 N 68th St,Mar Abraham Chaldean Catholic,AZ,"Scottsdale, ",85254
Churches & Places of Worship,(480) 857-6800,2725 S Alma School Rd Ste 1,Family Bible Church,AZ,"Chandler, ",85286
Churches & Places of Worship,(602) 224-0434,2617 E Campbell Ave,Crosier Community,AZ,"Phoenix, ",85016
Churches & Places of Worship,(480) 686-9360,1040 S Gilbert Rd Ste 201,Evident Life Church,AZ,"Gilbert, ",85296
Churches & Places of Worship,(480) 963-3329,3225 S Lindsay Rd Ste 101,Desert Cross Luth Church Gilbert,AZ,"Gilbert, ",85297
Churches & Places of Worship,(602) 232-2300,4155 S 7th Ave,Church At South Mountain,AZ,"Phoenix, ",85041
Churches & Places of Worship,(602) 290-0189,PO Box 97895,The Potter's House Eastside Christian Center,AZ,"Phoenix, ",85060
Churches & Places of Worship,(480) 998-3843,10815 N 84th St,St Patricks Catholic Cmnty Chr,AZ,"Scottsdale, ",85260
Churches & Places of Worship,(602) 254-0976,114 W Roosevelt St,Episcopal Bishop's Office,AZ,"Phoenix, ",85003
Churches & Places of Worship,(480) 545-5495,1644 S Lindsay Rd,Discovery Community Church,AZ,"Gilbert, ",85295
Churches & Places of Worship,(602) 253-9739,2602 N 17th St,Resurrection Ev Lutheran Chr,AZ,"Phoenix, ",85006
Churches & Places of Worship,(602) 279-2369,1601 W Indian School Rd,Asbury United Methodist Church,AZ,"Phoenix, ",85015
Churches & Places of Worship,(602) 908-5539,4331 N. Central Ave.,New City Church - Phoenix,AZ,"Phoenix, ",85012
,,,,,,
Churches & Places of Worship,(602) 253-4094,527 W Pima St,Saint Paul's Sudanese Episcopal,AZ,"Phoenix, ",85003
Churches & Places of Worship,(602) 248-0807,37 E Indian School Rd,Central Presbyterian Church,AZ,"Phoenix, ",85012
Churches & Places of Worship,(602) 265-7130,3040 N 7th Ave,Good Shepherd Lutheran Church,AZ,"Phoenix, ",85013
Churches & Places of Worship,(602) 944-1508,7321 N 10th St,Orangewood Presbyterian Church,AZ,"Phoenix, ",85020
Churches & Places of Worship,(602) 268-1133,915 E Desert Dr,Full Gospel Hse Prayer,AZ,"Phoenix, ",85042
Churches & Places of Worship,(602) 368-4363,2038 W Van Buren St,Saint Matthew Catholic Church Cftr,AZ,"Phoenix, ",85009
Churches & Places of Worship,(602) 266-7118,1732 W Mitchell Dr,St Gregory's Ofc-Religious Education,AZ,"Phoenix, ",85015
Churches & Places of Worship,(602) 264-4339,4002 N 18th Ave,Light & Life Free Methodist,AZ,"Phoenix, ",85015
Churches & Places of Worship,(480) 807-4558,2549 N 32nd St,Church of Jesus Christ of Latter-Day Saints,AZ,"Mesa, ",85213
Churches & Places of Worship,(480) 830-9553,1550 N Val Vista Dr,Church of Jesus Christ of Latter-Day Saints,AZ,"Mesa, ",85213
Churches & Places of Worship,(480) 214-0231,3344 E McDowell Rd,Church Of Jesus Christ Of Latter Day Saints,AZ,"Mesa, ",85213
Churches & Places of Worship,(480) 214-9002,3920 E Brown Rd,Church of Jesus Christ of Latter-Day Saints,AZ,"Mesa, ",85205
Churches & Places of Worship,(480) 926-9965,230 N Val Vista Dr,Church Of Jesus Christ Of Latter Day Saints,AZ,"Gilbert, ",85234
Churches & Places of Worship,(480) 792-0321,619 E Ray Rd,Kingdom Hall-Jehovahs Witness,AZ,"Gilbert, ",85296
Churches & Places of Worship,(480) 214-0204,650 S Cooper Rd,Church of Jesus Christ of Latter-Day Saints,AZ,"Chandler, ",85225
Churches & Places of Worship,(480) 895-0317,7050 S Brett St,Church of Jesus Christ of LDS,AZ,"Gilbert, ",85298
Churches & Places of Worship,(480) 832-1918,4640 E Holmes Ave,Church Of Jesus Christ Of Latter Day Saints,AZ,"Mesa, ",85206
Churches & Places of Worship,(480) 963-4149,1155 E Ray Rd,Church Of Jesus Christ Of Latter Day Saints,AZ,"Gilbert, ",85296
Churches & Places of Worship,(480) 854-1351,1249 S 48th St,Church of Jesus Christ of Latter-Day Saints,AZ,"Mesa, ",85206
Churches & Places of Worship,(480) 503-2986,10236 S Greenfield Rd,Church Of Jesus Christ Of Latter Day Saints,AZ,"Gilbert, ",85234
Churches & Places of Worship,(480) 830-1074,5013 E Broadway Rd,Community Church-New Thought,AZ,"Mesa, ",85206
Churches & Places of Worship,(480) 812-0272,2625 E Pecos Rd,Church of Jesus Christ of Latter-Day Saints,AZ,"Chandler, ",85225
Churches & Places of Worship,(480) 782-5185,2740 S Lindsay Rd,Church of Jesus Christ of Latter-Day Saints,AZ,"Gilbert, ",85295
Churches & Places of Worship,(480) 924-8560,5350 E McLellan Rd,Church of Jesus Christ of Latter-Day Saints,AZ,"Mesa, ",85205
Churches & Places of Worship,(480) 926-1550,3263 E Guadalupe Rd,Morning Star Apostolic Church,AZ,"Gilbert, ",85234
Churches & Places of Worship,(480) 214-0206,3572 E Guadalupe Rd,Church Of Jesus Christ Of Latter Day Saints,AZ,"Gilbert, ",85234
Churches & Places of Worship,(480) 895-0289,200 W Appleby Rd,Church Of Jesus Christ Of Latter Day Saints,AZ,"Chandler, ",85248
Churches & Places of Worship,(480) 988-9174,2982 S Recker Rd,Church Of Jesus Christ Of Latter Day Saints,AZ,"Gilbert, ",85234
Churches & Places of Worship,(480) 279-1575,1010 N Recker Rd,Church of Jesus Christ of Latter-Day Saints,AZ,"Gilbert, ",85234
Churches & Places of Worship,(480) 892-3489,4629 E Guadalupe Rd,Church Of Jesus Christ Of Latter Day Saints,AZ,"Gilbert, ",85234
,,,,,,
Churches & Places of Worship,(602) 253-7487,1537 W Buckeye Rd,Emmanuel Church God In Christ,AZ,"Phoenix, ",85007
Churches & Places of Worship,(602) 258-1998,1141 E Jefferson St,First Institutional Baptist,AZ,"Phoenix, ",85034
Churches & Places of Worship,(480) 991-3009,8202 E Cactus Rd,Assumption Greek Orthodox Chr,AZ,"Scottsdale, ",85260
Churches & Places of Worship,(480) 961-1610,16223 S 48th St,St Benedict Catholic Church,AZ,"Phoenix, ",85048
Churches & Places of Worship,(480) 451-4565,12001 E Shea Blvd,Congreational Church Of Valley,AZ,"Scottsdale, ",85259
Churches & Places of Worship,(480) 963-2041,72 E Saragosa St,Salvation Army,AZ,"Chandler, ",85225
Churches & Places of Worship,(602) 996-7900,3444 N 19th Ave,Spirit Of Life Church,AZ,"Phoenix, ",85015
Churches & Places of Worship,(602) 762-1975,1702 E Glendale Ave,Phoenix Friends Meeting-Quaker,AZ,"Phoenix, ",85020
Churches & Places of Worship,(480) 857-3997,1150 S Dobson Rd,Tempe Korean Presbyterian Church,AZ,"Chandler, ",85286
Churches & Places of Worship,(480) 963-3821,1500 W Germann Rd,Chandler Presbyterian Church,AZ,"Chandler, ",85286
Churches & Places of Worship,(602) 468-3830,917 E Sheridan St,United Church Christ Sthwst,AZ,"Phoenix, ",85006
Churches & Places of Worship,(602) 265-9445,250 W Bethany Home Rd,Christian Science Second Church,AZ,"Phoenix, ",85013
Churches & Places of Worship,(480) 726-8000,1595 S Alma School Rd,Cornerstone Christian Fellowship,AZ,"Chandler, ",85286
Churches & Places of Worship,(480) 899-7255,1770 S Dobson Rd,Hope Covenant Church,AZ,"Chandler, ",85286
Churches & Places of Worship,(480) 899-4704,240 S Cooper Rd,Congregational Church-The Vly,AZ,"Chandler, ",85225
Churches & Places of Worship,(602) 268-1957,811 E Desert Ln,Jehovah's Witnesses,AZ,"Phoenix, ",85042
Churches & Places of Worship,(602) 943-0224,225 W Ocotillo Rd,Grace Asian Bible Church,AZ,"Phoenix, ",85013
Churches & Places of Worship,(480) 985-7655,1534 N Recker Rd,All Saints Catholic Church,AZ,"Mesa, ",85205
Churches & Places of Worship,(480) 981-2021,1244 S Power Rd,Holy Cross Catholic Church,AZ,"Mesa, ",85206
Churches & Places of Worship,(480) 813-0883,1255 N Greenfield Rd,Grace Covenant Church,AZ,"Gilbert, ",85234
Churches & Places of Worship,(602) 276-6751,6520 S Central Ave,Southern Baptist Temple,AZ,"Phoenix, ",85042
Churches & Places of Worship,(602) 254-1688,350 W Mohave St,Greater New Zion Baptist Church,AZ,"Phoenix, ",85003
Churches & Places of Worship,(602) 252-5344,1428 S 13th Ave,Saint John Institutional Baptist Church,AZ,"Phoenix, ",85007
Churches & Places of Worship,(602) 254-8292,1144 W Sherman St,New Home Baptist Church,AZ,"Phoenix, ",85007
Churches & Places of Worship,(602) 943-4437,7000 N Central Ave,First Baptist Church,AZ,"Phoenix, ",85020
Churches & Places of Worship,(602) 870-4353,110 W Glendale Ave,First Baptist,AZ,"Phoenix, ",85021
Churches & Places of Worship,(480) 855-3619,421 E Ray Rd,Heritage Lutheran Church,AZ,"Gilbert, ",85296
Churches & Places of Worship,(480) 830-5024,5946 E University Dr,Victory Lutheran Church,AZ,"Mesa, ",85205
Churches & Places of Worship,(480) 985-1660,6659 E University Dr,Church Of The Master Presbyterian,AZ,"Mesa, ",85205
Churches & Places of Worship,(480) 985-2131,7025 E Main St,Eternal Life Lutheran Church,AZ,"Mesa, ",85207
,,,,,,
Churches & Places of Worship,(480) 603-4980,2500 S Power Rd,Bridge Community Church,AZ,"Mesa, ",85209
Churches & Places of Worship,(480) 802-8356,800 W Chandler Heights Rd,Church of Jesus Christ of Latter-Day Saints,AZ,"Chandler, ",85248
Churches & Places of Worship,(602) 277-4491,777 W Montecito Ave,Seventh-day Adventist Church,AZ,"Phoenix, ",85013
Churches & Places of Worship,(480) 812-2736,3877 S Quartz St,Church Of Jesus Christ Of Latter Day Saints,AZ,"Gilbert, ",85297
Churches & Places of Worship,(602) 263-8492,2121 E Lincoln Dr,Lincoln Heights Christian Church,AZ,"Phoenix, ",85016
Churches & Places of Worship,(480) 899-4858,710 E Williams Field Rd,Southeast Valley Baptist Church,AZ,"Gilbert, ",85295
Churches & Places of Worship,(602) 276-0549,1050 E Baseline Rd,Riverside Missionary Baptist Church,AZ,"Phoenix, ",85042
Churches & Places of Worship,(602) 276-4240,8016 S 12th St,Baseline Missionary Baptist Church,AZ,"Phoenix, ",85042
Churches & Places of Worship,(602) 276-8914,1316 E Euclid Ave,South Mountain Baptist Church,AZ,"Phoenix, ",85042
Churches & Places of Worship,(602) 252-7289,2320 N 7th St,Bible Baptist Church,AZ,"Phoenix, ",85006
Churches & Places of Worship,(602) 956-2853,4515 N 16th St,Holy Ghost Baptist Chr-Miracles,AZ,"Phoenix, ",85016
Churches & Places of Worship,(602) 253-0219,901 W Buckeye Rd,Greater Shiloh Baptist Church,AZ,"Phoenix, ",85007
Churches & Places of Worship,(602) 268-4610,1330 W Southern Ave,Second New Salem Missionary,AZ,"Phoenix, ",85041
Churches & Places of Worship,(602) 276-7815,4922 S 15th Ave,Pleasant View Baptist Church,AZ,"Phoenix, ",85041
Churches & Places of Worship,(602) 274-7080,1333 W Osborn Rd,All Nations Baptist Church,AZ,"Phoenix, ",85013
Churches & Places of Worship,(602) 277-1720,6202 N 12th St,Madison Baptist Church,AZ,"Phoenix, ",85014
Churches & Places of Worship,(480) 507-0742,1159 N Greenfield Rd,Spirit of Joy Lutheran Church,AZ,"Gilbert, ",85234
Churches & Places of Worship,(480) 814-0384,1219 S Val Vista Dr,Apostolic Lutheran Church,AZ,"Gilbert, ",85296
Churches & Places of Worship,(480) 422-2499,4265 S Arizona Ave,Desert Palms Presbyterian Chr,AZ,"Chandler, ",85248
Churches & Places of Worship,(602) 955-7330,3539 E Stanford Dr,Gloria Dei Lutheran Church,AZ,"Paradise Valley, ",85253
Churches & Places of Worship,(602) 957-3223,4423 N 24th St,Evangelical Lutheran Chr-Grand,AZ,"Phoenix, ",85016
Churches & Places of Worship,(602) 258-3787,1124 N 3rd St,Grace Lutheran Church,AZ,"Phoenix, ",85004
Churches & Places of Worship,(602) 955-6080,3535 E Lincoln Dr,Palo Cristi Presbyterian Chr,AZ,"Paradise Valley, ",85253
Churches & Places of Worship,(480) 860-1677,9590 E Shea Blvd,Shepherd Of The Desert,AZ,"Scottsdale, ",85260
Churches & Places of Worship,(602) 996-4245,3839 E Shea Blvd,Emmanuel Presbyterian Church,AZ,"Phoenix, ",85028
Churches & Places of Worship,(480) 832-2111,5540 E Main St,Velda Rose United Methodist,AZ,"Mesa, ",85205
Churches & Places of Worship,(602) 268-9461,750 E Southern Ave,Wesley United Methodist Church,AZ,"Phoenix, ",85040
Churches & Places of Worship,(602) 840-8265,4455 E Lincoln Dr,Paradise Valley United Methodist,AZ,"Paradise Valley, ",85253
Churches & Places of Worship,(602) 954-9092,2242 E Campbell Ave,Albright United Methodist Church,AZ,"Phoenix, ",85016
Churches & Places of Worship,(602) 265-4155,4222 E Lincoln Dr,Valley View Bible Church,AZ,"Paradise Valley, ",85253
,,,,,,
Churches & Places of Worship,(480) 924-8958,6942 E Brown Rd,Church of Jesus Christ of Latter-Day Saints,AZ,"Mesa, ",85207
Churches & Places of Worship,(602) 254-3752,1102 N 10th St,Ukrainian Orthodox Church Saint,AZ,"Phoenix, ",85006
Churches & Places of Worship,(602) 266-0128,1316 E Cheery Lynn Rd,Church Of Jesus Christ Of Latter Day Saints,AZ,"Phoenix, ",85014
Churches & Places of Worship,(602) 258-5205,811 W Buckeye Rd,Grace Temple Chr-God In Christ,AZ,"Phoenix, ",85007
Churches & Places of Worship,(602) 253-4212,47 E Ashland Ave,Church of Jesus Christ of Latter-Day Saints,AZ,"Phoenix, ",85004
Churches & Places of Worship,(602) 258-3274,1402 S 11th Ave,House-Prayer Chr-God In Christ,AZ,"Phoenix, ",85007
Churches & Places of Worship,(602) 266-2199,1835 E Missouri Ave,Church of Jesus Christ of Latter-Day Saints,AZ,"Phoenix, ",85016
Churches & Places of Worship,(602) 265-7838,1751 E Maryland Ave,Parkway Community Church-God,AZ,"Phoenix, ",85016
Churches & Places of Worship,(480) 948-3315,6840 E Gold Dust Ave,Church Of Jesus Christ Of Latter Day Saints,AZ,"Paradise Valley, ",85253
Churches & Places of Worship,(602) 283-0703,3342 N 15th Ave,Church Of Jesus Christ Of Latter Day Saints,AZ,"Phoenix, ",85015
Churches & Places of Worship,(602) 265-7762,3102 N 18th Ave,Church of Jesus Christ of Latter-Day Saints,AZ,"Phoenix, ",85015
Churches & Places of Worship,(602) 944-1477,7600 N 15th St,New Apostolic Church,AZ,"Phoenix, ",85020
Churches & Places of Worship,(602) 728-0699,1710 W Highland Ave,Phoenix All Tribes Assembly-Gd,AZ,"Phoenix, ",85015
Churches & Places of Worship,(602) 992-0824,9425 N 26th St,Paradise Hills Assmbly-God Chr,AZ,"Phoenix, ",85028
Churches & Places of Worship,(480) 786-4395,170 E Pony Ln,Desert Gateway Baptist Church,AZ,"Gilbert, ",85295
Churches & Places of Worship,(480) 324-0202,1424 N 61st Pl,Harmony Community Baptist Church,AZ,"Mesa, ",85205
Churches & Places of Worship,(480) 659-1381,1500 NW Jacaranda Pkwy,Light of Christ Lutheran Church,AZ,"Chandler, ",85248
Churches & Places of Worship,(480) 654-4539,5946 E University Dr,Lutheran Social Ministries,AZ,"Mesa, ",85205
Churches & Places of Worship,(480) 560-9067,351 W Aloe Pl,Upon This Rock Chirstian Churcch,AZ,"Chandler, ",85248
Churches & Places of Worship,(480) 821-1337,3249 S Lindsay Rd,Desert Cross Lutheran Church,AZ,"Gilbert, ",85297
Churches & Places of Worship,(602) 268-8689,6036 S 27th Ave,Schools Parochial,AZ,"Phoenix, ",85041
Churches & Places of Worship,(602) 996-4040,9849 N 40th St,Evangelical Sisterhood of Mary,AZ,"Phoenix, ",85028
Churches & Places of Worship,(480) 894-9854,700 S Evergreen St,Church of Jesus Christ of Latter-Day Saints,AZ,"Chandler, ",85225
Churches & Places of Worship,(480) 497-1600,234 N Greenfield Rd,Church of Jesus Christ of Latter-Day Saints,AZ,"Mesa, ",85205
Churches & Places of Worship,(480) 917-8950,240 S. Cooper Rd,Calvary Chapel Of Chandler,AZ,"Chandler, ",85225
Churches & Places of Worship,(480) 214-0082,495 N Greenfield Rd,Church of Jesus Christ of Latter-Day Saints,AZ,"Gilbert, ",85234
Churches & Places of Worship,(480) 840-3067,7361 S Constellation WAY,Church of Jesus Christ of Latter-Day Saints,AZ,"Gilbert, ",85298
Churches & Places of Worship,(480) 985-3148,6630 E University Dr,East University Church Of God,AZ,"Mesa, ",85205
Churches & Places of Worship,(480) 545-6138,4411 E Guadalupe Rd,Church of Jesus Christ of Latter-Day Saints,AZ,"Gilbert, ",85234
Churches & Places of Worship,(480) 279-5576,1865 S Higley Rd,Church of Jesus Christ of Latter-Day Saints,AZ,"Gilbert, ",85295
,,,,,,
Churches & Places of Worship,(480) 844-3657,2701 E Lehi Rd,Lehi Crossing,AZ,"Mesa, ",85213
Churches & Places of Worship,(602) 224-9525,2150 E Highland Ave,Ismaili Cultural Center,AZ,"Phoenix, ",85016
Churches & Places of Worship,(623) 492-0436,DEER Valley Congregation,Jehovah's Witnesses,AZ,"Phoenix, ",85001
Churches & Places of Worship,(480) 860-1065,9393 N 90th St,Christian Science Second Church,AZ,"Scottsdale, ",85258
Churches & Places of Worship,(480) 860-1065,10135 E Via Linda # C113,Christian Science Reading Room,AZ,"Scottsdale, ",85258
Churches & Places of Worship,(602) 246-7038,5235 N 19th Ave,Jehovah's Witnesses,AZ,"Phoenix, ",85015
Churches & Places of Worship,(480) 998-1085,8050 E Mountain View Rd,Mountain View Presbyterian,AZ,"Scottsdale, ",85258
Churches & Places of Worship,(602) 997-7397,400 E Monroe St,Roman Catholic Diocese,AZ,"Phoenix, ",85004
Churches & Places of Worship,(480) 998-0769,10180 N Hayden Rd,Christian Science Second Church-- Church,AZ,"Scottsdale, ",85258
Churches & Places of Worship,(480) 633-8871,1150 E Guadalupe Rd,Church Of Jesus Christ Of Latter Day Saints,AZ,"Gilbert, ",85234
Churches & Places of Worship,(602) 254-1374,963 E Monroe St,Iglesia De Dios Pentecostal Michigan,AZ,"Phoenix, ",85034
Churches & Places of Worship,(602) 252-1771,909 S 1st Ave,Saint Anthony Roman Catholic,AZ,"Phoenix, ",85003
Churches & Places of Worship,(480) 451-9591,12450 E Mountain View Rd,Jehovah's Witnesses,AZ,"Scottsdale, ",85259
Churches & Places of Worship,(602) 955-6370,3900 E Stanford Dr,Camelback Bible Church,AZ,"Paradise Valley, ",85253
Churches & Places of Worship,(480) 824-7200,7601 E Shea Blvd,Scottsdale Bible Church,AZ,"Scottsdale, ",85260
Churches & Places of Worship,(480) 447-1222,1015 N Recker Rd,Sun Valley Church of Christ,AZ,"Gilbert, ",85234
Churches & Places of Worship,(480) 812-3597,3680 S. Quartz Street,Hope Church,AZ,"Gilbert, ",85297
Churches & Places of Worship,(480) 283-8329,599 E Chandler Blvd,Lamb of God Lutheran Church,AZ,"Phoenix, ",85048
Churches & Places of Worship,(480) 832-3999,633 S Higley Rd,Church Of Jesus Christ Of Latter Day Saints,AZ,"Mesa, ",85206
Churches & Places of Worship,(480) 460-4454,15410 S 5th Ave,Jehovah's Witnesses,AZ,"Phoenix, ",85045
Churches & Places of Worship,(480) 832-3711,3810 E University Dr,Calvary Baptist Church,AZ,"Mesa, ",85205
Churches & Places of Worship,(480) 726-8000,2211 E Pecos Rd,Cornerstone Christian Fellowship -OFFICES,AZ,"Chandler, ",85225
Churches & Places of Worship,(602) 283-1046,650 E Southern Ave,Church of Jesus Christ of Latter-Day Saints,AZ,"Phoenix, ",85040
Churches & Places of Worship,(602) 242-0757,5100 N 18th Ave,Korean Phoenix Presbyterian,AZ,"Phoenix, ",85015
Churches & Places of Worship,(602) 253-4617,830 N Central Ave,First Church-Christ Scientist,AZ,"Phoenix, ",85004
Churches & Places of Worship,(602) 265-2831,1029 E Turney Ave,Cristo Aids Ministry,AZ,"Phoenix, ",85014
Churches & Places of Worship,(480) 759-3462,2955 E Frye Rd,Church Of Jesus Christ Of Latter Day Saints,AZ,"Phoenix, ",85048
Churches & Places of Worship,(602) 256-4531,4208 S Central Ave,Salvation Army,AZ,"Phoenix, ",85040
Churches & Places of Worship,(602) 765-8787,4633 E Shea Blvd,Robert Brooks Ministries,AZ,"Phoenix, ",85028
Churches & Places of Worship,(602) 595-7513,8838 S 2nd Ave,Fountain-Life House Of Wrshp,AZ,"Phoenix, ",85041
,,,,,,
Churches & Places of Worship,(602) 861-9778,8105 N 16th St,Eparchy Of Van Nuys,AZ,"Phoenix, ",85020
Churches & Places of Worship,(602) 943-5379,8141 N 16th St,St Stephen's Byzantine,AZ,"Phoenix, ",85020
Churches & Places of Worship,(602) 996-5120,11001 N 40th St,St Joseph's Catholic Church,AZ,"Phoenix, ",85028
Churches & Places of Worship,(480) 926-2244,1483 N Driftwood Dr,Church Of Jesus Christ Of Latter Day Saints,AZ,"Gilbert, ",85234
Churches & Places of Worship,(480) 985-2828,3345 E McLellan Rd,Church of Jesus Christ of LDS,AZ,"Mesa, ",85205
Churches & Places of Worship,(480) 497-4101,1380 E Guadalupe Rd,New Hope Community Church,AZ,"Gilbert, ",85234
Churches & Places of Worship,(480) 963-4352,1520 S Catalina St,Church of Jesus Christ of Latter-Day Saints,AZ,"Gilbert, ",85233
Churches & Places of Worship,(480) 892-4011,339 S Lindsay Rd,Victory Tabernacle Pentecostal,AZ,"Gilbert, ",85296
Churches & Places of Worship,(480) 892-5398,1201 E Elliot Rd,Church Of Jesus Christ Of Latter Day Saints,AZ,"Gilbert, ",85234
Churches & Places of Worship,(480) 924-4808,532 S Greenfield Rd,Church Of Jesus Christ Of Latter Day Saints,AZ,"Mesa, ",85206
Churches & Places of Worship,(480) 632-9170,1005 N Voyager Dr,Church Of Jesus Christ Of Latter Day Saints,AZ,"Gilbert, ",85234
Churches & Places of Worship,(480) 813-6737,2700 E Guadalupe Rd,Church Of Jesus Christ Of Latter Day Saints,AZ,"Gilbert, ",85234
Churches & Places of Worship,(480) 854-7952,3580 E Houston Ave,Church of Jesus Christ of Latter-Day Saints,AZ,"Gilbert, ",85234
Churches & Places of Worship,(480) 981-5980,5620 E Adobe Rd,Church Of Jesus Christ Of Latter Day Saints,AZ,"Mesa, ",85205
Churches & Places of Worship,(480) 641-3134,1450 N Recker Rd,Church Of Jesus Christ Of Latter Day Saints,AZ,"Mesa, ",85205
Churches & Places of Worship,(602) 254-5164,1152 E Monroe St,Open Door Church,AZ,"Phoenix, ",85034
Churches & Places of Worship,(602) 266-5983,1741 E Earll Dr,Jehovah's Witnesses,AZ,"Phoenix, ",85016
Churches & Places of Worship,(602) 262-9249,2604 N 14th St,First Church of God In Christ,AZ,"Phoenix, ",85006
Churches & Places of Worship,(602) 840-8210,4015 E Lincoln Dr,Christ Church School,AZ,"Paradise Valley, ",85253
Churches & Places of Worship,(602) 266-9240,1301 E Whitton Ave,Longview Community Church,AZ,"Phoenix, ",85014
Churches & Places of Worship,(602) 271-7015,48 E Ashland Ave,Church Of Jesus Christ Of Lds,AZ,"Phoenix, ",85004
Churches & Places of Worship,(480) 483-7729,7377 E Doubletree Ranch Rd,Presidential Prayer Team,AZ,"Scottsdale, ",85258
Churches & Places of Worship,(602) 278-6924,2925 W Polk St,Evangelical Church,AZ,"Phoenix, ",85009
Churches & Places of Worship,(602) 870-1103,1513 E Griswold Rd,Jehovah's Witnesses,AZ,"Phoenix, ",85020
Churches & Places of Worship,(602) 953-8160,3601 E Shea Blvd,Church of Jesus Christ of Latter-Day Saints,AZ,"Phoenix, ",85028
Churches & Places of Worship,(480) 414-4490,HIGLEY & Loop 202,Real Life Christian Church,AZ,"Phoenix, ",85001
Churches & Places of Worship,(602) 437-0260,4401 S 7th Pl,Willow Grove Baptist Church,AZ,"Phoenix, ",85040
Churches & Places of Worship,(480) 948-6050,7100 N Mockingbird Ln,Ascension Lutheran Church and Preschool,AZ,"Paradise Valley, ",85253
Churches & Places of Worship,(602) 254-0236,1645 E Yale St,Bible Missionary Church,AZ,"Phoenix, ",85006
Churches & Places of Worship,(602) 272-4784,1232 S 30th Ave,Christ Church,AZ,"Phoenix, ",85009
,,,,,,
Churches & Places of Worship,(602) 433-9741,2819 W Maryland Ave,Evening Light Fellowship,AZ,"Phoenix, ",85017
Churches & Places of Worship,(602) 997-8547,13444 N 32nd St # 24,Crossway Bible Church,AZ,"Phoenix, ",85032
Churches & Places of Worship,(602) 276-2466,3851 W Wier Ave # A,St Martin De Porres Church,AZ,"Phoenix, ",85041
Churches & Places of Worship,(602) 242-8381,5020 N 23rd Ave,Restoration Community Ministry,AZ,"Phoenix, ",85015
Churches & Places of Worship,(623) 934-1223,3901 W Dunlap Ave,Cross Connection International,AZ,"Phoenix, ",85051
Churches & Places of Worship,(602) 278-2007,3526 W Polk St,Kingdom Life Center Church,AZ,"Phoenix, ",85009
Churches & Places of Worship,(602) 272-8180,4049 W Osborn Rd,Church Of The Good Samaritan,AZ,"Phoenix, ",85019
Churches & Places of Worship,(480) 948-7704,13402 N Scottsdale Rd,Generation Ministries,AZ,"Scottsdale, ",85254
Churches & Places of Worship,(602) 996-1173,11025 N 34th St,Christian Life Fellowship,AZ,"Phoenix, ",85028
Churches & Places of Worship,(602) 973-9793,2942 W Camelback Rd,Iglesia Luterana Vida Nueva,AZ,"Phoenix, ",85017
Churches & Places of Worship,(602) 393-0760,2510 W Dunlap Ave # 440,I-Fortuity,AZ,"Phoenix, ",85021
"Churches & Places of Worship,Synagogues",(602) 278-0036,4142 W Clarendon Ave,Arizona Buddhist Temple,AZ,"Phoenix, ",85019
Churches & Places of Worship,(623) 247-8805,4138 N 31st Dr,June Gardens Misionary Bapt,AZ,"Phoenix, ",85017
Churches & Places of Worship,(602) 995-0395,2533 W Myrtle Ave,Berean Baptist Church,AZ,"Phoenix, ",85051
Churches & Places of Worship,(602) 252-4669,19 W Hatcher Rd,Iglesia Bautisa Central,AZ,"Phoenix, ",85021
Churches & Places of Worship,(602) 272-3530,3501 W Osborn Rd,Pavilion of Praise Church,AZ,"Phoenix, ",85019
Churches & Places of Worship,(602) 296-4678,1107 E Hatcher Rd,La Luz Del Mundo,AZ,"Phoenix, ",85020
Churches & Places of Worship,(480) 373-6852,7923 E 1st Ave,Church of God-7th Day,AZ,"Mesa, ",85208
Churches & Places of Worship,(602) 535-4705,3302 N 35th Ave,El Shaddai,AZ,"Phoenix, ",85017
Churches & Places of Worship,(602) 944-8643,9027 N 11th St,Gospel Hall,AZ,"Phoenix, ",85020
Churches & Places of Worship,(602) 864-0811,7200 N 19th Ave,Tree Of Life Christian Center,AZ,"Phoenix, ",85021
Churches & Places of Worship,(602) 867-3316,13625 N 32nd St,Genesis Church,AZ,"Phoenix, ",85032
"Churches & Places of Worship,Schools",(602) 973-4910,8055 N 39th Ave,Friends Church Of Phoenix,AZ,"Phoenix, ",85051
Churches & Places of Worship,(480) 354-1541,2265 S Hawes Rd,Ld S Church Meadows Ward,AZ,"Mesa, ",85209
Churches & Places of Worship,(602) 374-8484,9035 N. 8TH sT,SUNNYSLOPE APOSTOLIC CHURCH,AZ,"Phoenix, ",85020
Churches & Places of Worship,(602) 973-1783,4001 W. Camelback Rd.,Abiding In Christ Baptist Fellowship,AZ,"Phoenix, ",85019
Churches & Places of Worship,(602) 995-9484,4650 N 35th Ave,Along Side Ministries,AZ,"Phoenix, ",85017
Churches & Places of Worship,(602) 346-8700,3210 Grand Ave,Phoenix Dream Center,AZ,"Phoenix, ",85017
Churches & Places of Worship,(602) 305-9126,3845 W Sunland Ave,Iglesia De Cristo,AZ,"Phoenix, ",85041
Churches & Places of Worship,(602) 861-1609,9812 N 10th St,Baha'i Faith,AZ,"Phoenix, ",85020
,,,,,,
Churches & Places of Worship,(602) 246-9206,6750 N 7th Ave,First Christian Church,AZ,"Phoenix, ",85013
Churches & Places of Worship,(602) 712-0793,3002 N 27th Ave,Templo Maranatha,AZ,"Phoenix, ",85017
Churches & Places of Worship,(602) 707-5821,5757 N Central Ave,North Phoenix Baptist Church,AZ,"Phoenix, ",85012
Churches & Places of Worship,(602) 759-1954,4848 E Cactus Rd Ste 700,Harvest Bible Chapel,AZ,"Scottsdale, ",85254
Churches & Places of Worship,(480) 986-3149,1010 S Ellsworth Rd,Mesa Celebration Christian Center,AZ,"Mesa, ",85208
Churches & Places of Worship,(602) 237-3213,6418 S 39th Ave,New Age Community Church,AZ,"Phoenix, ",85041
Churches & Places of Worship,(602) 272-7389,3946 W McDowell Rd,Christian Life Church,AZ,"Phoenix, ",85009
Churches & Places of Worship,(602) 841-1790,5106 N 37th Ave,Living Water Fellowship,AZ,"Phoenix, ",85019
Churches & Places of Worship,(602) 242-4414,8301 N 19th Ave,Open Door Fellowship Church,AZ,"Phoenix, ",85021
Churches & Places of Worship,(480) 483-8777,6401 E Aster Dr,Logos Center,AZ,"Scottsdale, ",85254
Churches & Places of Worship,(602) 242-8644,5210 N 27th Ave,Love International Ministries,AZ,"Phoenix, ",85017
Churches & Places of Worship,(602) 995-3537,1906 W Orangewood Ave,Palms Gospel Chapel,AZ,"Phoenix, ",85021
Churches & Places of Worship,(480) 325-1096,7464 E Main St,Christ Church,AZ,"Mesa, ",85207
Churches & Places of Worship,(602) 242-1770,4545 N 27th Ave # 1316,Casa De Oracion,AZ,"Phoenix, ",85017
Churches & Places of Worship,(480) 664-1453,3391 E Vest Ave,The Pursuit Christian Fellowship,AZ,"Gilbert, ",85295
Churches & Places of Worship,(602) 266-7770,3875 N 28th Ave,Iglesia Palabra Miel,AZ,"Phoenix, ",85017
Churches & Places of Worship,(602) 278-6086,3150 N 35th Ave,Casa Del Padre,AZ,"Phoenix, ",85017
"Churches & Places of Worship,Clergy",(602) 944-5309,234 E Alice Ave,Bullman Paul,AZ,"Phoenix, ",85020
Churches & Places of Worship,(602) 493-0140,234 E Alice Ave,Desert Mission Anglican Church,AZ,"Phoenix, ",85020
Churches & Places of Worship,(602) 278-0145,3618 W Osborn Rd,Forward In Faith Ministries,AZ,"Phoenix, ",85019
Churches & Places of Worship,(602) 242-4577,6201 N 35th Ave,Emmanual Temple Church,AZ,"Phoenix, ",85017
Churches & Places of Worship,(480) 835-5600,7520 E Main St,Compassion Christian Ctr,AZ,"Mesa, ",85207
Churches & Places of Worship,(602) 278-2478,3106 W Thomas Rd Ste 1118,Embassy World Worship Ctr,AZ,"Phoenix, ",85017
Churches & Places of Worship,(602) 944-6000,7126 N 7th Ave,Casa Santa Cruz,AZ,"Phoenix, ",85021
Churches & Places of Worship,(602) 278-2478,3602 W Thomas Rd,Embassy World Worship Center,AZ,"Phoenix, ",85019
Churches & Places of Worship,(602) 404-9757,12601 N Cave Creek Rd,Scott Hinkle Ministries,AZ,"Phoenix, ",85022
Churches & Places of Worship,(602) 992-2506,14034 N 32nd St,Paradise Mountain Christian,AZ,"Phoenix, ",85032
Churches & Places of Worship,(602) 761-2576,13439 N Cave Creek Rd,Phoenix First Assembly,AZ,"Phoenix, ",85022
Churches & Places of Worship,(602) 346-8708,3210 Grand Ave,Iglesia en la calle,AZ,"Phoenix, ",85017
Churches & Places of Worship,(602) 971-4966,13202 N 22nd St,Church In The Son,AZ,"Phoenix, ",85022
,,,,,,
Churches & Places of Worship,(480) 981-3993,590 N 96th St,Calvary Free Lutheran Church,AZ,"Mesa, ",85207
Churches & Places of Worship,(480) 984-1414,9601 E Brown Rd,Hosanna Lutheran Church,AZ,"Mesa, ",85207
Churches & Places of Worship,(480) 358-9851,10153 E Hampton Ave # 106,Mountain Vista Bible Church,AZ,"Mesa, ",85209
Churches & Places of Worship,(602) 944-3375,8620 N 7th St,Most Holy Trinity St Vincent,AZ,"Phoenix, ",85020
Churches & Places of Worship,(480) 354-1460,8701 E Brown Rd,Grace Church,AZ,"Mesa, ",85207
Churches & Places of Worship,(602) 944-5711,9840 N 15th St,International Healing Cathedrl,AZ,"Phoenix, ",85020
Churches & Places of Worship,(602) 971-6010,2727 E Cactus Rd,Paradise Valley SDA Church,AZ,"Phoenix, ",85032
Churches & Places of Worship,(602) 992-6922,14201 N 32nd St,Calvary Chapel,AZ,"Phoenix, ",85032
Churches & Places of Worship,(480) 380-6242,3065 S Ellsworth Rd,Desert Haven Community Church,AZ,"Mesa, ",85212
Churches & Places of Worship,(888) 731-4446,7830 E. University Drive,Good Shepherd Anglican Church,AZ,"Mesa, ",85207
Churches & Places of Worship,(480) 984-5644,8326 E McDowell Rd,Desert Hills Baptist Church,AZ,"Mesa, ",85207
Churches & Places of Worship,(480) 981-3833,2936 N Power Rd,Red Mountain United Methodist,AZ,"Mesa, ",85215
Churches & Places of Worship,(602) 992-1960,12835 N 32nd St,Cross In The Desert United,AZ,"Phoenix, ",85032
Churches & Places of Worship,(480) 357-2545,343 S 83rd Pl,New Life Spirit Filled Mnstrs,AZ,"Mesa, ",85208
Churches & Places of Worship,(602) 867-7117,13613 N Cave Creek Rd,Phoenix First Assembly Of God,AZ,"Phoenix, ",85022
Churches & Places of Worship,(602) 971-3151,2401 E Cactus Rd,Cactus Christian Fellowship,AZ,"Phoenix, ",85032
Churches & Places of Worship,(480) 986-0006,9390 E McLellan Rd,Boulder Mountain Christian Chr,AZ,"Mesa, ",85207
Churches & Places of Worship,(480) 948-3300,7410 E Sutton Dr,Thunderbird Adventist Academy,AZ,"Scottsdale, ",85260
Churches & Places of Worship,(602) 433-7878,5141 N 23rd Ave,Church Of God Of Prophecy,AZ,"Phoenix, ",85015
Churches & Places of Worship,(480) 443-8001,6002 E Voltaire Ave,Iverna Tompkins Ministries,AZ,"Scottsdale, ",85254
Churches & Places of Worship,(602) 269-1591,3948 W Thomas Rd,West Thomas Baptist Church,AZ,"Phoenix, ",85019
Churches & Places of Worship,(602) 230-0722,2909 W Indian School Rd,Life Connection Church,AZ,"Phoenix, ",85017
Churches & Places of Worship,(602) 278-9302,3043 N 33rd Dr,Promise Land Cmnty Christian,AZ,"Phoenix, ",85017
Churches & Places of Worship,(602) 973-6004,5033 N 38th Ave,Church Of Jesus Christ Of Latter Day Saints,AZ,"Phoenix, ",85019
Churches & Places of Worship,(602) 243-5220,614 E. Townley Avenue,Clear Light Buddhist Ctr,AZ,"Phoenix, ",85020
Churches & Places of Worship,(602) 246-0303,2411 W Northern Ave # 402,Arizona Southern Bapt Cnvntn,AZ,"Phoenix, ",85021
Churches & Places of Worship,(602) 242-1885,2940 W Bethany Home Rd,Sovereign Grace Bible Church,AZ,"Phoenix, ",85017
Churches & Places of Worship,(602) 995-8822,8030 N 27th Ave,Deseret Industries,AZ,"Phoenix, ",85051
Churches & Places of Worship,(602) 944-5309,234 E. Alice Ave.,Iglesia Cristiana Nuevo Amanecer,AZ,"Phoenix, ",85020
Churches & Places of Worship,(602) 272-9052,2522 N 35th Ave,35th Avenue Baptist Church,AZ,"Phoenix, ",85009
,,,,,,
Churches & Places of Worship,(480) 483-3154,7901 E Sweetwater Ave,Freedom Center,AZ,"Scottsdale, ",85260
Churches & Places of Worship,(602) 246-7140,2602 W Montebello Ave,Last Day Revival Center,AZ,"Phoenix, ",85017
Churches & Places of Worship,(480) 664-3681,7745 E Redfield Rd,Inspirational Unity Church,AZ,"Scottsdale, ",85260
Churches & Places of Worship,(602) 942-7140,4006 W Osborn Rd,Capilla Calvario Phoenix,AZ,"Phoenix, ",85019
Churches & Places of Worship,(602) 246-8555,1441 W Glendale Ave,Faith Assembly of God,AZ,"Phoenix, ",85021
Churches & Places of Worship,(480) 981-0802,7335 E Broadway Rd,Broadway Christian Church,AZ,"Mesa, ",85208
Churches & Places of Worship,(480) 659-7970,7575 E Redfield Rd Ste 101,Desert Valley Church,AZ,"Scottsdale, ",85260
Churches & Places of Worship,(602) 249-1936,1500 W Maryland Ave,Shepherd-The Valley Lutheran,AZ,"Phoenix, ",85015
Churches & Places of Worship,(602) 368-4780,1717 W Northern Ave,Arizona Baptist Children's Svc,AZ,"Phoenix, ",85021
Churches & Places of Worship,(602) 944-3306,8802 N 19th Ave,Royal Palms Baptist Church,AZ,"Phoenix, ",85021
Churches & Places of Worship,(480) 984-5555,612 S Ellsworth Rd,Our Saviour's Lutheran Church,AZ,"Mesa, ",85208
Churches & Places of Worship,(602) 973-9290,5702 N 35th Ave,Maryvale Baptist Church,AZ,"Phoenix, ",85017
Churches & Places of Worship,(602) 995-2983,3030 W Glendale Ave,Love Baptist Church,AZ,"Phoenix, ",85051
Churches & Places of Worship,(602) 943-3311,9424 N 7th Ave,Trinity Lutheran Church,AZ,"Phoenix, ",85021
Churches & Places of Worship,(602) 246-6400,3314 W Rose Ln,Korean New Life Presbyterian,AZ,"Phoenix, ",85017
Churches & Places of Worship,(602) 870-3638,8433 N 12th St,Church Of The Epiphany,AZ,"Phoenix, ",85020
Churches & Places of Worship,(602) 944-1524,7901 N Central Ave,Cross Roads United Methodist Church,AZ,"Phoenix, ",85020
Churches & Places of Worship,(602) 973-1276,3104 W Glendale Ave,Trinity United Methodist Church,AZ,"Phoenix, ",85051
Churches & Places of Worship,(602) 944-2275,1010 E Alice Ave,North Village Baptist Church,AZ,"Phoenix, ",85020
Churches & Places of Worship,(602) 494-6501,5334 E Thunderbird Rd,Faith Christian Community Church,AZ,"Scottsdale, ",85254
Churches & Places of Worship,(602) 861-4008,1445 W Northern Ave,Desert Christian Fellowship,AZ,"Phoenix, ",85021
Churches & Places of Worship,(602) 943-4780,10202 N Cave Creek Rd,North Mountain Baptist Church,AZ,"Phoenix, ",85020
Churches & Places of Worship,(602) 992-1980,3030 E Thunderbird Rd,St Mark Lutheran Church,AZ,"Phoenix, ",85032
Churches & Places of Worship,(602) 841-8507,7702 N 35th Ave,Bethany Presbyterian Church,AZ,"Phoenix, ",85051
Churches & Places of Worship,(602) 973-3398,3710 W Orangewood Ave,Orangewood Christian Reformed,AZ,"Phoenix, ",85051
Churches & Places of Worship,(602) 242-1300,6351 N 27th Ave,S S Simon & Jude Cathedral,AZ,"Phoenix, ",85017
Churches & Places of Worship,(602) 973-6475,3535 W Georgia Ave,Church Of Christ-Valley,AZ,"Phoenix, ",85019
Churches & Places of Worship,(602) 943-0941,11640 N 16th Pl,St Nikolas Serbian Church,AZ,"Phoenix, ",85020
Churches & Places of Worship,(602) 993-5780,1055 E Hearn Rd,Fountain Of Life Intl,AZ,"Phoenix, ",85022
Churches & Places of Worship,(480) 984-5080,752 S Ellsworth Rd,East Mesa Baptist Church,AZ,"Mesa, ",85208
,,,,,,
Churches & Places of Worship,(480) 988-6721,4979 S 156th St,Church Of Jesus Christ Of Latter Day Saints,AZ,"Gilbert, ",85298
Churches & Places of Worship,(480) 986-9069,2265 S Hawes Rd,Church of Jesus Christ of Latter-Day Saints,AZ,"Mesa, ",85209
Churches & Places of Worship,(480) 354-7219,3025 S Hawes Rd,Church Of Jesus Christ Of Latter Day Saints,AZ,"Mesa, ",85212
Churches & Places of Worship,(602) 996-4080,3535 E Cholla St,Jehovah's Witnesses,AZ,"Phoenix, ",85028
Churches & Places of Worship,(602) 257-8918,3210 Grand Ave,Church On The Street,AZ,"Phoenix, ",85017
Churches & Places of Worship,(602) 278-2372,500 N 40th Ave,Jehovah's Witnesses,AZ,"Phoenix, ",85009
Churches & Places of Worship,(602) 249-2210,5212 N 29th Ave,Fuente De Vida Abundante,AZ,"Phoenix, ",85017
Churches & Places of Worship,(602) 944-4549,8710 N 3rd Ave,Church of Jesus Christ of Latter-Day Saints,AZ,"Phoenix, ",85021
Churches & Places of Worship,(602) 995-0299,7510 N 27th Ave,Orangewood Nazarene Church,AZ,"Phoenix, ",85051
Churches & Places of Worship,(602) 971-0433,3010 E Thunderbird Rd,Church Of Jesus Christ Of Latter Day Saints,AZ,"Phoenix, ",85032
Churches & Places of Worship,(480) 396-8300,7440 E Main St Ste 4,Spirit of Hope Lutheran Church,AZ,"Mesa, ",85207
Churches & Places of Worship,(602) 971-2721,2501 E Cactus Rd,Church of the Holy Innocents,AZ,"Phoenix, ",85032
Churches & Places of Worship,(602) 249-6565,6565 N 19th Ave Apt 1,"Reconciliation Old Catholic Church, Chancery",AZ,"Phoenix, ",85015
Churches & Places of Worship,(602) 841-9191,5102 N 37th Ave,Phoenix Full Gospel Church,AZ,"Phoenix, ",85019
Churches & Places of Worship,(480) 986-2808,10050 E University Dr,Jehovah's Witnesses,AZ,"Mesa, ",85207
Churches & Places of Worship,(480) 306-5599,9153 E Vine Ave,Immanuel Care Home,AZ,"Mesa, ",85208
Churches & Places of Worship,(602) 272-7682,2526 N 36th Ave,Apostolic Assembly In The Faith of Jesus Christ,AZ,"Phoenix, ",85009
Churches & Places of Worship,(602) 246-4320,4426 N 31st Ave,Lynnhaven Community Church,AZ,"Phoenix, ",85017
Churches & Places of Worship,(480) 962-1527,933 E Brown St,Church of Jesus Christ of Latter-Day Saints,AZ,"Phoenix, ",85020
Churches & Places of Worship,(602) 944-7362,8704 N 7th Ave,Grace Mennonite Church,AZ,"Phoenix, ",85021
Churches & Places of Worship,(602) 997-8547,13444 N 32nd St Ste 17,Son Life Community Church,AZ,"Phoenix, ",85032
Churches & Places of Worship,(602) 841-1181,7310 N 27th Ave,Hosanna Evangelical,AZ,"Phoenix, ",85051
Churches & Places of Worship,(602) 996-6169,13419 N Cave Creek Rd,Phoenix First Assembly of God,AZ,"Phoenix, ",85022
Churches & Places of Worship,(602) 293-3309,3328 W Thomas Rd,Victory Community Church,AZ,"Phoenix, ",85017
Churches & Places of Worship,(480) 895-6531,24211 S McQueen Rd,McQueen Road Baptist Church,AZ,"Chandler, ",85249
Churches & Places of Worship,(602) 233-2592,1622 N 39th Ave,Antioch Missionary Baptist Church,AZ,"Phoenix, ",85009
Churches & Places of Worship,(602) 242-2569,2728 W Maryland Ave,Ambassador Heights Baptist Church,AZ,"Phoenix, ",85017
Churches & Places of Worship,(602) 992-8991,14034 N 32nd St,Paradise Valley Baptist Church,AZ,"Phoenix, ",85032
Churches & Places of Worship,(602) 995-0142,2632 W Augusta Ave,Mission Drive Baptist Church,AZ,"Phoenix, ",85051
Churches & Places of Worship,(602) 249-0003,7704 N 27th Ave,Romanian Baptist Church,AZ,"Phoenix, ",85051
,,,,,,
Churches & Places of Worship,(602) 304-0072,3921 W Baseline Rd,Crosswalk Lutheran Ministries,AZ,"Laveen, ",85339
Churches & Places of Worship,(602) 323-1440,9237 N 5th St,Morning Star Baptist Church,AZ,"Phoenix, ",85020
Churches & Places of Worship,(602) 944-0139,9227 N 10th Ave,St Vincent De Paul Society,AZ,"Phoenix, ",85021
Churches & Places of Worship,(602) 272-0382,3930 W McDowell Rd,Antioch Missionary Baptist Church,AZ,"Phoenix, ",85009
Churches & Places of Worship,(602) 272-2494,3035 W Thomas Rd,Betel Ministries Inc,AZ,"Phoenix, ",85017
Churches & Places of Worship,(602) 861-2634,8231 N 7th St,St Vincent De Paul Society,AZ,"Phoenix, ",85020
Churches & Places of Worship,(602) 680-7915,3001 W Indian School Rd,Gateway To Heaven Ministries,AZ,"Phoenix, ",85017
Churches & Places of Worship,(602) 943-3465,8640 N 19th Ave,Faith United Methodist Church,AZ,"Phoenix, ",85021
Churches & Places of Worship,(602) 237-0005,4125 W Baseline Rd,Church of Jesus Christ of Latter-Day Saints,AZ,"Laveen, ",85339
Churches & Places of Worship,(480) 661-9843,10755 N 124th St,St Bernard-Clairvaux Catholic,AZ,"Scottsdale, ",85259
Churches & Places of Worship,(602) 788-8090,2535 E Cactus Rd,Southwest Conservative Baptist,AZ,"Phoenix, ",85032
Churches & Places of Worship,(480) 451-0860,12990 E Shea Blvd,St Anthony On The Desert Chr,AZ,"Scottsdale, ",85259
Churches & Places of Worship,(480) 991-0720,6140 E Thunderbird Rd,Har Zion Congregation,AZ,"Scottsdale, ",85254
Churches & Places of Worship,(480) 963-3360,450 E Chandler Heights Rd,Chandler United Methodist Church,AZ,"Chandler, ",85249
Churches & Places of Worship,(480) 641-7275,111 N Sunvalley Blvd,Gethsemane Park Apostolic Church,AZ,"Mesa, ",85207
Churches & Places of Worship,(602) 997-1756,1535 E Mountain View Rd,Jehovah's Witnesses,AZ,"Phoenix, ",85020
Churches & Places of Worship,(480) 607-7152,7410 E Sutton Dr,Seventh-day Adventist Church,AZ,"Scottsdale, ",85260
Churches & Places of Worship,(602) 944-5858,336 E Dunlap Ave,Salvation Army Thrift Store,AZ,"Phoenix, ",85020
Churches & Places of Worship,(480) 807-4242,2160 N Power Rd,East Valley Free Will Baptist,AZ,"Mesa, ",85215
Churches & Places of Worship,(480) 986-6750,7930 E Baseline Rd,Light In The Desert Baptist Church,AZ,"Mesa, ",85209
Churches & Places of Worship,(602) 841-0773,2205 W Georgia Ave,First Indian Baptist Church,AZ,"Phoenix, ",85015
Churches & Places of Worship,(480) 895-6782,23914 S Alma School Rd,Risen Savior Lutheran Church,AZ,"Sun Lakes, ",85248
Churches & Places of Worship,(602) 795-7254,5202 N 22nd Ave,Christian Hope,AZ,"Phoenix, ",85015
Churches & Places of Worship,(480) 986-5262,9350 E Brown Rd,Mesa East Four Square Church,AZ,"Mesa, ",85207
Churches & Places of Worship,(602) 347-9267,3720 W Maryland Ave,Dormition Of The Mother Of God,AZ,"Phoenix, ",85019
Churches & Places of Worship,(480) 396-2337,1007 S 72nd St,Church of Jesus Christ of Latter-Day Saints,AZ,"Mesa, ",85208
Churches & Places of Worship,(480) 832-8438,7145 E Monterey Ave,Church Of Jesus Christ Of Latter Day Saints,AZ,"Mesa, ",85209
Churches & Places of Worship,(480) 833-3361,7126 E McKellips Rd,Church Of Jesus Christ Of Latter Day Saints,AZ,"Mesa, ",85207
Churches & Places of Worship,(480) 985-1335,7337 E Greenway St,Church Of Jesus Christ Of Latter Day Saints,AZ,"Mesa, ",85207
Churches & Places of Worship,(480) 988-2456,3544 S Atherton Blvd,Church of Jesus Christ of Latter-Day Saints,AZ,"Gilbert, ",85297
,,,,,,
Churches & Places of Worship,(480) 991-7729,14415 N Scottsdale Rd,Intimacy With Jesus Church,AZ,"Scottsdale, ",85254
Churches & Places of Worship,(602) 269-2839,2811 N 39th Ave,Betania Presbyterian Church,AZ,"Phoenix, ",85009
Churches & Places of Worship,(602) 997-7231,9317 N 2nd St,Sunnyslope Presbyterian Church,AZ,"Phoenix, ",85020
Churches & Places of Worship,(602) 995-0629,7310 N 27th Ave,Bethel Lutheran Church,AZ,"Phoenix, ",85051
Churches & Places of Worship,(602) 354-7540,6533 N 39th Ave,Episcopal Church Of Saint Mary,AZ,"Phoenix, ",85019
Churches & Places of Worship,(602) 995-3233,7145 N Black Canyon Hwy,Black Canyon Church of Christ,AZ,"Phoenix, ",85021
Churches & Places of Worship,(602) 244-8765,2533 W Myrtle Ave,Queen Of The Holy Rosary Church,AZ,"Phoenix, ",85051
Churches & Places of Worship,(602) 973-4553,3845 W Dunlap Ave,Desert Chapel Church of Christ,AZ,"Phoenix, ",85051
Churches & Places of Worship,(480) 981-0505,6655 E Preston St,Church Of Jesus Christ Of Latter Day Saints,AZ,"Mesa, ",85215
Churches & Places of Worship,(480) 354-1645,7752 E McDowell Rd,Church Of Jesus Christ Of Latter Day Saints,AZ,"Mesa, ",85207
Churches & Places of Worship,(602) 272-4133,2315 N 35th Ave,Rehoboth Community Dev Corp,AZ,"Phoenix, ",85009
Churches & Places of Worship,(602) 246-4320,4426 N 31st Ave,Church Of God Of Prophecy,AZ,"Phoenix, ",85017
Churches & Places of Worship,(602) 841-6514,2948 W Colter St,Jehovah's Witnesses,AZ,"Phoenix, ",85017
Churches & Places of Worship,(602) 943-2539,1822 W Vogel Ave,Hungarian Reform Church,AZ,"Phoenix, ",85021
Churches & Places of Worship,(602) 973-0856,8602 N 31st Ave,Church of Jesus Christ of Latter-Day Saints,AZ,"Phoenix, ",85051
Churches & Places of Worship,(602) 944-5309,234 E Alice Ave,Grace Evangelical Methodist Church,AZ,"Phoenix, ",85020
Churches & Places of Worship,(602) 242-1265,2019 W Lawrence Rd,New Generation Christian,AZ,"Phoenix, ",85015
Churches & Places of Worship,(602) 495-5229,301 W Hatcher Rd,Salvation Army,AZ,"Phoenix, ",85021
Churches & Places of Worship,(602) 944-0875,1612 W Northern Ave,First Mennonite Church,AZ,"Phoenix, ",85021
Churches & Places of Worship,(602) 944-8489,9511 N 16th Ave,New Hope Family Church,AZ,"Phoenix, ",85021
Churches & Places of Worship,(602) 995-5454,8501 N Black Canyon Hwy,Freeway Baptist Church,AZ,"Phoenix, ",85021
Churches & Places of Worship,(623) 931-7511,4002 W Orangewood Ave,Arizona Korean Full Gospel Church,AZ,"Phoenix, ",85051
Churches & Places of Worship,(480) 451-8865,9565 E Larkspur Dr,Church Of Jesus Christ Of Latter Day Saints,AZ,"Scottsdale, ",85260
Churches & Places of Worship,(480) 991-6777,13405 N Scottsdale Rd,Arizona Conference-Seventh Day,AZ,"Scottsdale, ",85254
Churches & Places of Worship,(480) 483-8783,7901 E Sweetwater Ave,Hope Community Church,AZ,"Scottsdale, ",85260
Churches & Places of Worship,(602) 246-3951,6702 N 27th Ave,Murph Community African Methodist Episcopal,AZ,"Phoenix, ",85017
Churches-Christian,(480) 272-5321,7301 E Baseline Rd,Victory's Vision Christian Church,AZ,"Mesa, ",85209
,,,,,,
