category,phone,streetAddress,name,addressState,addressCity,addressZip
Insurance,(785) 234-3800,2220 SE 29th St,Becker Lassen Insurance Agency,KS,"Topeka, ",66605
"Insurance,Auto Insurance",(866) 276-1219,,State Farm,,,
Insurance,(785) 233-2277,2153 SE California Ave,Allen Insurance Associates Inc,KS,"Topeka, ",66605
Insurance,(877) 899-7483,,Progressive Insurance,,,
"Insurance,Auto Insurance",(877) 832-0334,,Discount Insurance Quotes,,,
"Insurance,Auto Insurance",(888) 494-5280,,Discount Insurance Quotes,,,
"Insurance,Auto Insurance",(855) 291-0255,,Discount Insurance Quotes,,,
Insurance,(785) 233-2277,2153 SE California Ave,Allen Insurance Associates Inc,KS,"Topeka, ",66605
Insurance,(785) 234-3800,2220 SE 29th St,Becker Lassen Insurance Agency,KS,"Topeka, ",66605
"Insurance,Auto Insurance,Life Insurance",(785) 246-5369,5990 SW 28th St,Chip Munk - State Farm Insurance Agent,KS,"Topeka, ",66614
"Insurance,Auto Insurance,Life Insurance",(785) 246-5370,4228 SW 29th Ter,Lynette Hudson - State Farm Insurance Agent,KS,"Topeka, ",66614
Insurance,(785) 246-8749,5835 SW 29th St,Brier Payne Meade Insurance,KS,"Topeka, ",66614
Insurance,(785) 266-7666,2300 SW 29th St,Moulin Kathy A,KS,"Topeka, ",66611
Auto Insurance,(785) 273-0176,5942 SW 29th St,Capital Insurance Group,KS,"Topeka, ",66614
"Insurance,Auto Insurance",(785) 273-2009,1230 SW Harvey St,Paul Davault - State Farm Insurance Agent,KS,"Topeka, ",66604
"Insurance,Homeowners Insurance",(785) 267-5090,300 SW 33rd St,Sue Zientara - State Farm Insurance Agent,KS,"Topeka, ",66611
"Insurance,Property & Casualty Insurance",(785) 267-1428,2900 SE Kentucky Ave,Larry Shaffer - State Farm Insurance Agent,KS,"Topeka, ",66605
"Insurance,Homeowners Insurance",(785) 266-7254,1906 SE 29th St,Todd Shepard - State Farm Insurance Agent,KS,"Topeka, ",66605
"Insurance,Homeowners Insurance",(785) 267-5613,1615 SW 37th St,Jamie Hornbaker - State Farm Insurance Agent,KS,"Topeka, ",66611
"Insurance,Auto Insurance",(785) 271-2400,3625 SW 29th St,Rick Tramp - State Farm Insurance Agent,KS,"Topeka, ",66614
"Insurance,Auto Insurance",(785) 273-0670,4228 SW 29th Ter,Lynette Hudson - State Farm Insurance Agent,KS,"Topeka, ",66614
"Insurance,Homeowners Insurance",(785) 272-2700,1309 SW 6th Ave,Joe Gutierrez - State Farm Insurance Agent,KS,"Topeka, ",66606
"Insurance,Homeowners Insurance",(785) 272-8331,1133 SW Gage Blvd,Joe Mayer - State Farm Insurance Agent,KS,"Topeka, ",66604
"Insurance,Property & Casualty Insurance",(785) 272-8400,5851 SW 29th St,Terry Mohwinkle - State Farm Insurance Agent,KS,"Topeka, ",66614
"Insurance,Homeowners Insurance",(785) 273-1572,5855 SW 29th St,"Ryan ""Mo"" Mohwinkle - State Farm Insurance Agent",KS,"Topeka, ",66614
"Insurance,Homeowners Insurance",(785) 272-8858,5990 SW 28th St,Chip Munk - State Farm Insurance Agent,KS,"Topeka, ",66614
"Insurance,Homeowners Insurance",(785) 272-0038,1100 SW Wanamaker Rd,David Hines - State Farm Insurance Agent,KS,"Topeka, ",66604
"Insurance,Homeowners Insurance",(785) 272-4820,1100 SW Wanamaker Rd,Bob Creager - State Farm Insurance Agent,KS,"Topeka, ",66604
"Insurance,Homeowners Insurance",(785) 232-0471,2712 NW Topeka Blvd,Gary Lucas - State Farm Insurance Agent,KS,"Topeka, ",66617
"Insurance,Auto Insurance",(785) 272-0332,6750 SW 29th St,Jim Garrison - State Farm Insurance Agent,KS,"Topeka, ",66614
"Insurance,Homeowners Insurance",(785) 272-5444,2025 SW Urish Rd,Judy Hafner - State Farm Insurance Agent,KS,"Topeka, ",66615
"Insurance,Auto Insurance",(785) 235-5633,2704 NW Topeka Blvd,Dennis Richter - State Farm Insurance Agent,KS,"Topeka, ",66617
"Insurance,Homeowners Insurance",(785) 246-8453,1200 S Kansas Ave,Dwight Calhoun - Farmers Insurance,KS,"Topeka, ",66612
"Insurance,Pension & Profit Sharing Plans",(785) 291-0200,2525 NW Topeka Blvd,Day Insurance Solutions LLC,KS,"Topeka, ",66617
"Insurance,Homeowners Insurance",(785) 246-8811,220 SW 33rd St Suite 100,Jarred White - Farmers Insurance,KS,"Topeka, ",66611
Insurance Consultants & Analysts,(785) 271-8097,1414 SW Ashworth Pl,Peoples Insurance & Benefit Group,KS,"Topeka, ",66604
"Insurance,Homeowners Insurance",(785) 246-8440,2708 NW Topeka Blvd,David Damme - Farmers Insurance,KS,"Topeka, ",66617
,(877) 331-8261,,,,,
,(888) 444-0603,,,,,
,(888) 431-3748,,,,,
,(877) 294-7187,,,,,
,(877) 889-9212,,,,,
,(888) 431-3748,,,,,
,(877) 826-2256,,,,,
,(866) 788-4408,,,,,
,(888) 221-3685,,,,,
,(877) 281-5725,,,,,
,(877) 294-7187,,,,,
,(785) 789-4709,422 N Juliette Ave,,KS,"Manhattan, ",66502
,(785) 364-3890,PO Box 388,,KS,"Holton, ",66436
,(785) 246-5369,5990 SW 28th St,,KS,"Topeka, ",66614
,(785) 246-5370,4228 SW 29th Ter,,KS,"Topeka, ",66614
,(785) 246-8749,5835 SW 29th St,,KS,"Topeka, ",66614
,(785) 266-7666,2300 SW 29th St,,KS,"Topeka, ",66611
,(785) 271-8097,1414 SW Ashworth Pl,,KS,"Topeka, ",66604
,(785) 291-0200,2525 NW Topeka Blvd,,KS,"Topeka, ",66617
,(785) 273-0176,5942 SW 29th St,,KS,"Topeka, ",66614
,(785) 246-8440,2708 NW Topeka Blvd,,KS,"Topeka, ",66617
,(785) 246-8453,1200 S Kansas Ave,,KS,"Topeka, ",66612
,(785) 246-8811,220 SW 33rd St Suite 100,,KS,"Topeka, ",66611
,(785) 272-4820,1100 SW Wanamaker Rd,,KS,"Topeka, ",66604
,(785) 272-8858,5990 SW 28th St,,KS,"Topeka, ",66614
,(785) 272-0038,1100 SW Wanamaker Rd,,KS,"Topeka, ",66604
,(785) 235-5633,2704 NW Topeka Blvd,,KS,"Topeka, ",66617
"Homeowners Insurance,Insurance",(888) 346-8634,,Insurancery,,,
"Renters Insurance,Insurance",(877) 579-2769,,Rate Kick,,,
"Insurance,Life Insurance",(866) 317-9328,,US Insurance Net,,,
"Motorcycle Insurance,Life Insurance",(888) 346-8577,,Insurancery,,,
Insurance,(888) 346-8581,,Insurancery,,,
Health Plans-Information & Referral...,(888) 583-4219,,iCan Benefit Group,,,
"Insurance,Property & Casualty Insurance",(866) 404-3546,,US Insurance Net,,,
"Dental Insurance,Insurance",(877) 379-3563,,Encore Dental,,,
Insurance,(888) 820-1956,,US Insurance Net,,,
"Homeowners Insurance,Insurance",(877) 814-2573,,US Insurance Net,,,
"Renters Insurance,Insurance",(888) 346-8628,,Insurancery,,,
"Auto Insurance,Motorcycle Insurance",(888) 760-3886,,Insurancery,,,
"Homeowners Insurance,Insurance",(888) 346-8174,,Insurancery,,,
Health Plans-Information & Referral...,(888) 346-8143,,Insurancery,,,
"Insurance,Property & Casualty Insurance",(888) 815-8846,,US Insurance Net,,,
Insurance,(888) 815-9032,,US Insurance Net,,,
Property & Casualty Insurance,(888) 815-8960,,US Insurance Net,,,
"Life Insurance,Motorcycle Insurance",(888) 816-0245,,US Insurance Net,,,
"Insurance,Auto Insurance",(888) 815-9018,,US Insurance Net,,,
"Life Insurance,Health Insurance",(888) 816-0138,,US Insurance Net,,,
"Motorcycle Insurance,Health Insurance",(888) 816-0145,,US Insurance Net,,,
"Insurance,Homeowners Insurance",(785) 528-4525,618 Market St,Jodi Lohmeyer-Stark - State Farm Insurance Agent,KS,"Osage City, ",66523
"Insurance,Auto Insurance",(785) 364-3890,515 Arizona Ave,Gus Suarez - State Farm Insurance Agent,KS,"Holton, ",66436
"Insurance,Auto Insurance",(888) 494-5280,,Discount Insurance Quotes,,,
Insurance,(785) 863-2261,,"Kansas Insurance, Inc.",KS,"Oskaloosa, ",66066
"Insurance,Truck Insurance,Auto Insurance",(785) 863-2261,,"Kansas Insurance, Inc.",KS,"Oskaloosa, ",66066
"Insurance,Auto Insurance",(866) 763-0251,,Discount Insurance Quotes,,,
"Homeowners Insurance,Health Insurance",(888) 815-8828,,Esurance,,,
"Insurance,Auto Insurance",(888) 542-4965,,21st Century Insurance,,,
"Auto Insurance,Insurance",(866) 446-3955,,Cheap Auto Insurance Quotes,,,
,(888) 444-0603,,,,,
,(888) 431-3748,,,,,
,(877) 294-7187,,,,,
,(877) 331-8261,,,,,
,,,,,,
"Insurance,Truck Insurance,Auto Insurance",(877) 774-5547,,Liberty Mutual,,,
"Insurance,Truck Insurance,Auto Insurance",(888) 844-0057,,Liberty Mutual,,,
"Insurance,Auto Insurance",(888) 450-3656,,Insuring Today,,,
"Auto Insurance,Insurance",(877) 866-0104,,Cheap Auto Insurance®,,,
"Life Insurance,Motorcycle Insurance",(877) 558-0536,,US Insurance Net,,,
"Insurance,Motorcycle Insurance",(877) 622-7228,,Motorcycle Insurance Pro,,,
"Insurance,Recreational Vehicle Insurance",(888) 839-6522,,RV Insurance Finder ©,,,
"Auto Insurance,Insurance",(888) 812-8697,,Allstate®,,,
"Auto Insurance,Insurance",(866) 403-0294,,21st Century,,,
"Homeowners Insurance,Insurance",(877) 815-8513,,MetLife,,,
Insurance,(866) 411-6811,,Cheap Auto Insurance Quotes,,,
Property & Casualty Insurance,(888) 807-1609,,Cheap Auto Insurance Quotes,,,
"Auto Insurance,Motorcycle Insurance",(877) 499-4774,,Cheap Auto Insurance Quotes,,,
"Insurance,Recreational Vehicle Insurance",(877) 220-5934,,Liberty Mutual,,,
Annuities & Retirement Insurance Plans,(888) 346-8536,,Insurancery,,,
"Auto Insurance,Insurance",(888) 346-8559,,Insurancery,,,
"Auto Insurance,Insurance",(888) 854-1062,,Cheap Auto Insurance Quotes,,,
"Insurance,Recreational Vehicle Insurance",(888) 850-6528,,Liberty Mutual,,,
Health Plans-Information & Referral...,(877) 204-9373,,Ready For My Quote,,,
"Motorcycle Insurance,Dental Insurance",(877) 202-8781,,MetLife,,,
"Life Insurance,Insurance",(888) 855-0113,,Ameri Quote,,,
"Truck Insurance,Insurance",(888) 287-8959,,Progressive Commercial Vehicle,,,
"Health Insurance,Insurance",(877) 261-1785,,Health Markets,,,
"Insurance,Health Insurance",(866) 389-4563,,US Insurance Net,,,
"Insurance,Life Insurance",(866) 402-7245,,US Insurance Net,,,
"Property & Casualty Insurance,Insurance",(855) 873-0572,,Ready For My Quote,,,
Insurance,(855) 880-5013,,Best Quotes,,,
"Property & Casualty Insurance,Insurance",(888) 760-3869,,Insurancery,,,
"Life Insurance,Insurance",(888) 346-8330,,Insurancery,,,
"Fire Insurance,Insurance",(888) 760-3889,,Insurancery,,,
,(888) 444-0603,,,,,
,(877) 294-7187,,,,,
,(877) 331-8261,,,,,
,(888) 431-3748,,,,,
,,,,,,
"Financial Services,Homeowners Insurance",(785) 380-8251,1920 SW Westport Dr Ste 102,American Family Insurance - Roger Hood Agency Inc.,KS,"Topeka, ",66604
"Financial Services,Homeowners Insurance",(785) 260-6858,2655 SW Wanamaker Rd,American Family Insurance - Chanda Beers,KS,"Topeka, ",66614
"Financial Services,Homeowners Insurance",(785) 380-8315,6028 SW 29th St,American Family Insurance - Roger Smith Agency Inc.,KS,"Topeka, ",66614
"Financial Services,Homeowners Insurance",(785) 380-8261,110 NE Lyman Rd,American Family Insurance - Jeremy Snowden,KS,"Topeka, ",66608
"Financial Services,Homeowners Insurance",(785) 380-8285,201 NW US Highway 24 Ste 170,American Family Insurance - Douglas Cafer Agency Inc.,KS,"Topeka, ",66608
Attorneys,(785) 379-3891,3601 SW 29th St,"Taff Frank D, Attorney At Law",KS,"Topeka, ",66614
Criminal Law Attorneys,(785) 440-4000,2942 -A SW Wanamaker Dr,Cavanaugh & Lemon PA,KS,"Topeka, ",66614
"Insurance,Auto Insurance",(866) 276-1219,,State Farm,,,
Insurance,(877) 899-7483,,Progressive Insurance,,,
"Insurance,Auto Insurance",(888) 444-0603,,American Family Insurance,,,
"Insurance,Auto Insurance",(877) 294-7187,,GEICO,,,
"Insurance,Property & Casualty Insurance",(888) 431-3748,,Allstate Insurance Company,,,
"Auto Insurance,Investment Management",(877) 889-9212,,COUNTRY Financial,,,
Insurance,(866) 788-4408,,The General Insurance,,,
"Auto Insurance,Insurance",(877) 281-5725,,Nationwide Insurance,,,
"Insurance,Auto Insurance",(785) 364-3890,PO Box 388,Gus Suarez-State Farm Insurance,KS,"Holton, ",66436
Health Plans-Information & Referral...,(785) 789-4709,,Holmes Insurance Agency,,,
"Auto Insurance,Insurance",(877) 826-2256,,Farmers Insurance,,,
"Insurance,Truck Insurance,Auto Insurance",(888) 221-3685,,Progressive Insurance,,,
"Insurance,Auto Insurance",(855) 291-0255,,Discount Insurance Quotes,,,
"Auto Insurance,Insurance",(888) 427-0542,,Esurance,,,
"Insurance,Auto Insurance",(877) 832-0334,,Discount Insurance Quotes,,,
"Motorcycle Insurance,Life Insurance",(877) 248-0512,,Liberty Mutual,,,
"Motorcycle Insurance,Insurance",(888) 309-5920,,Liberty Mutual,,,
"Motorcycle Insurance,Insurance",(888) 850-6560,,Liberty Mutual,,,
"Auto Insurance,Insurance",(866) 404-7305,,Auto Insurance Compare ©,,,
"Auto Insurance,Insurance",(877) 220-5911,,Liberty Mutual,,,
"Auto Insurance,Insurance",(888) 850-5017,,Liberty Mutual,,,
"Insurance,Auto Insurance",(877) 455-4189,,Insuring Today,,,
"Insurance,Auto Insurance",(888) 445-8127,,Insuring Tomorrow LLC,,,
,(888) 444-0603,,,,,
,(877) 331-8261,,,,,
,(888) 431-3748,,,,,
,(877) 294-7187,,,,,
,(888) 542-4965,,,,,
,(888) 812-8697,,,,,
,(888) 855-0113,,,,,
,(877) 866-0104,,,,,
,(888) 427-0542,,,,,
,(888) 346-8634,,,,,
,(888) 450-3656,,,,,
,(888) 445-8127,,,,,
,(877) 248-0512,,,,,
,(877) 204-9373,,,,,
,(888) 312-2581,,,,,
,,,,,,
,(855) 789-2855,300 Neosho St,,KS,"Burlington, ",66839
,(816) 666-9363,,,,,
,(855) 283-3891,122 N 6th St,,KS,"Osage City, ",66523
,(855) 283-4998,310 W Main St,,KS,"Highland, ",66035
,(877) 797-3514,114 W 4th Ave,,KS,"Garnett, ",66032
,(888) 408-0679,515 Arizona Ave,,KS,"Holton, ",66436
Insurance,(785) 272-0222,2900 SW Atwood Ave Ste A,"Roquet Insurance Agency, LLC",KS,"Topeka, ",66614
Insurance,(785) 266-7335,2820 SE 29th St,"Aasi Insurance, Inc.",KS,"Topeka, ",66605
Insurance,(888) 323-9602,,Progressive Insurance,KS,"Topeka, ",66615
Insurance,(785) 272-0222,2900 SW Atwood Ave,Roquet Insurance Agency,KS,"Topeka, ",66614
Insurance,(785) 273-4720,2910 SW Oakley Ave,Casey Ford Insurance Agency Inc,KS,"Topeka, ",66614
Insurance,(785) 267-0707,3706 SW Topeka Blvd Suite 411,"All Insurance Access, LLC",KS,"Topeka, ",66609
"Auto Insurance,Insurance",(785) 273-6100,3074 SW 29th St #5,Allstate Insurance Company - Patrick J Weissbeck,KS,"Topeka, ",66614
"Auto Insurance,Insurance",(785) 266-0519,2900 SE Kentucky Ave,"Allstate Insurance Company - Brian Green, Premier Agency",KS,"Topeka, ",66605
"Insurance,Truck Insurance,Auto Insurance",(785) 272-0222,2900 SW Atwood Ave Ste A,"Roquet Insurance Agency, LLC",KS,"Topeka, ",66614
"Auto Insurance,Insurance",(785) 271-5060,5967 SW 29th 220B,"Allstate Insurance Company - Brian Green, Premier Agency",KS,"Topeka, ",66614
"Insurance,Truck Insurance,Auto Insurance",(785) 266-7335,2820 SE 29th St,"Aasi Insurance, Inc.",KS,"Topeka, ",66605
"Insurance,Truck Insurance",(888) 323-9602,,Progressive Insurance,KS,"Topeka, ",66615
"Insurance,Flood Insurance",(785) 862-9500,3339 SE Adams St,ABK INSURANCE AGENCY INC,KS,"Topeka, ",66605
"Financial Planners,Mutual Funds",(785) 271-1570,5875 SW 29th St,Foster Financial,KS,"Topeka, ",66614
Financial Planners,(785) 272-5000,5835 SW 29th St Suite 201,Tucker Financial Services,KS,"Topeka, ",66614
Dental Hygienists,(785) 266-9100,1605 SE 29th St,East Topeka Dental,KS,"Topeka, ",66605
Insurance Consultants & Analysts,(785) 233-1816,PO Box 1676,Century Health Solutions Inc,KS,"Topeka, ",66601
"Escrow Service,Insurance,Title Companies",(785) 232-9349,901 NE River Rd,Kansas Secured Title and Abstract,KS,"Topeka, ",66616
"Financial Services,Homeowners Insurance",(785) 380-8292,2900 SW Topeka Blvd,American Family Insurance - Larry Shipman Agency Inc.,KS,"Topeka, ",66611
"Financial Services,Homeowners Insurance",(785) 380-8263,921 SW 37th St Ste B,American Family Insurance - Peter Bellucci Agency Inc.,KS,"Topeka, ",66611
"Financial Services,Homeowners Insurance",(785) 380-8252,2831 SW 29th St,American Family Insurance - Mashayla Mason-Hibler,KS,"Topeka, ",66614
"Financial Services,Homeowners Insurance",(785) 380-8298,3601 SW 29th St Ste 126,American Family Insurance - Robert Munoz,KS,"Topeka, ",66614
"Financial Services,Homeowners Insurance",(785) 380-8278,119 SW 6th Ave,American Family Insurance - Kelly Gerhardt,KS,"Topeka, ",66603
"Financial Services,Homeowners Insurance",(785) 380-8267,2816 SW Gage Blvd,American Family Insurance - R. L. Smith Agency Inc.,KS,"Topeka, ",66614
"Financial Services,Homeowners Insurance",(785) 380-8299,2816 SW Gage Blvd,American Family Insurance - Earl Mcintosh Agency Inc.,KS,"Topeka, ",66614
"Financial Services,Homeowners Insurance",(785) 380-8259,5123 SW 29th St Ste A,American Family Insurance - John Deutsch Agency Inc.,KS,"Topeka, ",66614
"Financial Services,Homeowners Insurance",(785) 380-8254,1025 SW Gage Blvd Ste A,American Family Insurance - Brad Noller,KS,"Topeka, ",66604
"Financial Services,Homeowners Insurance",(785) 380-8275,5304 SW 17th St,American Family Insurance - Larry Haas Agency Inc.,KS,"Topeka, ",66604
"Financial Services,Homeowners Insurance",(785) 380-8288,2930 SW Wanamaker Dr Ste 105,American Family Insurance - Dennis Ross Agency Inc.,KS,"Topeka, ",66614
"Financial Services,Homeowners Insurance",(785) 380-8266,2150 SW Westport Dr,American Family Insurance - Andrew Brunenn,KS,"Topeka, ",66614
,(888) 444-0603,,,,,
,(877) 331-8261,,,,,
,(888) 431-3748,,,,,
,(877) 294-7187,,,,,
,(785) 232-0471,2712 NW Topeka Blvd,,KS,"Topeka, ",66617
,(785) 364-3890,515 Arizona Ave,,KS,"Holton, ",66436
,(785) 267-5613,1615 SW 37th St,,KS,"Topeka, ",66611
,(785) 272-0332,6750 SW 29th St,,KS,"Topeka, ",66614
,(785) 528-4525,618 Market St,,KS,"Osage City, ",66523
,(785) 272-2700,1309 SW 6th Ave,,KS,"Topeka, ",66606
,(785) 272-8331,1133 SW Gage Blvd,,KS,"Topeka, ",66604
,(785) 272-5444,2025 SW Urish Rd,,KS,"Topeka, ",66615
,(785) 267-1428,2900 SE Kentucky Ave,,KS,"Topeka, ",66605
,(785) 273-0670,4228 SW 29th Ter,,KS,"Topeka, ",66614
,(785) 273-2009,1230 SW Harvey St,,KS,"Topeka, ",66604
,(785) 271-2400,3625 SW 29th St,,KS,"Topeka, ",66614
,(785) 273-1572,5855 SW 29th St,,KS,"Topeka, ",66614
,(785) 267-5090,300 SW 33rd St,,KS,"Topeka, ",66611
,(785) 272-8400,5851 SW 29th St,,KS,"Topeka, ",66614
,(785) 266-7254,1906 SE 29th St,,KS,"Topeka, ",66605
,(785) 272-0222,2900 SW Atwood Ave,,KS,"Topeka, ",66614
,(785) 267-0707,3706 SW Topeka Blvd Suite 411,,KS,"Topeka, ",66609
,(785) 273-4720,2910 SW Oakley Ave,,KS,"Topeka, ",66614
,(785) 266-7335,2820 SE 29th St,,KS,"Topeka, ",66605
,(785) 266-7335,2820 SE 29th St,,KS,"Topeka, ",66605
,(785) 863-2261,,,KS,"Oskaloosa, ",66066
,(785) 863-2261,,,KS,"Oskaloosa, ",66066
,(888) 323-9602,,,KS,"Topeka, ",66615
,(888) 323-9602,,,KS,"Topeka, ",66615
,(785) 272-0222,2900 SW Atwood Ave Ste A,,KS,"Topeka, ",66614
,(785) 272-0222,2900 SW Atwood Ave Ste A,,KS,"Topeka, ",66614
,(785) 266-0519,2900 SE Kentucky Ave,,KS,"Topeka, ",66605
,(785) 271-5060,5967 SW 29th 220B,,KS,"Topeka, ",66614
,(785) 273-6100,3074 SW 29th St #5,,KS,"Topeka, ",66614
Insurance,(785) 266-0519,2900 SE Kentucky Ave Ste B,Allstate Insurance - Brian Green,KS,"Topeka, ",66605
Insurance,(785) 233-5401,2047 SW Topeka Blvd,Integrity Insurance Agency Inc,KS,"Topeka, ",66612
"Insurance,Agriculture Insurance",(785) 861-1600,3740 SW Burlingame Rd,Gradient Insurance Brokerage Inc,KS,"Topeka, ",66609
Insurance,(785) 861-1600,3740 SW Burlingame Rd,Compton Anthony,KS,"Topeka, ",66609
"Homeowners Insurance,Life Insurance",(785) 271-8088,2709 SW 29th St,Farmers Insurance - Bob Newton,KS,"Topeka, ",66614
Insurance,(785) 291-7000,1133 SW Topeka Blvd,Nack John,KS,"Topeka, ",66629
"Homeowners Insurance,Life Insurance",(785) 272-4848,4209 SW 21st St,Farmers Insurance - Joyce Ebert,KS,"Topeka, ",66604
"Homeowners Insurance,Life Insurance",(785) 273-1187,1139 SW Gage Blvd,Farmers Insurance - Michael Mcnary,KS,"Topeka, ",66604
"Homeowners Insurance,Life Insurance",(785) 271-9725,5942 SW 29th St Ste A,Farmers Insurance - Craig Croswhite,KS,"Topeka, ",66614
"Insurance,Financial Services",(785) 273-8200,3745 SW Wanamaker Rd,Bankers Life & Casualty Co,KS,"Topeka, ",66610
Insurance,(785) 273-8200,3745 SW Wanamaker Rd Ste A,Martin Lawrence,KS,"Topeka, ",66610
"Homeowners Insurance,Life Insurance",(785) 267-5300,2850 SW Mission Woods Dr,Farmers Insurance - Jay Davis,KS,"Topeka, ",66614
Insurance,(785) 862-9500,3339 SE Adams St,Boyd Teri,KS,"Topeka, ",66605
"Insurance,Agriculture Insurance",(785) 267-1741,2900 SW Topeka Blvd,Larry Shipman Agency Inc,KS,"Topeka, ",66611
"Insurance,Agriculture Insurance",(785) 266-0519,2900 SE Kentucky Ave,Brian Green-Allstate Agent,KS,"Topeka, ",66605
"Insurance,Agriculture Insurance",(785) 266-5800,1720 SE 29th St,"Tew, David",KS,"Topeka, ",66605
Insurance,(785) 266-5800,1720 SE 29th St,Shelter Insurance,KS,"Topeka, ",66605
Insurance,(785) 267-5613,1615 SW 37th St,Allman William D,KS,"Topeka, ",66611
"Insurance,Agriculture Insurance",(785) 274-4300,1503 SW 42nd St,Capper's Reader Service,KS,"Topeka, ",66609
Insurance,(785) 274-4403,1503 SW 42nd St,Legualt Bob,KS,"Topeka, ",66609
"Insurance,Agriculture Insurance",(785) 233-2277,2153 SE California Ave,"Allen, Vance C",KS,"Topeka, ",66605
Insurance,(785) 354-1076,1435 SW Topeka Blvd,Scott Dan,KS,"Topeka, ",66612
Insurance,(785) 354-8452,1435 SW Topeka Blvd,Kansas Mutual Ins Co,KS,"Topeka, ",66612
"Insurance,Life Insurance,Auto Insurance",(785) 271-8088,2709 SW 29th St,Farmers Insurance - Bob Newton,KS,"Topeka, ",66614
Insurance,(785) 228-2889,2611 SW 21st St,Bernheimer George,KS,"Topeka, ",66604
Insurance,(785) 273-4720,3300 SW 29th St # 2,Casey Ford Insurance,KS,"Topeka, ",66614
"Insurance,Agriculture Insurance",(785) 232-2224,623 SW 10th Ave,Kammco,KS,"Topeka, ",66612
"Insurance,Medical Clinics",(785) 232-2224,623 SW 10th Ave,Kansas Medical Society,KS,"Topeka, ",66612
Insurance,(785) 232-2224,623 SW 10th Ave # 200,Moorhead Stacy,KS,"Topeka, ",66612
"Insurance,Financial Services",(785) 272-6400,3601 SW 29th St,American Family Insurance,KS,"Topeka, ",66614
,(877) 331-8261,,,,,
,(877) 294-7187,,,,,
,(888) 444-0603,,,,,
,(888) 431-3748,,,,,
,,,,,,
"Insurance,Auto Insurance",(888) 312-2581,,US Insurance Net,,,
"Insurance,Homeowners Insurance",(877) 345-1044,,US Insurance Net,,,
Insurance,(866) 268-3284,,Cheap Auto Insurance Quotes,,,
"Insurance,Insurance Medical Examinations",(877) 844-1592,,US Insurance Net,,,
"Auto Insurance,Insurance",(866) 276-1219,,State Farm,,,
"Insurance,Auto Insurance,Banks",(877) 331-8261,,State Farm,,,
"Auto Insurance,Insurance",(877) 229-9777,,GEICO,,,
"Motorcycle Insurance,Insurance",(877) 336-4405,,GEICO,,,
"Health Insurance,Dental Insurance",(800) 244-6224,,CIGNA,,,
"Auto Insurance,Insurance",(877) 229-9777,,GEICO,,,
"Insurance,Property & Casualty Insurance",(888) 667-5311,,Ready For My Quote,,,
"Renters Insurance,Insurance",(888) 667-7806,,Ready For My Quote,,,
"Financial Services,Homeowners Insurance",(785) 200-9216,301 Maple St,American Family Insurance - Glyn L. Day,KS,"Overbrook, ",66524
"Financial Services,Insurance",(785) 219-0080,313 Jefferson St,American Family Insurance - Linda Reiling,KS,"Oskaloosa, ",66066
"Financial Services,Homeowners Insurance",(785) 200-9207,114 S 6th St,American Family Insurance - Janet Figge,KS,"Saint Marys, ",66536
Health Insurance,(888) 413-0960,,SelectQuote Senior,,,
"Financial Services,Homeowners Insurance",(785) 522-4089,102 W 5th St,American Family Insurance - Les Gooderl,KS,"Holton, ",66436
"Abstracters,Insurance,Title Companies",(785) 828-3736,621 Topeka Ave,Peimann Title & Escrow Inc.,KS,"Lyndon, ",66451
Telephone Companies,(866) 336-5608,,Time Warner Cable Authorized Agent,,,
"Insurance,Truck Insurance",(888) 260-6493,,Progressive Insurance,,,
"Renters Insurance,Insurance",(888) 431-3748,,Allstate Insurance Company,,,
Title Companies,(800) 592-2323,,The Document Center Inc,,,
"Truck Insurance,Motorcycle Insurance",(888) 260-6493,,Progressive Insurance,,,
"Homeowners Insurance,Insurance",(888) 431-3748,,Allstate Insurance Company,,,
"Auto Insurance,Insurance",(866) 229-8160,,Acceptance Insurance,,,
"Surety & Fidelity Bonds,Skip Tracing",(800) 835-4931,,Anytime Bail Bonds,,,
"Insurance,Dental Insurance,Life Insurance",(785) 266-3142,4015 SW 21st St,Lollman Company Inc,KS,"Topeka, ",66604
"Insurance,Agriculture Insurance",(785) 273-3957,2655 SW Wanamaker Rd,Shelter Insurance,KS,"Topeka, ",66614
"Insurance,Auto Insurance",(888) 373-8694,,American Family Insurance,,,
"Auto Insurance,Insurance,Life Insurance",(888) 522-1887,,Allstate Insurance Company,,,
"Homeowners Insurance,Life Insurance",(785) 783-5888,1931 SW Gage Blvd Ste 2,Farmers Insurance - Timothy Trail,KS,"Topeka, ",66604
,(877) 294-7187,,,,,
,(888) 431-3748,,,,,
,(888) 444-0603,,,,,
,(877) 331-8261,,,,,
,,,,,,
Insurance,(785) 783-8500,3745 SW Wanamaker Rd Ste D,Risetter Jen,KS,"Topeka, ",66610
"Insurance,Agriculture Insurance",(785) 271-9611,6028 SW 29th St,Smith Roger,KS,"Topeka, ",66614
"Insurance,Agriculture Insurance",(785) 228-5200,1414 SW Ashworth Pl # 100,"Jagodzinske, Glenn R",KS,"Topeka, ",66604
Insurance,(785) 271-6034,2110 SW Brandywine Ln Ste 110,Shelter Insurance,KS,"Topeka, ",66614
Insurance,(785) 271-5091,2110 SW Brandywine Ln # 110,Jenkins Rodney,KS,"Topeka, ",66614
Insurance,(785) 271-4700,1251 SW Arrowhead Rd Ste C,Laws Judie,KS,"Topeka, ",66604
Insurance,(785) 233-0222,1223 SW Wanamaker Rd Ste 100,Longcore Dan,KS,"Topeka, ",66604
Insurance,(785) 272-3791,1129 SW Wanamaker Rd,Shelter Insurance,KS,"Topeka, ",66604
"Insurance,Financial Planning Consultants",(785) 368-1723,1 SW Security Benefit Pl,Security Benefit,KS,"Topeka, ",66606
"Insurance,Homeowners Insurance",(785) 232-5239,2201 NE Meriden Rd,Texas Farm Bureau Insurance,KS,"Topeka, ",66608
Insurance,(785) 232-5239,2201 NE Meriden Rd,Putnam Damon,KS,"Topeka, ",66608
Business & Commercial Insurance,(785) 234-0220,2708 NW Topeka Blvd,Shelter Insurance,KS,"Topeka, ",66617
"Insurance,Insurance Adjusters",(785) 266-3530,300 SE 29th St,Auto Acceptance Insurance Agency,KS,"Topeka, ",66605
"Insurance,Insurance Adjusters",(785) 266-3530,131 SE 29th St,Auto Acceptance Insurance,KS,"Topeka, ",66605
Insurance,(785) 266-3530,131 SE 29th St # A,Shugart Deanna,KS,"Topeka, ",66605
"Management Consultants,Insurance",(785) 783-7077,220 SW 33rd St,Aflac Regional Office,KS,"Topeka, ",66611
"Insurance,Agriculture Insurance",(785) 266-2708,3411 S Kansas Ave,National Farmers Union,KS,"Topeka, ",66611
"Insurance,Agriculture Insurance",(785) 266-2708,3411 S Kansas Ave,"Alcala, Arthur",KS,"Topeka, ",66611
"Insurance,Agriculture Insurance",(785) 266-1200,3311 SW Van Buren St,"Nyman, James C",KS,"Topeka, ",66611
Insurance,(785) 266-9160,3310 SW Harrison St,R W Evenson Inc,KS,"Topeka, ",66611
Insurance,(785) 266-2100,3320 SW Harrison St # 1,Treinen Todd,KS,"Topeka, ",66611
Insurance,(785) 266-2708,3401 SW Harrison St,National Farmers Union Ins,KS,"Topeka, ",66611
Insurance,(785) 266-2708,3401 SW Harrison St Ste 104,Alcala Arthur Ins,KS,"Topeka, ",66611
Insurance,(785) 267-1641,2900 SW Topeka Blvd,Whitaker Tom,KS,"Topeka, ",66611
Insurance,(785) 266-8805,2900 SE Kentucky Ave Ste B,Manrose Insurance Agency Inc,KS,"Topeka, ",66605
Insurance,(785) 266-7719,2925 SW Lane St,Hess Don,KS,"Topeka, ",66611
Insurance,(785) 266-7719,2925 SW Lane St,Hess Insurance Services,KS,"Topeka, ",66611
Insurance,(785) 233-2790,2348 SW Topeka Blvd,Willis North America,KS,"Topeka, ",66611
Insurance,(785) 233-2790,2348 SW Topeka Blvd,HRH Insurance,KS,"Topeka, ",66611
,(888) 431-3748,,,,,
,(877) 294-7187,,,,,
,(888) 444-0603,,,,,
,(877) 331-8261,,,,,
,,,,,,
"Insurance,Agriculture Insurance",(785) 234-3188,1255 SW Plass Ave,New York Life,KS,"Topeka, ",66604
"Insurance,Agriculture Insurance",(785) 357-5043,112 SW 6th Ave,New York Life,KS,"Topeka, ",66603
"Insurance,Investments,Financial Services",(785) 232-6945,555 S Kansas Ave,American Investors Life Insurance Co,KS,"Topeka, ",66603
Insurance,(785) 232-6945,555 S Kansas Ave,Heitz Mark V,KS,"Topeka, ",66603
Insurance,(785) 271-2002,2816 SW Gage Blvd,Smith Randall,KS,"Topeka, ",66614
Insurance,(785) 235-6276,400 S Kansas Ave,American Home Life Ins Co,KS,"Topeka, ",66603
Insurance,(785) 271-5091,1927 SW Gage Blvd,"Jenkins, Rodney M",KS,"Topeka, ",66604
Insurance,(785) 271-1780,1725 SW Gage Blvd # 1,Kuhn Bob A,KS,"Topeka, ",66604
"Insurance,Agriculture Insurance",(785) 228-0600,5123 SW 29th St,John L Deutsch Agency Inc,KS,"Topeka, ",66614
Insurance,(785) 271-5091,4037 SW 10th Ave,Shelter Insurance,KS,"Topeka, ",66604
Insurance,(785) 272-9600,3620 SW Fairlawn Rd,Shelter Insurance,KS,"Topeka, ",66614
Insurance,(785) 272-9600,3620 SW Fairlawn Rd Ste 205,Shafer Patti,KS,"Topeka, ",66614
"Insurance,Agriculture Insurance",(785) 272-0332,2116 SW Fairlawn Plaza Dr,"Garrison, Jim",KS,"Topeka, ",66614
Insurance,(785) 272-1472,1701 SW Fairlawn Rd,Shelter Insurance,KS,"Topeka, ",66604
Insurance,(785) 272-8400,5638 SW 29th St # B,Mohwinkle Terry,KS,"Topeka, ",66614
Insurance,(785) 234-3800,2220 SE 29th St,Becker Lassen Insurance Agency,KS,"Topeka, ",66605
Insurance,(785) 271-1216,5605 SW Barrington Ct S # 101,Biggs Jeff,KS,"Topeka, ",66614
"Insurance,Agriculture Insurance",(785) 273-1511,5304 SW 17th St,Larry Haas Agency Inc,KS,"Topeka, ",66604
Insurance,(785) 273-3568,5825 SW 29th St # 201,Boley Roy D,KS,"Topeka, ",66614
"Insurance,Agriculture Insurance",(785) 273-3568,5825 SW 29th St,Transamerica Life Insurance Co,KS,"Topeka, ",66614
Insurance,(785) 272-2132,5825 SW 29th St # 150,Fisher Steve,KS,"Topeka, ",66614
"Insurance,Agriculture Insurance",(785) 267-7311,5853 SW 29th St,Earl T McIntosh Agency Inc,KS,"Topeka, ",66614
"Insurance,Agriculture Insurance",(785) 273-1620,2930 SW Wanamaker Dr,Dennis Ross Agency Inc,KS,"Topeka, ",66614
"Insurance,Agriculture Insurance",(785) 273-2230,2150 SW Westport Dr,Chris Corbin Agency Inc,KS,"Topeka, ",66614
"Insurance,Agriculture Insurance",(785) 215-8767,5909 SW 28th St,"Mcginnis, Monte",KS,"Topeka, ",66614
"Insurance,Homeowners Insurance",(785) 266-9155,1920 SW Westport Dr Ste 102,American Family Insurance - Jeremy Stone,KS,"Topeka, ",66604
"Insurance,Financial Services",(785) 273-1622,1920 SW Westport Dr Ste 102,Roger D Hood Agency Inc,KS,"Topeka, ",66604
"Insurance,Agriculture Insurance",(785) 266-9155,1920 SW Westport Dr,American Family Insurance,KS,"Topeka, ",66604
Insurance,(785) 236-7251,5967 SW 29th St # 220B,Iqbal Morgan,KS,"Topeka, ",66614
"Insurance,Agriculture Insurance",(785) 271-5062,5967 SW 29th St # 220B,Brian Green Agency Inc,KS,"Topeka, ",66614
"Insurance,Auto Insurance",(866) 276-1219,,State Farm,,,
Insurance,(785) 233-2277,2153 SE California Ave,Allen Insurance Associates Inc,KS,"Topeka, ",66605
Insurance,(877) 899-7483,,Progressive Insurance,,,
"Insurance,Auto Insurance",(877) 832-0334,,Discount Insurance Quotes,,,
"Insurance,Auto Insurance",(888) 494-5280,,Discount Insurance Quotes,,,
"Insurance,Auto Insurance",(855) 291-0255,,Discount Insurance Quotes,,,
Insurance,(785) 233-2277,2153 SE California Ave,Allen Insurance Associates Inc,KS,"Topeka, ",66605
Insurance,(785) 234-3800,2220 SE 29th St,Becker Lassen Insurance Agency,KS,"Topeka, ",66605
"Insurance,Auto Insurance,Life Insurance",(785) 246-5369,5990 SW 28th St,Chip Munk - State Farm Insurance Agent,KS,"Topeka, ",66614
"Insurance,Auto Insurance,Life Insurance",(785) 246-5370,4228 SW 29th Ter,Lynette Hudson - State Farm Insurance Agent,KS,"Topeka, ",66614
Insurance,(785) 246-8749,5835 SW 29th St,Brier Payne Meade Insurance,KS,"Topeka, ",66614
Insurance,(785) 266-7666,2300 SW 29th St,Moulin Kathy A,KS,"Topeka, ",66611
Auto Insurance,(785) 273-0176,5942 SW 29th St,Capital Insurance Group,KS,"Topeka, ",66614
"Insurance,Auto Insurance",(785) 273-2009,1230 SW Harvey St,Paul Davault - State Farm Insurance Agent,KS,"Topeka, ",66604
Insurance,(785) 272-7181,2701 SW Wanamaker Rd,Meek Aaron,KS,"Topeka, ",66614
,(877) 331-8261,,,,,
,(877) 294-7187,,,,,
,(888) 444-0603,,,,,
,(888) 431-3748,,,,,
,,,,,,
"Insurance,Homeowners Insurance",(785) 267-5090,300 SW 33rd St,Sue Zientara - State Farm Insurance Agent,KS,"Topeka, ",66611
"Insurance,Property & Casualty Insurance",(785) 267-1428,2900 SE Kentucky Ave,Larry Shaffer - State Farm Insurance Agent,KS,"Topeka, ",66605
"Insurance,Homeowners Insurance",(785) 266-7254,1906 SE 29th St,Todd Shepard - State Farm Insurance Agent,KS,"Topeka, ",66605
"Insurance,Homeowners Insurance",(785) 267-5613,1615 SW 37th St,Jamie Hornbaker - State Farm Insurance Agent,KS,"Topeka, ",66611
"Insurance,Auto Insurance",(785) 271-2400,3625 SW 29th St,Rick Tramp - State Farm Insurance Agent,KS,"Topeka, ",66614
"Insurance,Auto Insurance",(785) 273-0670,4228 SW 29th Ter,Lynette Hudson - State Farm Insurance Agent,KS,"Topeka, ",66614
"Insurance,Homeowners Insurance",(785) 272-2700,1309 SW 6th Ave,Joe Gutierrez - State Farm Insurance Agent,KS,"Topeka, ",66606
"Insurance,Homeowners Insurance",(785) 272-8331,1133 SW Gage Blvd,Joe Mayer - State Farm Insurance Agent,KS,"Topeka, ",66604
"Insurance,Property & Casualty Insurance",(785) 272-8400,5851 SW 29th St,Terry Mohwinkle - State Farm Insurance Agent,KS,"Topeka, ",66614
"Insurance,Homeowners Insurance",(785) 273-1572,5855 SW 29th St,"Ryan ""Mo"" Mohwinkle - State Farm Insurance Agent",KS,"Topeka, ",66614
"Insurance,Homeowners Insurance",(785) 272-8858,5990 SW 28th St,Chip Munk - State Farm Insurance Agent,KS,"Topeka, ",66614
"Insurance,Homeowners Insurance",(785) 272-0038,1100 SW Wanamaker Rd,David Hines - State Farm Insurance Agent,KS,"Topeka, ",66604
"Insurance,Homeowners Insurance",(785) 272-4820,1100 SW Wanamaker Rd,Bob Creager - State Farm Insurance Agent,KS,"Topeka, ",66604
"Insurance,Homeowners Insurance",(785) 232-0471,2712 NW Topeka Blvd,Gary Lucas - State Farm Insurance Agent,KS,"Topeka, ",66617
"Insurance,Auto Insurance",(785) 272-0332,6750 SW 29th St,Jim Garrison - State Farm Insurance Agent,KS,"Topeka, ",66614
"Insurance,Homeowners Insurance",(785) 272-5444,2025 SW Urish Rd,Judy Hafner - State Farm Insurance Agent,KS,"Topeka, ",66615
"Insurance,Auto Insurance",(785) 235-5633,2704 NW Topeka Blvd,Dennis Richter - State Farm Insurance Agent,KS,"Topeka, ",66617
"Insurance,Homeowners Insurance",(785) 246-8453,1200 S Kansas Ave,Dwight Calhoun - Farmers Insurance,KS,"Topeka, ",66612
"Insurance,Pension & Profit Sharing Plans",(785) 291-0200,2525 NW Topeka Blvd,Day Insurance Solutions LLC,KS,"Topeka, ",66617
"Insurance,Homeowners Insurance",(785) 246-8811,220 SW 33rd St Suite 100,Jarred White - Farmers Insurance,KS,"Topeka, ",66611
Insurance Consultants & Analysts,(785) 271-8097,1414 SW Ashworth Pl,Peoples Insurance & Benefit Group,KS,"Topeka, ",66604
"Insurance,Homeowners Insurance",(785) 246-8440,2708 NW Topeka Blvd,David Damme - Farmers Insurance,KS,"Topeka, ",66617
,(888) 431-3748,,,,,
,(877) 294-7187,,,,,
,(888) 444-0603,,,,,
,(877) 331-8261,,,,,
,(877) 889-9212,,,,,
,(888) 431-3748,,,,,
,(877) 826-2256,,,,,
,(866) 788-4408,,,,,
,(888) 221-3685,,,,,
,(877) 281-5725,,,,,
,(877) 294-7187,,,,,
,(785) 789-4709,422 N Juliette Ave,,KS,"Manhattan, ",66502
,(785) 364-3890,PO Box 388,,KS,"Holton, ",66436
,(785) 246-5369,5990 SW 28th St,,KS,"Topeka, ",66614
,(785) 246-5370,4228 SW 29th Ter,,KS,"Topeka, ",66614
,(785) 246-8749,5835 SW 29th St,,KS,"Topeka, ",66614
,(785) 266-7666,2300 SW 29th St,,KS,"Topeka, ",66611
,(785) 271-8097,1414 SW Ashworth Pl,,KS,"Topeka, ",66604
,(785) 291-0200,2525 NW Topeka Blvd,,KS,"Topeka, ",66617
,(785) 273-0176,5942 SW 29th St,,KS,"Topeka, ",66614
,(785) 246-8440,2708 NW Topeka Blvd,,KS,"Topeka, ",66617
,(785) 246-8453,1200 S Kansas Ave,,KS,"Topeka, ",66612
,(785) 246-8811,220 SW 33rd St Suite 100,,KS,"Topeka, ",66611
,(785) 272-4820,1100 SW Wanamaker Rd,,KS,"Topeka, ",66604
,(785) 272-8858,5990 SW 28th St,,KS,"Topeka, ",66614
,(785) 272-0038,1100 SW Wanamaker Rd,,KS,"Topeka, ",66604
,(785) 235-5633,2704 NW Topeka Blvd,,KS,"Topeka, ",66617
"Insurance,Agriculture Insurance",(785) 232-0561,815 SW Topeka Blvd,Kansas Association Of Insurance Agents,KS,"Topeka, ",66612
"Insurance,Agriculture Insurance",(785) 266-9155,3615 SW 29th St,Smart Insurance Solutions,KS,"Topeka, ",66614
Insurance,(785) 357-1069,700 SW Jackson St # 200,Parrish James W,KS,"Topeka, ",66603
"Insurance,Agriculture Insurance",(785) 357-1069,700 SW Jackson St,Kworcc,KS,"Topeka, ",66603
"Financial Services,Insurance",(785) 232-2266,612 S Kansas Ave,Northwestern Mutual Financial Network,KS,"Topeka, ",66603
Insurance,(785) 235-5566,120 SE 6th Ave # 210,Miller Mike,KS,"Topeka, ",66603
"Insurance,Loans",(785) 232-6181,534 S Kansas Ave Ste 250,Mortgage Protection Insurance,KS,"Topeka, ",66603
Insurance,(785) 235-6277,400 S Kansas Ave Ste 100,Burkdoll Harold M Ins,KS,"Topeka, ",66603
Insurance,(785) 235-6277,400 S Kansas Ave Ste 100,Siebert Charles P,KS,"Topeka, ",66603
"Insurance,Financing Consultants",(785) 232-8774,1448 SW Oakley Ave,Lord James R,KS,"Topeka, ",66604
Insurance,(785) 267-6230,3918 SW Colly Creek Dr,Overbey Jos H Jr Ins,KS,"Topeka, ",66610
"Insurance,Financial Services",(785) 235-6269,1919 SW 10th Ave,Martell Financial Services,KS,"Topeka, ",66604
Insurance,(785) 783-8686,1911 SW Gage Blvd,Hueser Insurance Physical,KS,"Topeka, ",66604
"Insurance,Agriculture Insurance",(785) 266-3142,4015 SW 21st St,Mid-States Insurance Brokerage,KS,"Topeka, ",66604
Insurance,(785) 232-8100,3100 SW Huntoon St # 102,Spangler Rod,KS,"Topeka, ",66604
"Insurance,Financial Planners",(785) 232-8100,3100 SW Huntoon St Ste 102,American Fidelity Assurance,KS,"Topeka, ",66604
Insurance,(785) 234-2300,1240 SW Oakley Ave,Nordstrom Mark,KS,"Topeka, ",66604
"Insurance,Agriculture Insurance",(785) 266-4666,3701 SW Moundview Dr,Robert W Tew Insurance,KS,"Topeka, ",66610
Insurance,(785) 272-2700,1315 SW 6th Ave Ste C,Gutierrez Joe Ins,KS,"Topeka, ",66606
"Insurance,Auto Insurance",(785) 234-0511,608 SW Washburn Ave,Farmers Insurance,KS,"Topeka, ",66606
Insurance,(785) 234-0511,608 SW Washburn Ave,Lewis William Ins,KS,"Topeka, ",66606
Insurance,(785) 215-8909,3627 SE 29th St,Youse Brett,KS,"Topeka, ",66605
"Insurance,Auto Insurance",(785) 271-1006,1215 SW Gage Blvd Ste A,American Family Insurance,KS,"Topeka, ",66604
"Insurance,Financial Services",(785) 233-8155,400 NW Curtis St,Nau Country Insurance,KS,"Topeka, ",66608
Insurance,(785) 233-8155,400 NW Curtis St,Domer Jay,KS,"Topeka, ",66608
Insurance,(785) 233-8156,400 NW Curtis St,American Crop Insurance,KS,"Topeka, ",66608
Insurance,(785) 271-0371,5120 SW 28th St,Davis Donald,KS,"Topeka, ",66614
"Insurance,Agriculture Insurance",(785) 783-3024,1139 SW Gage Blvd,"Meyer, Andrew",KS,"Topeka, ",66604
Insurance,(785) 273-3331,1213 SW Hillsdale St,Wideman Sadie,KS,"Topeka, ",66604
"Insurance,Agriculture Insurance",(785) 273-3331,1213 SW Hillsdale St,Parker Haskins Insurance,KS,"Topeka, ",66604
,(888) 431-3748,,,,,
,(888) 444-0603,,,,,
,(877) 331-8261,,,,,
,(877) 294-7187,,,,,
,,,,,,
"Insurance,Agriculture Insurance",(785) 233-2790,2348 SW Topeka Blvd,Willis Of Greater Kansas Inc,KS,"Topeka, ",66611
Insurance,(785) 338-9640,900 SW 39th St,Census Bureau US,KS,"Topeka, ",66609
Insurance,(785) 233-5401,2047 SW Topeka Blvd # A,Madill Jan,KS,"Topeka, ",66612
"Insurance,Business Coaches & Consultants",(785) 215-8681,4403 SE Oakwood St,Insurance Consultants,KS,"Topeka, ",66609
Insurance,(785) 234-3800,2220 SE 29th St # A,Lassen Pamela,KS,"Topeka, ",66605
Insurance,(785) 357-1153,83 SW Pepper Tree Ln,Barbee & Associates,KS,"Topeka, ",66611
Insurance,(785) 357-1123,83 SW Pepper Tree Ln,Technical Profession Insurance Corp,KS,"Topeka, ",66611
Insurance,(785) 266-3142,2913 SW Plass Ct,Mid-States Insurance Brokerage,KS,"Topeka, ",66611
Insurance,(785) 266-3142,2913 SW Plass Ct,Lollman WM J Ins,KS,"Topeka, ",66611
Insurance,(785) 266-4540,2101 SW 36th St,Stubbs Janet,KS,"Topeka, ",66611
Insurance,(785) 266-7666,2300 SW 29th St,American National Insurance Company,KS,"Topeka, ",66611
Insurance,(785) 235-5554,2300 SW 29th St,Al Janosik Agency,KS,"Topeka, ",66611
Insurance,(785) 235-5554,2300 SW 29th St # 101,Janosik Bryan,KS,"Topeka, ",66611
Insurance,(785) 267-4840,3645 SW Burlingame Rd,Anderson Peck Agency,KS,"Topeka, ",66611
"Insurance,Agriculture Insurance",(785) 267-4840,3645 SW Burlingame Rd,"Peck, Edgar B",KS,"Topeka, ",66611
Insurance,(785) 783-2800,3645 SW Burlingame Rd,Servicefirst@anderson Peck,KS,"Topeka, ",66611
"Insurance,Auto Insurance",(785) 267-7311,3732 SW Burlingame Rd,American Family Insurance,KS,"Topeka, ",66609
"Insurance,Agriculture Insurance",(785) 232-6917,1012 SW 17th St,Federated Insurance Co,KS,"Topeka, ",66604
Insurance,(785) 271-5055,2715 SW 29th St,Bray Barry L CLU Charter Financial Consultants,KS,"Topeka, ",66614
Insurance,(785) 272-9100,3124 SW 29th St # 6,Storrer Richard C,KS,"Topeka, ",66614
"Insurance,Agriculture Insurance",(785) 272-9100,3124 SW 29th Ter,American National Insurance,KS,"Topeka, ",66614
"Insurance,Agriculture Insurance",(785) 272-5779,3221 SW 32nd St,Dietrich George G C L U,KS,"Topeka, ",66614
Business & Commercial Insurance,(785) 272-5779,3221 SW 32nd St,Northwestern Mutual Life Insurance,KS,"Topeka, ",66614
"Insurance,Agriculture Insurance",(785) 273-9804,1133 SW Topeka Blvd,Advance Insurance Co,KS,"Topeka, ",66629
Insurance,(785) 273-9804,1133 SW Topeka Blvd,Roselong Jennifer,KS,"Topeka, ",66629
"Insurance,Agriculture Insurance",(785) 266-7335,2820 SE 29th St,"Hauschild, Steve",KS,"Topeka, ",66605
"Insurance,Agriculture Insurance",(785) 783-8686,1431 SW Boswell Ave,Hueser Insurance Physical,KS,"Topeka, ",66604
"Insurance,Agriculture Insurance",(785) 266-9533,PO Box 67236,"Williams, Max O",KS,"Topeka, ",66667
Insurance,(785) 267-5111,PO Box 5066,Natalie Amy,KS,"Topeka, ",66605
"Insurance,Agriculture Insurance",(785) 246-0200,PO Box 2222,Smith Rod A,KS,"Topeka, ",66601
,(888) 431-3748,,,,,
,(888) 444-0603,,,,,
,(877) 294-7187,,,,,
,(877) 331-8261,,,,,
,,,,,,
Insurance,(785) 273-1009,2933 SW Woodside Dr # 200,Kelly Bob,KS,"Topeka, ",66614
Insurance,(785) 215-8202,1314 NW Lower Silver Lake Rd,Golliher Insurance,KS,"Topeka, ",66608
Insurance,(785) 235-1200,510 NW Broad St,Snowden Jeremy,KS,"Topeka, ",66608
"Insurance,Agriculture Insurance",(785) 215-6122,3024 SW Wanamaker Rd,First United Title Agency,KS,"Topeka, ",66614
Insurance,(785) 228-1702,2942 SW Wanamaker Rd,All American Associates Inc,KS,"Topeka, ",66614
Insurance,(785) 290-2665,1930 NE Quincy St,Perry Sue,KS,"Topeka, ",66608
"Insurance,Agriculture Insurance",(785) 290-2665,1930 NE Quincy St,Cool Insurance Services,KS,"Topeka, ",66608
Insurance,(785) 267-2373,5425 SW 7th St,Job Tom,KS,"Topeka, ",66606
Insurance,(785) 267-2373,5425 SW 7th St,Kcamp,KS,"Topeka, ",66606
Insurance,(785) 783-2800,5301 SW 7th St,Servicefirst Agents Inc,KS,"Topeka, ",66606
"Insurance,Agriculture Insurance",(785) 233-1600,1414 SW Ashworth Pl,Spurlock Financial Services Inc,KS,"Topeka, ",66604
"Insurance,Agriculture Insurance",(785) 271-8097,1414 SW Ashworth Pl,"Lafferty, Don",KS,"Topeka, ",66604
Insurance,(785) 228-5233,1414 SW Ashworth Pl # 100,New York Life Insurance,KS,"Topeka, ",66604
"Insurance,Agriculture Insurance",(785) 271-8097,1414 SW Ashworth Pl,"Eichten, Michael G",KS,"Topeka, ",66604
"Insurance,Agriculture Insurance",(785) 271-8097,1414 SW Ashworth Pl,"Lesser, Michael",KS,"Topeka, ",66604
Insurance,(785) 232-2202,1251 SW Arrowhead Rd Ste C,Mark Wilkerson Insurance,KS,"Topeka, ",66604
"Insurance,Homeowners Insurance",(785) 271-2300,1115 SW Wanamaker Rd,Kansas All Industry Placement Facility,KS,"Topeka, ",66604
"Insurance,Agriculture Insurance",(785) 234-8600,6342 SW 21st St,"Hoffman, Jason",KS,"Topeka, ",66615
"Insurance,Agriculture Insurance",(785) 234-8600,6342 SW 21st St,"Aldridge, Brandon",KS,"Topeka, ",66615
"Insurance,Financial Planning Consultants",(785) 234-8600,6342 SW 21st St,Modern Woodmen of America,KS,"Topeka, ",66615
Insurance,(785) 438-3683,1 SW Security Benefit Pl,Se2 Inc,KS,"Topeka, ",66606
"Insurance,Life Insurance,Farms",(785) 232-5239,2515 NW Topeka Blvd,Texas Farm Bureau Insurance,KS,"Topeka, ",66617
Insurance,(785) 478-4258,6623 SW Gisbourne Ct,Jagodzinske Glenn R CLU,KS,"Topeka, ",66614
"Insurance,Agriculture Insurance",(785) 271-1216,3920 SW Chelmsford Rd,Turner Insurance Group,KS,"Topeka, ",66610
"Insurance,Financial Services",(785) 273-7956,2426 SW Golf View Dr,Taylor Financial Services,KS,"Topeka, ",66614
"Insurance,Agriculture Insurance",(785) 273-6300,2704 NW Topeka Blvd,Kansas Auto Insurance Plan,KS,"Topeka, ",66617
Insurance,(785) 273-6300,2704 NW Topeka Blvd # B,Domer Gary L,KS,"Topeka, ",66617
Insurance,(785) 228-1234,2850 SW Mission Woods Dr,Vogel Jeff,KS,"Topeka, ",66614
Insurance,(785) 233-2244,6840 SW Aylesbury Rd,Cowan Ron Agency Inc,KS,"Topeka, ",66610
Insurance,(785) 379-5177,1130 SW Red Oaks Ct,Haley Russell W,KS,"Topeka, ",66615
,(877) 294-7187,,,,,
,(888) 431-3748,,,,,
,(888) 444-0603,,,,,
,(877) 331-8261,,,,,
,,,,,,
"Insurance,Agriculture Insurance",(785) 232-2772,135 NW Story St,Horace Mann Insurance Co,KS,"Topeka, ",66606
"Insurance,Agriculture Insurance",(785) 271-0748,520 SW Saline St,Total Insurance Inc,KS,"Topeka, ",66606
Insurance,(785) 271-0748,520 SW Saline St,Smith Larry,KS,"Topeka, ",66606
Insurance,(785) 354-7971,1825 SW Fairlawn Rd,Dunn R E Agency Inc,KS,"Topeka, ",66604
"Homeowners Insurance,Auto Insurance",(785) 272-0332,2115 SW Fairlawn Plaza Dr,State Farm Insurance,KS,"Topeka, ",66614
"Insurance,Agriculture Insurance",(785) 228-2990,5624 SW 29th St,BPA Insurance,KS,"Topeka, ",66614
"Insurance,Homeowners Insurance",(785) 271-8088,5654 SW 29th St,"Newton, Bob - Farmers Insurance",KS,"Topeka, ",66614
"Insurance,Agriculture Insurance",(785) 233-9951,4336 SE 25th Ter,Interstate Associates,KS,"Topeka, ",66605
Insurance,(785) 233-9951,4336 SE 25th Ter,Craig Don,KS,"Topeka, ",66605
"Insurance,Agriculture Insurance",(785) 233-1717,5835 SW 29th St,"Gerstenkorn, Raymond",KS,"Topeka, ",66614
"Insurance,Pension & Profit Sharing Plans",(785) 273-5911,5835 SW 29th St Ste 202,MetLife,KS,"Topeka, ",66614
"Insurance,Agriculture Insurance",(785) 233-1717,5835 SW 29th St,Uphaus Robert,KS,"Topeka, ",66614
Insurance,(785) 233-1717,5835 SW 29th St Ste 101,Anderson Del Ins,KS,"Topeka, ",66614
"Insurance,Agriculture Insurance",(785) 273-5911,5835 SW 29th St,Burdett & Associates,KS,"Topeka, ",66614
"Insurance,Agriculture Insurance",(785) 783-3000,301 SW Gage Blvd,Hueser Insurance Physicals,KS,"Topeka, ",66606
Insurance,(785) 272-3993,5883 SW 29th St,Mc Abee David L,KS,"Topeka, ",66614
Insurance,(785) 272-3993,5883 SW 29th St,Northwestern Mutual Insurance,KS,"Topeka, ",66614
Insurance,(785) 273-0558,5100 SW 10th Ave,Higgs Financical Services,KS,"Topeka, ",66604
"Insurance,Agriculture Insurance",(785) 273-0558,5100 SW 10th Ave,"Higgs Jr, Richard D",KS,"Topeka, ",66604
Insurance,(785) 228-1702,2942 SW Wanamaker Dr # 150,Copeland John,KS,"Topeka, ",66614
"Insurance,Agriculture Insurance",(785) 228-1702,2942 SW Wanamaker Dr,All American Associates Inc,KS,"Topeka, ",66614
Insurance,(785) 267-7077,2930 SW Wanamaker Dr Ste 2,Trinity Life Insurance Company,KS,"Topeka, ",66614
Insurance,(785) 266-7340,2150 SW Westport Dr,Senior Solutions,KS,"Topeka, ",66614
"Insurance,Agriculture Insurance",(785) 273-1009,2641 SW Westport Dr,Midwest Insurance Group Inc,KS,"Topeka, ",66614
Insurance,(785) 215-8599,5943 SW 29th St,Dynamics Insurance Group,KS,"Topeka, ",66614
"Insurance,Financial Services",(785) 272-3775,2813 SW Westport Plaza Dr,Jurgensmeier Ron,KS,"Topeka, ",66614
"Insurance,Life Insurance",(785) 272-3775,2813 SW Westport Plaza Dr,American General Life Ins Co PD,KS,"Topeka, ",66614
Insurance,(785) 215-8767,5909 SW 28th St # 102,Copeland Vonda,KS,"Topeka, ",66614
"Insurance,Homeowners Insurance",(785) 215-8767,5909 SW 28th St,Copeland Insurance Agency Inc,KS,"Topeka, ",66614
Insurance,(785) 215-8599,5947 SW 29th St,Ritchey Phillip,KS,"Topeka, ",66614
,(888) 431-3748,,,,,
,(877) 294-7187,,,,,
,(888) 444-0603,,,,,
,(877) 331-8261,,,,,
,,,,,,
"Agriculture Insurance,Insurance",(785) 273-0175,1137 SW Gage Blvd,"McNary, Michael",KS,"Topeka, ",66604
"Agriculture Insurance,Insurance",(785) 271-1216,5605 SW Barrington Ct S,Farm Bureau Insurance,KS,"Topeka, ",66614
"Financial Services,Insurance",(785) 273-3777,2110 SW Belle Ave,Primerica,KS,"Topeka, ",66614
Financial Planning Consultants,(785) 272-2132,5825 SW 29th St,Farm Bureau Financial Service,KS,"Topeka, ",66614
"Health Insurance,Insurance",(785) 233-1717,5835 SW 29th St # 101,"Payne, John",KS,"Topeka, ",66614
"Agriculture Insurance,Insurance",(785) 273-1667,5841 SW 29th St,"Slocum, Rick",KS,"Topeka, ",66614
"Agriculture Insurance,Insurance",(785) 273-1620,2930 SW Wanamaker Dr,American Family Ins-Dennis L,KS,"Topeka, ",66614
Auto Insurance,(785) 273-3957,2900 SW Wanamaker Dr Ste 101,"Lear, Kyle",KS,"Topeka, ",66614
"Financial Planning Consultants,Insurance",(785) 272-4568,2900 SW Wanamaker Dr,Primerica,KS,"Topeka, ",66614
"Financial Services,Insurance",(785) 271-9725,5942 SW 29th St,David Damme Ins Agency,KS,"Topeka, ",66614
Health Plans-Information & Referral...,(785) 233-1816,2951 SW Woodside Dr,Century Health Solutions Inc,KS,"Topeka, ",66614
Financial Planning Consultants,(785) 478-3090,3801 SW Wanamaker Rd,Farm Bureau,KS,"Topeka, ",66610
"Agriculture Insurance,Insurance",(785) 273-7077,3801 SW Wanamaker Rd,Shawnee County Farm Bureau,KS,"Topeka, ",66610
Insurance Adjusters,(785) 478-3090,3801 SW Wanamaker Rd,Hamilton Patricia,KS,"Topeka, ",66610
"Agriculture Insurance,Insurance",(785) 228-5228,1414 SW Ashworth Pl,Scott John F,KS,"Topeka, ",66604
Stock & Bond Brokers,(785) 271-2492,6342 SW 21st St,Johnson Sharon,KS,"Topeka, ",66615
"Surety & Fidelity Bonds,Insurance",(785) 228-0000,1220 SW Executive Dr,Kansas Bankers Surety,KS,"Topeka, ",66615
"Auto Insurance,Insurance",(785) 272-0332,6750 SW 29th St,Garrison Ins & Fin Service Inc,KS,"Topeka, ",66614
"Financial Planning Consultants,Insurance",(785) 266-1200,3311 SW Van Buren St,Kansas Financial Resources Inc,KS,"Topeka, ",66611
"Agriculture Insurance,Insurance",(785) 266-2100,3320 SW Harrison St,Tarkenton Financial,KS,"Topeka, ",66611
"Business & Trade Organizations,Insurance",(785) 267-1641,2900 SW Topeka Blvd,Kansas Motor Carriers Association,KS,"Topeka, ",66611
"Financial Planning Consultants,Insurance",(785) 266-8333,3706 SW Topeka Blvd,T & M Financial Inc,KS,"Topeka, ",66609
"Agriculture Insurance,Insurance",(785) 266-8333,3706 SW Topeka Blvd,"Barr, Faron",KS,"Topeka, ",66609
"Agriculture Insurance,Insurance",(785) 267-0707,3706 SW Topeka Blvd # 400,"Manrose, Jason",KS,"Topeka, ",66609
"Agriculture Insurance,Insurance",(785) 266-8333,3706 SW Topeka Blvd,"Miller, Kristopher",KS,"Topeka, ",66609
Life Insurance,(785) 969-4229,2901 SW Burlingame Rd,"Aimee Allan, Farm Bureau Financial Services",KS,"Topeka, ",66614
"Agriculture Insurance,Insurance",(785) 233-1233,2750 SW Burlingame Rd,"Stous, Ronald M",KS,"Topeka, ",66611
"Financial Planning Consultants,Insurance",(785) 478-2806,1609 SW 37th St,Thrivent Financial-Lutherans,KS,"Topeka, ",66611
Financial Planning Consultants,(785) 266-6002,2909 SW Plass Ct,Lord's Financial Planning,KS,"Topeka, ",66611
"Agriculture Insurance,Insurance",(785) 266-8223,2885 SW Plass Ave,"Pollock, Velma M",KS,"Topeka, ",66611
,(888) 444-0603,,,,,
,(877) 294-7187,,,,,
,(888) 431-3748,,,,,
,(877) 331-8261,,,,,
,,,,,,
"Insurance,Agriculture Insurance",(785) 478-3235,7311 SW Robins Dr,Allman-Wm D Insurance,KS,"Topeka, ",66610
"Insurance,Agriculture Insurance",(785) 215-8884,2747 SW Berkshire Dr,Arrowhead Insurance,KS,"Topeka, ",66614
Insurance,(785) 478-4330,8010 SW 22nd Ter,Inter-State Assurance Conn-Berg,KS,"Topeka, ",66614
Insurance,(785) 233-6463,4600 NW Timber Ct,Foltz Tom,KS,"Topeka, ",66618
Insurance,(785) 841-0200,1035 Vermont St,Hedges Insurance,KS,"Topeka, ",66614
"Insurance,Auto Insurance",(785) 273-1667,5841 SW 29th St,American Family Insurance Distict Office,KS,"Topeka, ",66614
Insurance,(785) 266-9533,,Williams Max O,KS,"Topeka, ",66601
"Insurance,Agriculture Insurance",(785) 246-1107,,Smerchek Kim,KS,"Topeka, ",66618
"Insurance,Agriculture Insurance",(785) 246-1107,,Cincinnati Insurance Co,KS,"Topeka, ",66618
Insurance,(785) 271-2411,,Laird H. Shuart,KS,"Topeka, ",66604
"Insurance,Agriculture Insurance",(785) 554-2717,,Gilkey Insurance Solutions,KS,"Topeka, ",66611
Auto Insurance,(785) 233-9366,1200 S Kansas Ave,"Calhoun, Dwight A Insurance Agency",KS,"Topeka, ",66612
Automotive Roadside Service,(785) 233-0222,1223 SW Wanamaker Rd,AAA Insurance,KS,"Topeka, ",66604
Business & Commercial Insurance,(785) 232-1935,515 S Kansas Ave,Aviva,KS,"Topeka, ",66603
Boat & Marine Insurance,(785) 273-4720,2910 SW Oakley Ave Ste A,Farmers Insurance - Casey Ford,KS,"Topeka, ",66614
"Hospitalization, Medical & Surgical...",(785) 291-7000,1133 SW Topeka Blvd,Blue Cross & Blue Shield Of Kansas,KS,"Topeka, ",66629
Auto Insurance,(785) 234-0511,608 SW Washburn Ave,Farmers Insurance - Scott Sharpe,KS,"Topeka, ",66606
Auto Insurance,(785) 271-5060,5967 SW 29th St Ste 220B,Allstate Insurance - Brian Green,KS,"Topeka, ",66614
"Agriculture Insurance,Insurance",(785) 235-5633,2704 NW Topeka Blvd,Dennis Richter-State Farm Insurance,KS,"Topeka, ",66617
Auto Insurance,(785) 408-5459,2850 SW Mission Woods Dr,Farmers Insurance - Dan Key,KS,"Topeka, ",66614
"Investments,Insurance",(785) 266-1200,3311 SW Van Buren St,"Hunsiker, Scott B",KS,"Topeka, ",66611
"Auto Insurance,Health Insurance",(785) 266-7000,2901 SW Burlingame Rd,"Andrew Linton, Farm Bureau Financial Services",KS,"Topeka, ",66611
Workers Compensation Assistance,(785) 232-7300,"1507 SW 21st, Suite 207",Structured Financial Associates,KS,"Topeka, ",66604
"Agriculture Insurance,Insurance",(785) 228-2889,2611 SW 21st St,Allstate Insurance,KS,"Topeka, ",66604
"Agriculture Insurance,Insurance",(785) 232-2224,623 SW 10th Ave # 2,Michael Brian,KS,"Topeka, ",66612
"Financial Planning Consultants,Insurance",(785) 296-7095,212 SW 8th Ave,ING Financial Partners,KS,"Topeka, ",66603
"Pension & Profit Sharing Plans,Insurance",(785) 296-6666,611 S Kansas Ave Ste 100,Kansas Public Employees Retire,KS,"Topeka, ",66603
"Agriculture Insurance,Insurance",(785) 234-3188,1255 SW Plass Ave,Becker Ed,KS,"Topeka, ",66604
Insurance Consultants & Analysts,(785) 235-6276,400 S Kansas Ave # 100,Lobell Steve S,KS,"Topeka, ",66603
Homeowners Insurance,(785) 271-1780,1725 SW Gage Blvd,American Family Insurance,KS,"Topeka, ",66604
,(888) 444-0603,,,,,
,(877) 331-8261,,,,,
,(888) 431-3748,,,,,
,(877) 294-7187,,,,,
,,,,,,
Agriculture Insurance,(785) 266-4540,2101 SW 36th St,Kansas Building Industry Workers Compensation,KS,"Topeka, ",66611
"Investment Securities,Insurance",(785) 266-7666,2300 SW 29th St Ste 124,Anico,KS,"Topeka, ",66611
"Homeowners Insurance,Auto Insurance",(785) 783-0670,2153 SE California Ave,Aia,KS,"Topeka, ",66605
"Homeowners Insurance,Auto Insurance",(785) 267-4840,3645 SW Burlingame Rd,"Allied - Elliot Insurance, Inc.",KS,"Topeka, ",66611
"Surety & Fidelity Bonds,Insurance",(785) 233-6463,1335 S Kansas Ave,Foltz-Roepke Insurance,KS,"Topeka, ",66612
"Agriculture Insurance,Insurance",(785) 271-5055,2715 SW 29th St,Barry L Bray & Associates,KS,"Topeka, ",66614
Health Plans-Information & Referral...,(785) 215-6617,3224 SW 29th St,Senior Adult Management Inc,KS,"Topeka, ",66614
"Credit Unions,Banks,Insurance",(785) 291-8774,1010 SW Tyler St,Kansas Blue Cross Blue Shield Credit Union,KS,"Topeka, ",66612
Health Maintenance Organizations,(785) 270-1070,825 S Kansas Ave,Uni Care,KS,"Topeka, ",66612
"Professional Organizations,Associations",(785) 354-7770,825 S Kansas Ave Ste 500,Naifa Kansas,KS,"Topeka, ",66612
"Agriculture Insurance,Insurance",(785) 296-7095,212 SW 8th Ave # 100,Delfelder Cindy,KS,"Topeka, ",66603
"Agriculture Insurance,Insurance",(785) 232-8292,212 SW 8th Ave # 200,Turner Jim,KS,"Topeka, ",66603
"Agriculture Insurance,Insurance",(785) 232-8292,212 SW 8th Ave,Hcba Insurance Service,KS,"Topeka, ",66603
"Agriculture Insurance,Insurance",(785) 231-6383,700 S Kansas Ave # 1,Cox Ed,KS,"Topeka, ",66603
"Surety & Fidelity Bonds,Bail Bonds",(785) 286-7979,612 S Kansas Ave Ste B,Willis Bail Bonds,KS,"Topeka, ",66603
"Agriculture Insurance,Insurance",(785) 235-5566,120 SE 6th Ave,Heartland Crop Insurance,KS,"Topeka, ",66603
Financial Planning Consultants,(785) 233-4071,120 SE 6th Ave,OFG Financial Services Inc,KS,"Topeka, ",66603
Insurance Medical Examinations,(785) 273-1011,2900 SW Atwood Ave Ste D,Mobile Insurance Assessments,KS,"Topeka, ",66614
Attorneys,(785) 354-1100,555 S Kansas Ave # 303,Unrein Eric I,KS,"Topeka, ",66603
Business & Commercial Insurance,(785) 234-2300,1240 SW Oakley Ave,Monarch Management Corp,KS,"Topeka, ",66604
"Medical Clinics,Insurance",(785) 295-5335,1700 SW 7th St,Edds Breck A,KS,"Topeka, ",66606
"Tax Return Preparation,Insurance",(785) 234-2555,3421 SE 24th Ter,Barton Tax Service,KS,"Topeka, ",66605
Auto Insurance,(785) 266-9155,3627 SE 29th St,American Family Insurance - Jeremy W Stone,KS,"Topeka, ",66605
Insurance Consultants & Analysts,(785) 228-1800,4125 SW Gage Center Dr,Vandyke Michael L,KS,"Topeka, ",66604
"Agriculture Insurance,Insurance",(785) 272-1831,4101 SW Gage Center Dr,"Wurtz, Matthew",KS,"Topeka, ",66604
"Homeowners Insurance,Life Insurance",(785) 215-8767,5020 SW 28th St # 204,Copeland Insurance Inc,KS,"Topeka, ",66614
"Agriculture Insurance,Insurance",(785) 862-1947,3839 SW 55th St,Wanamaker Stephen J,KS,"Topeka, ",66610
"Agriculture Insurance,Insurance",(785) 271-1443,2950 SW McClure Rd,"Foster, Cody",KS,"Topeka, ",66614
"Agriculture Insurance,Insurance",(785) 862-1947,1026 SW Exmoor Ln,"Wanamaker, Stephen J",KS,"Topeka, ",66604
"Agriculture Insurance,Insurance",(785) 273-3519,1147 SW Camden Ln,"Payne, Dennis C",KS,"Topeka, ",66604
,(877) 294-7187,,,,,
,(888) 431-3748,,,,,
,(888) 444-0603,,,,,
,(877) 331-8261,,,,,
,,,,,,
"Agriculture Insurance,Insurance",(785) 267-1741,3030 SE Paulen Rd,"Shipman, Larry J",KS,"Topeka, ",66605
"Surety & Fidelity Bonds,Insurance",(785) 273-0899,5815 SW 29th St,"Gordon, Bill Farmers Insurance",KS,"Topeka, ",66614
Business & Commercial Insurance,(785) 233-1717,5835 SW 29th St,Wempe Joseph M,KS,"Topeka, ",66614
"Investment Securities,Financial Services",(785) 272-1323,5100 SW 10th Ave,BI Financial,KS,"Topeka, ",66604
"Attorneys,Insurance,Legal Service Plans",(785) 228-1901,5100 SW 10th Ave,David N Holstead PA,KS,"Topeka, ",66604
"Insurance,Agriculture Insurance",(785) 271-2899,2930 SW Wanamaker Dr,Davis Debbie,KS,"Topeka, ",66614
"Agriculture Insurance,Insurance",(785) 272-4568,2900 SW Wanamaker Dr # 106,Malloy Richard A,KS,"Topeka, ",66614
"Auto Insurance,Life Insurance",(785) 273-3957,2900 SW Wanamaker Dr Suite 101,Shelter Insurance - Kyle Lear,KS,"Topeka, ",66614
"Financial Planning Consultants,Insurance",(785) 273-6501,5931 SW 31st Ter,AXA Equitable,KS,"Topeka, ",66614
Auto Insurance,(785) 273-0176,5942 SW 29th St Ste C,Mick Leeper Insurance Inc,KS,"Topeka, ",66614
"Agriculture Insurance,Insurance",(785) 215-8599,5947 SW 29th St,Dynamic Advisors Group,KS,"Topeka, ",66614
"Agriculture Insurance,Insurance",(785) 232-2202,"3024 SW Wanamaker Rd, Suite 203",IMA Financial Group,KS,"Topeka, ",66614
Insurance Consultants & Analysts,(785) 232-2202,"3024 SW Wanamaker Road, Suite 203",Ima,KS,"Topeka, ",66614
"Agriculture Insurance,Insurance",(785) 271-1300,2445 SW Wanamaker Rd Ste 100,"Long, David",KS,"Topeka, ",66614
"Agriculture Insurance,Insurance",(785) 271-1300,2445 SW Wanamaker Rd Ste 100,"Meacham, Mindy",KS,"Topeka, ",66614
"Homeowners Insurance,Auto Insurance",(785) 783-8500,3745 SW Wanamaker Rd,American Family Insurance - Kelly Gerhardt,KS,"Topeka, ",66610
"Financial Planning Consultants,Insurance",(785) 228-5233,1414 SW Ashworth Pl Ste 100,Friedstrom Richard K,KS,"Topeka, ",66604
"Life Insurance,Insurance",(785) 228-5231,1414 SW Ashworth Pl,Scott R Gregg,KS,"Topeka, ",66604
Business & Commercial Insurance,(785) 228-5242,1414 SW Ashworth Pl # 100,"Murphy, Thomas C",KS,"Topeka, ",66604
"Financial Planning Consultants,Insurance",(785) 228-5272,1414 SW Ashworth Pl,Richardson Guy E Ins Invstmnts,KS,"Topeka, ",66604
Business & Commercial Insurance,(785) 228-5236,1414 SW Ashworth Pl,Hagmeier Brian,KS,"Topeka, ",66604
"Life Insurance,Insurance",(785) 228-5260,1414 SW Ashworth Pl # 100,Wild Ralph,KS,"Topeka, ",66604
Insurance Consultants & Analysts,(785) 232-2202,1251 SW Arrowhead Rd,IMA Of Kansas,KS,"Topeka, ",66604
"Financial Planning Consultants,Insurance",(785) 271-1446,3430 SW Alameda Dr,Boyd Financial Services,KS,"Topeka, ",66614
"Agriculture Insurance,Insurance",(785) 271-1446,3430 SW Alameda Dr,Boyd Dg Agency Insurance,KS,"Topeka, ",66614
"Agriculture Insurance,Insurance",(785) 272-7811,2470 SW Brookhaven Ln,Aid Association For Lutherans,KS,"Topeka, ",66614
"Homeowners Insurance,Insurance",(785) 271-2300,1115 SW Wanamaker Rd,FAIR Plan,KS,"Topeka, ",66604
"Homeowners Insurance,Insurance",(785) 271-2300,1115 SW Wanamaker Rd,Hievsch Rita,KS,"Topeka, ",66604
Annuities & Retirement Insurance Plans,(785) 234-8600,6342 SW 21st St # 102,Mallett Gregory D,KS,"Topeka, ",66615
"Insurance Adjusters,Debt Adjusters",(785) 271-0680,3131 SW Staffordshire Rd,GAB Robins,KS,"Topeka, ",66614
,(877) 294-7187,,,,,
,(888) 431-3748,,,,,
,(888) 444-0603,,,,,
,(877) 331-8261,,,,,
,,,,,,
Business & Commercial Insurance,(785) 379-5177,7930 SE 32nd Ter,Haley Russell W CLU,KS,"Tecumseh, ",66542
"Financial Planning Consultants,Insurance",(785) 437-3230,9971 NW US Highway 24,Haverkamp Chris,KS,"Silver Lake, ",66539
Financial Planning Consultants,(785) 484-2409,7272 K4 Hwy,Farm Bureau Financial Services,KS,"Meriden, ",66512
Financial Planning Consultants,(785) 836-7200,417 S Topeka St,Farm Bureau Financial Services,KS,"Carbondale, ",66414
"Insurance Adjusters,Insurance",(785) 836-7200,417 S Topeka St,Wiles Marrick,KS,"Carbondale, ",66414
"Agriculture Insurance,Insurance",(785) 836-7200,417 S Topeka St,Farm Bureau Insurance,KS,"Carbondale, ",66414
"Agriculture Insurance,Insurance",(785) 836-7378,1862 W 133rd St,"Creager, Bob",KS,"Carbondale, ",66414
"Homeowners Insurance,Auto Insurance",(785) 597-2444,605 Cedar St,A G Insurance,KS,"Perry, ",66073
"Agriculture Insurance,Insurance",(785) 945-8819,,Allied Insurance,KS,"Valley Falls, ",66088
"Agriculture Insurance,Insurance",(785) 924-3757,,Anweiler Insurance-Real Estate,KS,"Circleville, ",66416
,(877) 294-7187,,,,,
,(888) 431-3748,,,,,
,(888) 444-0603,,,,,
,(877) 331-8261,,,,,
,,,,,,
"Agriculture Insurance,Insurance",(785) 438-3299,5801 SW 6th Ave,"Berry, Cathleen",KS,"Topeka, ",66636
"Agriculture Insurance,Insurance",(785) 228-0000,1220 SW Executive Dr,"Bures, Paul",KS,"Topeka, ",66615
"Financial Services,Insurance",(785) 228-1234,2850 SW Mission Woods Dr,Capital Financial Group,KS,"Topeka, ",66614
"Agriculture Insurance,Insurance",(785) 478-9400,3400 SW Urish Rd,Redmond Ins,KS,"Topeka, ",66614
"Agriculture Insurance,Insurance",(785) 478-0563,2712 SW Cannock Chase Rd,Midwest Business Advange,KS,"Topeka, ",66614
"Agriculture Insurance,Insurance",(785) 478-0563,2712 SW Cannock Chase Rd,Armbruster Chad,KS,"Topeka, ",66614
"Agriculture Insurance,Insurance",(785) 379-5177,1130 SW Red Oaks Ct,Northwestern Mutual Financial,KS,"Topeka, ",66615
Insured Property Replacement Service,(785) 478-6840,7209 SW Marian Rd,Advantage Claim Service,KS,"Topeka, ",66614
Business & Commercial Insurance,(785) 478-4244,2520 SW Windslow Ct,Munoz Robert D,KS,"Topeka, ",66614
"Agriculture Insurance,Insurance",(785) 233-6463,4600 NW Timber Ct,Foltz-Roepke Insurance Inc,KS,"Topeka, ",66618
"Health Insurance,Insurance",(785) 291-4180,,Blue Cross & Blue Shield,KS,"Topeka, ",66601
"Dental Insurance,Insurance",(785) 267-5111,,Delta Dental of Kansas,KS,"Topeka, ",66611
Health Maintenance Organizations,(866) 981-0200,,Affordable Health Insurance/Day Ins,KS,"Topeka, ",66601
Insurance,(785) 379-5177,7930 SE 32nd Ter,Northwestern Mutual Financial,KS,"Tecumseh, ",66542
Insurance,(785) 484-2676,3390 Becker Ave,Huckabay Insurance Agency Meriden,KS,"Meriden, ",66512
"Insurance,Agriculture Insurance",(785) 582-4500,9941 NW US Highway 24,Kidney Insurance Agency,KS,"Silver Lake, ",66539
"Insurance,Agriculture Insurance",(785) 582-5430,100 Center Dr,Kellner Insurance Service,KS,"Silver Lake, ",66539
Insurance,(785) 484-2409,7272 K4 Hwy Ste C,Sanders Jay,KS,"Meriden, ",66512
Insurance,(785) 817-4766,217 E Main St,5 Starr Insurance Solutions,KS,"Meriden, ",66512
"Insurance,Agriculture Insurance",(785) 484-2810,6682 Kimberly Dr,Jones & Jones,KS,"Ozawkie, ",66070
Insurance,(785) 484-2810,6682 Kimberly Dr,Franklin Life Insurance,KS,"Ozawkie, ",66070
Insurance,(785) 597-2444,605 Cedar St,Gantz Angie,KS,"Perry, ",66073
Insurance,(785) 597-0196,112 Quarry Ln,Pearson Insurance,KS,"Perry, ",66073
"Insurance,Agriculture Insurance",(785) 267-1070,PO Box 115,"Jonagan, Cinda",KS,"Berryton, ",66409
Insurance,(785) 267-1070,,Cinda Jonagan,,,
"Insurance,Agriculture Insurance",(785) 235-0023,,Menke Dwight D Insurance,,,
Insurance,(785) 478-3200,,The Koger Agency Inc,,,
Insurance,(785) 273-3331,,Parker Haskins Insurance,,,
"Loans,Insurance",(785) 231-6383,,Capitol Agency Insurance,,,
Financial Planning Consultants,(785) 256-7700,841 N Washington St,Farm Bureau Financial Services Auburn Office,KS,"Auburn, ",66402
,(877) 331-8261,,,,,
,(888) 431-3748,,,,,
,(888) 444-0603,,,,,
,(877) 294-7187,,,,,
,,,,,,
