category,phone,streetAddress,name,addressState,addressCity,addressZip
Financial Planners,(785) 289-5509,5835 SW 29th St Suite 201,Tucker Financial Services,KS,"Topeka, ",66614
"Advertising Agencies,Graphic Designers",(785) 354-8596,,Graphic Art Of Topeka,KS,"Topeka, ",66614
Financial Planners,(785) 232-3266,534 S Kansas Ave,"Clayton Financial Services, Inc.",KS,"Topeka, ",66603
"Credit Unions,Financial Services,Loans",(785) 271-6900,2808 SW Arrowhead Rd,Educational Credit Union,KS,"Topeka, ",66614
Accountants-Certified Public,(785) 272-6234,2800 SW Wanamaker Rd,Bradley E Hammel,KS,"Topeka, ",66614
Financial Services,(785) 286-0811,4745 NW Hunters Ridge Cir Suite F,Edward Jones - Financial Advisor: Gary D Starr,KS,"Topeka, ",66618
Computer Network Design & Systems,(785) 267-3223,2001 SW Gage Blvd,The Computer Store / Network Technologies,KS,"Topeka, ",66604
Financial Services,(785) 266-0850,515 SW 37th St Suite 101,Edward Jones - Financial Advisor: Thad Allen,KS,"Topeka, ",66611
Financial Services,(785) 273-1904,3718 SW Burlingame Rd,Edward Jones - Financial Advisor: Kasey D Priddy,KS,"Topeka, ",66609
Financial Services,(785) 228-1238,3124 SW 29th St Suite 4,Edward Jones - Financial Advisor: Joseph A Roberson,KS,"Topeka, ",66614
Financial Services,(785) 233-0366,634 S Kansas Ave,Edward Jones - Financial Advisor: Kenton S Cox,KS,"Topeka, ",66603
Financial Services,(785) 266-2265,3310 SE 29th St Suite 700,Edward Jones - Financial Advisor: Craig S Freeman,KS,"Topeka, ",66605
Financial Services,(785) 273-0110,3100 SW Huntoon St Suite 101,Edward Jones - Financial Advisor: Valerie J Nelson,KS,"Topeka, ",66604
Financial Services,(785) 272-1831,4101 SW Gage Center Dr,Edward Jones - Financial Advisor: Matt Wurtz,KS,"Topeka, ",66604
Financial Services,(785) 272-1301,3512 SW Fairlawn Rd Suite 100,Edward Jones - Financial Advisor: John A Gascon,KS,"Topeka, ",66614
Financial Services,(785) 272-1301,3512 SW Fairlawn Rd Suite 100,Edward Jones - Financial Advisor: Lief E Nelson,KS,"Topeka, ",66614
Financial Services,(785) 273-2277,4009 SW 10th Ave,Edward Jones - Financial Advisor: Mark E Schwartz,KS,"Topeka, ",66604
Financial Services,(785) 273-0087,5622 SW 29th St,Edward Jones - Financial Advisor: Sandra Davis,KS,"Topeka, ",66614
Financial Services,(785) 271-1624,301 SW Gage Blvd Suite 101,Edward Jones - Financial Advisor: Nancy J Sumpter,KS,"Topeka, ",66606
Financial Services,(785) 271-7088,2655 SW Wanamaker Rd Suite B,Edward Jones - Financial Advisor: Jahnnie A Brake,KS,"Topeka, ",66614
Financial Services,(785) 228-1045,5844 SW Huntoon St Suite 300,Edward Jones - Financial Advisor: Jonathan Didde,KS,"Topeka, ",66604
Financial Services,(785) 354-7180,605 NW US Highway 24 Suite 104,Edward Jones - Financial Advisor: Kelly S Donaldson,KS,"Topeka, ",66608
Financial Services,(785) 286-0811,4745 NW Hunters Ridge Cir Suite F,Edward Jones - Financial Advisor: Cassi Nelson,KS,"Topeka, ",66618
Tax Return Preparation,(785) 272-3176,990 SW Fairlawn Rd,"CBIZ MHM, LLC",KS,"Topeka, ",66606
"Advertising Agencies,Commercial Artists",(785) 272-8932,5942 SW 29th St Ste B,Friesen Design,KS,"Topeka, ",66614
Building Construction Consultants,(785) 235-1511,531 NW Tyler Ct,PDQ Construction Inc,KS,"Topeka, ",66608
Carpet & Rug Cleaners,(785) 380-8117,4900 SW Topeka Blvd,ServiceMaster Cleaning Services by AAA,KS,"Topeka, ",66609
Psychotherapists,(785) 224-5798,5990 SW 28th St Suite H,"Parker, Sheri L LSCSW",KS,"Topeka, ",66614
Funeral Directors,(785) 272-7888,2801 SW Urish Rd,Kevin Brennan Family Funeral Home,KS,"Topeka, ",66614
"Investment Securities,Financial Services",(785) 271-1033,3615 SW 29th St,Morgan Penny Financial Service,KS,"Topeka, ",66614
,(877) 206-8692,,,,,
,(785) 289-5509,5835 SW 29th St Suite 201,,KS,"Topeka, ",66614
,(501) 753-0202,,,,,
,,,,,,
Management Consultants,(785) 228-1439,2119 SW Gage Blvd,Npc International,KS,"Topeka, ",66614
Marketing Consultants,(785) 235-0223,921 SW Garfield Ave,Osteoperosis Services Marketing,KS,"Topeka, ",66606
Marketing Consultants,(785) 246-9600,PO Box 8660,Sales Marketing Executives Inc,KS,"Topeka, ",66608
Advertising Agencies,(785) 232-4156,3127 SW Huntoon St,M B Piland Advertising,KS,"Topeka, ",66604
Advertising Agencies,(785) 232-1225,3127 SW Huntoon St # 6,Ad Images,KS,"Topeka, ",66604
Computer Technical Assistance &...,(785) 861-7300,128 N Kansas Ave # 1,GTECH Corp,KS,"Topeka, ",66603
Electricians,(785) 862-0507,5331 SW Randolph Ave,Shelley Electric Inc,KS,"Topeka, ",66609
Advertising Agencies,(785) 273-5411,5339 SW 22nd Pl,ASA Marketing Group,KS,"Topeka, ",66614
"Funeral Directors,Management Consultants",(785) 233-4088,1035 N Kansas Ave,Davidson Funeral Home,KS,"Topeka, ",66608
Marketing Consultants,(785) 862-3707,929 SW University Blvd,Kidstuff KSM,KS,"Topeka, ",66619
Marketing Programs & Services,(785) 862-0340,929 SW University Blvd,Bubble Marketing,KS,"Topeka, ",66619
Computer Network Design & Systems,(785) 862-2400,929 SW University Blvd,Versatech,KS,"Topeka, ",66619
Computers & Computer Equipment-Service...,(785) 271-9996,4130 SW 6th Ave # 204,Jds Computer-Training SVC,KS,"Topeka, ",66606
Management Consultants,(785) 272-1676,5887 SW 29th St,L D Management,KS,"Topeka, ",66614
Management Consultants,(785) 273-1353,5897 SW 29th St,Stanford Lee R,KS,"Topeka, ",66614
Management Consultants,(785) 273-8398,2930 SW Wanamaker Dr,Corporate Plan Management,KS,"Topeka, ",66614
Computer System Designers & Consultants,(785) 271-6057,5990 SW 28th St Ste F1,Infinitec,KS,"Topeka, ",66614
Marketing Consultants,(785) 271-1445,1300 SW Arrowhead Rd Ste 200,Advisors Excel,KS,"Topeka, ",66604
Marketing Consultants,(785) 862-3707,1401 NW Moundview Dr,Kidstuff KSM,KS,"Topeka, ",66618
Marketing Consultants,(785) 380-0195,1100 SW Wanamaker Rd,"Kansas Web Services, Inc.",KS,"Topeka, ",66604
Computer Network Design & Systems,(785) 232-0255,4137 NW Lower Silver Lake Rd,CRC Network,KS,"Topeka, ",66618
Computer System Designers & Consultants,(785) 271-1560,1717 SW Valley Glen Rd,Perkuhn Tom & Karen,KS,"Topeka, ",66615
Marketing Consultants,(785) 783-8422,7720 SW Huntoon St,Berkeley Square Media Inc,KS,"Topeka, ",66615
Computers & Computer Equipment-Service...,(785) 806-4771,4828 NW Fielding Pl Apt 5,SHAWN KNERNSCHIELD,KS,"Topeka, ",66618
Management Consultants,(785) 478-3284,1848 SW Hoch Rd,Jsc Lpi,KS,"Topeka, ",66615
"Advertising Specialties,Clothing Stores",(785) 357-5128,4547 SW Deer Trail St,Advertising Specialty,KS,"Topeka, ",66610
Accounting Services,(785) 232-1724,420 SE 29th St,American Tax Service,KS,"Topeka, ",66605
Business Coaches & Consultants,(785) 267-6755,3120 SW Van Buren St,Stubbs Development,KS,"Topeka, ",66611
Consulting Engineers,(785) 267-3310,3113 SW Van Buren St,Terracon Consultants Inc,KS,"Topeka, ",66611
"Consulting Engineers,Testing Labs",(785) 267-3316,3113 SW Van Buren St # 131,Pretsch Stephen,KS,"Topeka, ",66611
,,,,,,
Accountants-Certified Public,(785) 861-7227,6111 SW 29th St,Bean Consulting,KS,"Topeka, ",66614
Business Coaches & Consultants,(785) 357-7100,2207 SW Alameda Ct,It Guy Consulting,KS,"Topeka, ",66614
"Bankruptcy Law Attorneys,Attorneys",(785) 234-3663,112 SW 6th Ave,Joe I. Wittman - Attorney,KS,"Topeka, ",66603
Business Coaches & Consultants,(785) 232-6015,3520 NE Seward Ave,Philip Billard Atct,KS,"Topeka, ",66616
Business Coaches & Consultants,(785) 228-1901,5100 SW 10th Ave # 105,Wakarusa River Management,KS,"Topeka, ",66604
Business Coaches & Consultants,(785) 271-2070,5924 SW Cherokee Ct,Innovative Technology Svc,KS,"Topeka, ",66614
Accountants-Certified Public,(785) 234-6673,3024 SW Wanamaker Rd Ste 200,Kennedy & Coe,KS,"Topeka, ",66614
Internet Products & Services,(785) 266-2585,3301 S Kansas Ave # A,ISG Technology Inc,KS,"Topeka, ",66611
Computer Network Design & Systems,(785) 267-6800,3003 SW Van Buren St # B,Networks Plus,KS,"Topeka, ",66611
"Management Consultants,Insurance",(785) 783-7077,220 SW 33rd St,Aflac Regional Office,KS,"Topeka, ",66611
Computer System Designers & Consultants,(785) 272-5993,3410 SW Van Buren St,Tbc Software Inc,KS,"Topeka, ",66611
Computer & Equipment Dealers,(785) 267-3706,420 SW 37th St,Eclectic Technology,KS,"Topeka, ",66611
Management Consultants,(785) 266-3101,900 SW 39th St,Resource Management Associates,KS,"Topeka, ",66609
Management Consultants,(785) 380-4426,1610 SW Topeka Blvd Fl 3,Rental Management Solutions,KS,"Topeka, ",66612
Computer System Designers & Consultants,(785) 228-2727,1000 S Kansas Ave # 103,Alexander Open Systems,KS,"Topeka, ",66612
Computer System Designers & Consultants,(785) 232-3921,900 S Kansas Ave,Alexander Open Systems,KS,"Topeka, ",66612
Management Consultants,(785) 338-9010,100 SE 9th St # 501,Value Options,KS,"Topeka, ",66612
Management Consultants,(785) 234-8353,830 S Kansas Ave,Value Options,KS,"Topeka, ",66612
Computer & Technology Schools,(785) 232-8089,116 SE 8th Ave,Thoroughbred Computer System,KS,"Topeka, ",66603
Web Site Design & Services,(785) 233-6278,118 SW 8th Ave,Spinnaker,KS,"Topeka, ",66603
Marketing Consultants,(785) 235-1447,1161 sw Clay  Street ste 1a,business Networking Enterprise,KS,"Topeka, ",66604
Management Consultants,(785) 271-0208,800 SW Jackson St Ste 1500,Glazing Industry Code Commitee,KS,"Topeka, ",66612
Management Consultants,(785) 271-0208,800 SW Jackson St Ste 1500,Primary Glass Manufacturers Council,KS,"Topeka, ",66612
Computer Network Design & Systems,(785) 221-2211,www.DandSSolutions.com,D&S Solutions,KS,"Topeka, ",66604
Management Consultants,(785) 233-1414,115 SE 7th St,Tank Management Services,KS,"Topeka, ",66603
"Attorneys,Management Consultants",(785) 233-9908,700 SW Jackson St Ste 404,Williamson Darcy D Atty,KS,"Topeka, ",66603
"Attorneys,General Practice Attorneys",(785) 354-8188,214 SW 6th Ave,Harper Law Office,KS,"Topeka, ",66603
Management Consultants,(785) 235-0708,534 S Kansas Ave,Accenture,KS,"Topeka, ",66603
"Attorneys,Bankruptcy Services",(785) 276-9300,515 S Kansas Ave Ste 403,Law Office of Garrett & Coons,KS,"Topeka, ",66603
Management Consultants,(785) 783-2546,817 SW 6th Ave,Shawnee Management,KS,"Topeka, ",66603
,,,,,,
"Financial Planning Consultants,Insurance",(785) 272-4568,2900 SW Wanamaker Dr,Primerica,KS,"Topeka, ",66614
Professional Engineers,(785) 273-2447,2933 SW Woodside Dr,Pkmr Engineers,KS,"Topeka, ",66614
Consulting Engineers,(785) 272-4706,2930 SW Woodside Dr,Martin Lonnie,KS,"Topeka, ",66614
Alzheimer's Care & Services,(785) 272-6510,4712 SW 6th Ave,Topeka Presbyterian Manor,KS,"Topeka, ",66606
Financial Planning Consultants,(785) 478-3090,3801 SW Wanamaker Rd,Farm Bureau,KS,"Topeka, ",66610
Insurance Adjusters,(785) 478-3090,3801 SW Wanamaker Rd,Hamilton Patricia,KS,"Topeka, ",66610
Investments,(785) 271-2492,6342 SW 21st St,Wells Fargo Advisors,KS,"Topeka, ",66615
Stock & Bond Brokers,(785) 271-2492,6342 SW 21st St,Johnson Sharon,KS,"Topeka, ",66615
Financial Planning Consultants,(785) 438-3000,1 SW Security Benefit Pl,Goldman Richard,KS,"Topeka, ",66636
"Insurance,Financial Planning Consultants",(785) 368-1723,1 SW Security Benefit Pl,Security Benefit,KS,"Topeka, ",66606
"Professional Engineers,Land Surveyors",(785) 272-2252,1200 SW Executive Dr,Bartlett & West Engineers Inc,KS,"Topeka, ",66615
Investment Securities,(785) 478-9200,7625 SW 37th St,Munker Financial,KS,"Topeka, ",66614
Business Coaches & Consultants,(785) 267-7977,108 SE 29th St,4k Consulting,KS,"Topeka, ",66605
Management Consultants,(785) 408-5288,555 S Kansas Ave,Stafford Consulting,KS,"Topeka, ",66603
Business Coaches & Consultants,(785) 273-3000,6600 SW 10th Ave,State & Local Emergency Mgmt Consults,KS,"Topeka, ",66615
Business Coaches & Consultants,(785) 230-9076,628 SE 42nd St,Grant Writing and Consulting Services,KS,"Topeka, ",66609
Business Coaches & Consultants,(785) 232-2557,900 S Kansas Ave,Federico Consulting,KS,"Topeka, ",66612
Business Coaches & Consultants,(785) 408-8866,100 SE 9th St,Watkins & Schneider Consulting,KS,"Topeka, ",66612
Consulting Engineers,(785) 234-8663,501 SE 8th Ave,Tcg,KS,"Topeka, ",66607
Business Coaches & Consultants,(785) 235-3550,825 S Kansas Ave,Pope Consulting,KS,"Topeka, ",66612
Business Coaches & Consultants,(785) 235-2324,800 SW Jackson St Ste 914,Bottenberg John C Consltnt,KS,"Topeka, ",66612
Consulting Engineers,(785) 232-2701,National,National Building Consultants,KS,"Topeka, ",66612
Business Coaches & Consultants,(785) 234-5608,827 SW Topeka Blvd,Rost & Rost Consulting Inc,KS,"Topeka, ",66612
Government Consultants,(785) 845-3376,1843 SW Collins Ave,All Occasions Consulting,KS,"Topeka, ",66604
Business Coaches & Consultants,(785) 273-0770,1612 SW Lakeside Dr,Disability Consulting,KS,"Topeka, ",66604
Consulting Engineers,(785) 235-3601,313 NE Crane St,Welders Prods & Serv of Kansas Inc,KS,"Topeka, ",66603
Consulting Engineers,(785) 232-2701,14901 SW Fairlawn Rd,National Building Consultans,KS,"Topeka, ",66614
Business Coaches & Consultants,(785) 273-8046,5623 SW Hawick Ln,Glenn Smith Consulting,KS,"Topeka, ",66614
Business Coaches & Consultants,(785) 228-9888,5100 SW 10th Ave,Eagle Consulting Inc,KS,"Topeka, ",66604
Business Coaches & Consultants,(785) 271-5789,3605 SW Spring Hill Dr,Becker Consulting,KS,"Topeka, ",66614
,,,,,,
Radio Communications Equipment &...,(785) 862-7450,5225 SW Topeka Blvd,TBS Electronics Inc,KS,"Topeka, ",66609
"Bankruptcy Law Attorneys,Attorneys",(785) 267-7090,512 SW 6th Ave Suite 100,Hinck Gary,KS,"Topeka, ",66603
"Tax Return Preparation,Bookkeeping",(785) 233-4829,512 SW 6th Ave,Harmon Financial & Tax Services LLC,KS,"Topeka, ",66603
"Financial Planners,Mutual Funds",(785) 271-1570,5875 SW 29th St,Foster Financial,KS,"Topeka, ",66614
"Attorneys,Bankruptcy Services",(785) 267-9516,2887 SW Macvicar Ave,"Stumbo Hanson, LLP",KS,"Topeka, ",66611
Asbestos Consulting & Testing,(785) 273-0345,7841 SW 12th St,Dalrymple Enviromental Consulting,KS,"Topeka, ",66615
Fire & Water Damage Restoration,(785) 783-0940,,Servpro of West Topeka,KS,"Topeka, ",66609
Financial Services,(877) 284-8929,3310 SW Harrison St,Income for Life LLC,KS,"Topeka, ",66611
Advertising Agencies,(785) 228-8993,5375 SW 7th St,Trinity Marketing Group,KS,"Topeka, ",66606
Government Consultants,(785) 862-8276,4501 SW Moundview Dr,Midwest Reporters,KS,"Topeka, ",66610
Investment Advisory Service,(785) 234-3427,3630 SW Burlingame Rd,1st Investment Consulting Group Inc,KS,"Topeka, ",66611
Computer Network Design & Systems,(785) 228-3930,3601 SW 29th St,Worksmart Computer Service Inc,KS,"Topeka, ",66614
Marketing Consultants,(785) 273-3990,3601 SW 29th St Ste 134,Sunflower Marketing,KS,"Topeka, ",66614
Web Site Design & Services,(785) 354-7000,2214 SW 10th Ave,Dynamic Computer Solutions,KS,"Topeka, ",66604
Web Site Design & Services,(785) 289-5492,1135 SW Prairie Rd,Rumor Marketing,KS,"Topeka, ",66604
Marketing Programs & Services,(785) 862-3707,7215 SW Topeka Blvd,Promotional Resources,KS,"Topeka, ",66619
Mail & Shipping Services,(785) 233-5662,2600 NW Topeka Blvd,Southwest Publishing & Mailing,KS,"Topeka, ",66617
Web Site Design & Services,(785) 233-6278,2850 SW Mission Woods Dr # 116,Spinnaker,KS,"Topeka, ",66614
Marketing Programs & Services,(785) 232-0061,5342 NW 25th St,SW Caging Corp,KS,"Topeka, ",66618
Professional Engineers,(785) 234-6600,2348 SW Topeka Blvd,Kramer Engineering PA,KS,"Topeka, ",66611
"Surveying Engineers,Consulting Engineers",(785) 233-8300,1263 SW Topeka Blvd,Professional Engineering Consultants,KS,"Topeka, ",66612
"Financial Planning Consultants,Insurance",(785) 296-7095,212 SW 8th Ave,ING Financial Partners,KS,"Topeka, ",66603
Financial Planning Consultants,(785) 232-3266,716 South Kansas Avenue,"Clayton Financial Services, Inc.",KS,"Topeka, ",66603
Mutual Funds,(785) 233-6400,534 S Kansas Ave,Waddell & Reed Inc,KS,"Topeka, ",66603
Financial Planning Consultants,(785) 271-1798,4125 SW Gage Center Dr # 210,Harvest Financial Group Inc,KS,"Topeka, ",66604
Radon Testing & Mitigation,(785) 478-0500,2730 SW 57th St,Advanced Environmental Services Inc,KS,"Topeka, ",66609
Consulting Engineers,(785) 233-3232,3639 SW Summerfield Dr # A,Beardmore Richard PE,KS,"Topeka, ",66614
"Financial Services,Insurance",(785) 273-3777,2110 SW Belle Ave,Primerica,KS,"Topeka, ",66614
Financial Planning Consultants,(785) 272-2132,5825 SW 29th St,Farm Bureau Financial Service,KS,"Topeka, ",66614
Financial Planning Consultants,(785) 271-1798,2930 SW Wanamaker Dr,Harvest Financial Group,KS,"Topeka, ",66614
,,,,,,
"Land Surveyors,Consulting Engineers",(785) 267-5071,320 SW 33rd St,C P Engineers & Land Surveyors,KS,"Topeka, ",66611
"Financial Planning Consultants,Insurance",(785) 266-1200,3311 SW Van Buren St,Kansas Financial Resources Inc,KS,"Topeka, ",66611
"Accounting Services,Bookkeeping",(785) 267-7100,2919 SW Topeka Blvd,Accounting Center Inc,KS,"Topeka, ",66611
"Financial Planning Consultants,Insurance",(785) 266-8333,3706 SW Topeka Blvd,T & M Financial Inc,KS,"Topeka, ",66609
Financial Planning Consultants,(785) 266-9111,3706 SW Topeka Blvd,Perkins Smart & Boyd Inc,KS,"Topeka, ",66609
Stock & Bond Transfer Agents,(785) 266-9111,3706 SW Topeka Blvd,Foree Eddie,KS,"Topeka, ",66609
Records Management Consulting & Service,(785) 806-3319,400 SW Granthurst Ave.,"Rachel Deaver, CBCP",KS,"Topeka, ",66611
Employee Benefit Consulting Services,(785) 233-2790,2348 SW Topeka Blvd,Wanamaker Stephen,KS,"Topeka, ",66611
Business Coaches & Consultants,(785) 232-1835,2036 SE Quincy St,Imperial Trading Inc,KS,"Topeka, ",66612
Financial Planning Consultants,(785) 274-4520,2100 SE 29th St,Umb Financial Service Inc,KS,"Topeka, ",66605
Financial Planning Consultants,(785) 274-4520,2100 SE 29th St,Basco Wayne,KS,"Topeka, ",66605
Business Coaches & Consultants,(785) 234-3235,1608 SW 37th St,Small Business Administration,KS,"Topeka, ",66611
"Financial Planning Consultants,Insurance",(785) 478-2806,1609 SW 37th St,Thrivent Financial-Lutherans,KS,"Topeka, ",66611
"Professional Engineers,Architects",(785) 291-0400,900 S Kansas Ave,Certus Structural Engineers,KS,"Topeka, ",66612
Financial Planning Consultants,(785) 221-7460,3023 SE Mareta Cir,Infinity Investments Cir,KS,"Topeka, ",66605
"Insurance,Business Coaches & Consultants",(785) 215-8681,4403 SE Oakwood St,Insurance Consultants,KS,"Topeka, ",66609
Investments,(785) 266-1900,1303 SW 42nd St,Triton Investment,KS,"Topeka, ",66609
Business Coaches & Consultants,(785) 608-2120,4430 SE Oakview Ln,Teach,KS,"Topeka, ",66609
Financial Planning Consultants,(785) 266-6002,2909 SW Plass Ct,Lord's Financial Planning,KS,"Topeka, ",66611
Financial Planning Consultants,(785) 232-0373,1800 SW Harrison St,HD Vest Financial Services,KS,"Topeka, ",66612
Tax Return Preparation,(785) 272-1040,1800 SW Harrison St,Capital Income Tax,KS,"Topeka, ",66612
Financial Planning Consultants,(785) 267-2631,3641 SW Plass Ave,"Lawhorn, Darin",KS,"Topeka, ",66611
"Tax Return Preparation,Bookkeeping",(785) 862-9911,1001 SE 45th St,M & M. Accounting & Tax Services,KS,"Topeka, ",66609
Financial Planning Consultants,(785) 267-1657,3404 SW Jardine Ter,Hill Denis E,KS,"Topeka, ",66611
Financial Planners,(785) 232-0373,1516 SW Topeka Blvd,Hd Vest Financial Services,KS,"Topeka, ",66612
Business Coaches & Consultants,(785) 266-1035,1430 SW Topeka Blvd Fl 3,Sekesc,KS,"Topeka, ",66612
"Consulting Engineers,Civil Engineers",(785) 215-8630,1415 SW Topeka Blvd.,"Schmidt, Beck & Boyd Engineering, LLC",KS,"Topeka, ",66612
Advertising Agencies,(785) 266-8769,3623 SW Woodvalley Ter,Brevitz Consulting Service,KS,"Topeka, ",66614
Public Relations Counselors,(785) 233-4512,825 S Kansas Ave # 500,Gaches Braden & Associates,KS,"Topeka, ",66612
Credit & Debt Counseling,(785) 234-0217,1195 SW Buchanan St,Housing & Credit Counseling,KS,"Topeka, ",66604
Business Coaches & Consultants,(785) 232-1319,807 S Kansas Ave,Nikken Wellnes Consultant,KS,"Topeka, ",66612
Business Coaches & Consultants,(785) 234-1533,1161 sw Clay street ste B,Proactive Business solution,KS,"topeka, ",66604
"Construction Management,Civil Engineers",(785) 249-1885,"3601 SW 29th Street, Suite 107","Sunflower Design, LLC",KS,"Topeka, ",66614
"Association Management,Associations",(785) 271-0208,800 SW Jackson St # 1500,Centric Management and Consulting,KS,"Topeka, ",66612
Financial Planning Consultants,(785) 232-3465,800 SW Jackson St,Royal Alliance Associates,KS,"Topeka, ",66612
Business Coaches & Consultants,(785) 233-1903,212 SW 8th Ave,Capital Strategies,KS,"Topeka, ",66603
Investment Advisory Service,(785) 273-8555,3601 SW 29th St,Bundy Enterprises,KS,"Topeka, ",66614
"Bookkeeping,Accounting Services",(785) 408-5445,3615 SW 29th St,Simply Solutions Inc,KS,"Topeka, ",66614
Accountants-Certified Public,(785) 273-3002,3615 SW 29th St,Anderson Gayle R CPA,KS,"Topeka, ",66614
Financial Services,(785) 271-1033,3615 SW 29th St,Royal Alliance Assoc Inc,KS,"Topeka, ",66614
Business Coaches & Consultants,(785) 228-0800,1320 SW Topeka Blvd,T K Business Svc Inc,KS,"Topeka, ",66612
Investment Advisory Service,(785) 440-4040,3500 SW Birchwood Dr,Investment Planners of Kansas,KS,"Topeka, ",66614
Financial Planning Consultants,(785) 783-8586,2032 SW Wayne Ave,Rak Investments I I,KS,"Topeka, ",66604
Trust Companies,(785) 273-9993,900 S Kansas Ave,G Trust,KS,"Topeka, ",66612
,,,,,,
Employee Benefit Consulting Services,(785) 235-5210,901 SW 10th Ave,Employee Benefit Service Inc,KS,"Topeka, ",66604
Financial Services,(785) 215-6675,719 SW Van Buren St,Jones Advisory Group,KS,"Topeka, ",66603
Stock & Bond Brokers,(785) 233-0366,634 S Kansas Ave,"Casebeer, Brian",KS,"Topeka, ",66603
Social Security Services,(785) 235-9402,1264 SW Plass Ave,Radford Consulting On Social Security,KS,"Topeka, ",66604
"Financial Services,Insurance",(785) 232-2266,612 S Kansas Ave,Northwestern Mutual Financial Network,KS,"Topeka, ",66603
Business Plans Development,(785) 234-3235,120 SE 6th Ave # 110,Small Business Development Ctr,KS,"Topeka, ",66603
Financial Planning Consultants,(785) 233-4071,120 SE 6th Ave,OFG Financial Services Inc,KS,"Topeka, ",66603
Computer Technical Assistance &...,(785) 232-1356,120 SE 6th Ave,TSR Inc,KS,"Topeka, ",66603
Business Documents & Records-Storage...,(866) 710-3789,601 Southeast 5th Street,Jayhawk File Express LLC,KS,"Topeka, ",66607
Mutual Funds,(785) 233-4571,112 SW 6th Ave,Rosselot & Van Buren,KS,"Topeka, ",66603
Tax Return Preparation,(785) 232-2387,112 SW 6th Ave,Plan Professionals Limited,KS,"Topeka, ",66603
Financial Planning Consultants,(785) 354-0297,112 SW 6th Ave,Spurlock Financial Service,KS,"Topeka, ",66603
Financial Planning Consultants,(785) 357-6278,601 S Kansas Ave,Ameriprise Financial,KS,"Topeka, ",66603
Financial Planning Consultants,(785) 357-6278,601 S Kansas Ave # 1035,Hanna James,KS,"Topeka, ",66603
Financial Planning Consultants,(785) 357-6125,601 S Kansas Ave # 1035,Sica Frank,KS,"Topeka, ",66603
Business Coaches & Consultants,(785) 379-5738,3 SW Westboro Pl,Rolfe Mandel,KS,"Topeka, ",66604
,,,,,,
Financial Planning Consultants,(785) 272-0992,5653 SW 35th Ter,Gary L Dick Financial Service,KS,"Topeka, ",66614
Investment Securities,(785) 272-5000,5835 SW 29th St # 201,Cambridge Investment Research,KS,"Topeka, ",66614
"Investment Advisory Service,Investments",(785) 272-5000,5835 SW 29th St,Tucker Financial Services,KS,"Topeka, ",66614
Business Coaches & Consultants,(785) 375-2998,1903 SW 66th St,Abrown Corp,KS,"Topeka, ",66619
Investment Advisory Service,(785) 290-0009,5863 SW 29th St,Regier Jim,KS,"Topeka, ",66614
Financial Planning Consultants,(785) 271-6878,5875 SW 29th St,Foster C Franklin,KS,"Topeka, ",66614
Business Coaches & Consultants,(214) 521-2921,5645 SW Hawick Ln,Bossler Design Services,KS,"Topeka, ",66614
Investment Advisory Service,(785) 272-4200,5879 SW 29th St,Minnick Capital Management,KS,"Topeka, ",66614
Financial Planning Consultants,(785) 233-8900,2942 SW Wanamaker Dr,Rogenmoser Financial Services,KS,"Topeka, ",66614
Business Coaches & Consultants,(785) 228-1080,2900 SW Wanamaker Dr,Dean McWilliams,KS,"Topeka, ",66614
"Financial Planning Consultants,Insurance",(785) 273-6501,5931 SW 31st Ter,AXA Equitable,KS,"Topeka, ",66614
Tax Return Preparation,(785) 272-3176,990 SW Fairlawn Rd,CBIZ Accounting Tax & Advisory,KS,"Topeka, ",66606
Financial Planning Consultants,(785) 274-4520,5923 SW 29th St,Umb Financial Service Inc,KS,"Topeka, ",66614
Stock & Bond Brokers,(785) 274-4520,5923 SW 29th St,Basco Wayne,KS,"Topeka, ",66614
Financial Planning Consultants,(785) 267-4400,2813 SW Westport Plaza Dr,First Asset Financial,KS,"Topeka, ",66614
Rest Homes,(785) 228-0222,5909 SW 28th St,Retirement & Tax Solutions,KS,"Topeka, ",66614
Investment Advisory Service,(785) 440-4040,5950 SW 28th St,Investment Planners Of Kansas,KS,"Topeka, ",66614
Consulting Engineers,(785) 272-4706,2930 SW Woodside Dr,Flatt Douglas W Engr,KS,"Topeka, ",66614
Financial Services,(785) 215-8165,3024 SW Wanamaker Rd,Dcurry Inc,KS,"Topeka, ",66614
Financial Planning Consultants,(785) 408-5444,3024 SW Wanamaker Rd,Carlson & Company Financial Services,KS,"Topeka, ",66614
Business Documents & Records-Storage...,(785) 232-7206,1936 NW Lower Silver Lake Rd,Professional Records Mgmt,KS,"Topeka, ",66608
"Federal Government,Consulting Engineers",(785) 228-5512,2641 SW Wanamaker Rd,USDA Risk Management Agency,KS,"Topeka, ",66614
Stock & Bond Brokers,(785) 271-1300,2445 SW Wanamaker Rd Ste 100,Stifel Nicolaus & Company Inc,KS,"Topeka, ",66614
"Financial Planners,Financing Consultants",(785) 290-0008,3735 SW Wanamaker Rd Ste B,Ryan Rick,KS,"Topeka, ",66610
Financial Planning Consultants,(785) 290-0008,3735 SW Wanamaker Rd Ste B,Alpha Asset Management,KS,"Topeka, ",66610
Financial Planning Consultants,(785) 228-1404,3735 SW Wanamaker Rd Ste C,Topadviser,KS,"Topeka, ",66610
Business Coaches & Consultants,(785) 608-2120,3927 SW Twilight Dr # 110,Teach,KS,"Topeka, ",66614
Business & Economic Development,(785) 440-4249,3735 SW Wanamaker Rd,Expansion Strategies,KS,"Topeka, ",66610
Business Coaches & Consultants,(785) 260-7770,3745 SW Wanamaker Rd,Prometheus Inc,KS,"Topeka, ",66610
Investment Advisory Service,(785) 273-5402,3735 SW Wanamaker Rd Ste B,Integrated Wealth Advisors,KS,"Topeka, ",66610
Financial Services,(785) 273-3009,6111 SW 29th St,Joy And Company,KS,"Topeka, ",66614
,,,,,,
Financial Planning Consultants,(785) 354-4342,534 S Kansas Ave,Hill Denis E,KS,"Topeka, ",66603
Financial Planning Consultants,(785) 354-4342,534 S Kansas Ave,Securities America Inc,KS,"Topeka, ",66603
"Stock & Bond Brokers,Investments",(785) 235-9281,534 S Kansas Ave # 101,Oppenheimer & Co Inc,KS,"Topeka, ",66603
Financial Planning Consultants,(785) 357-6278,534 S Kansas Ave,Foster Max,KS,"Topeka, ",66603
Financial Planning Consultants,(785) 357-6278,534 S Kansas Ave # 1035,Aldrich Frederick B,KS,"Topeka, ",66603
Accountants-Certified Public,(785) 232-6923,802 SW Buchanan St,Midwest Tax & Financial,KS,"Topeka, ",66606
Accountants-Certified Public,(785) 272-4912,4109 SW 29th St,Honaker & Co,KS,"Topeka, ",66614
Financial Planning Consultants,(785) 232-9101,1448 SW Oakley Ave,Money Management Financial Planning,KS,"Topeka, ",66604
"Insurance,Financing Consultants",(785) 232-8774,1448 SW Oakley Ave,Lord James R,KS,"Topeka, ",66604
Consulting Engineers,(785) 271-6644,3501 SW Gage Blvd,Brack & Associates,KS,"Topeka, ",66614
"Investment Management,Financial Services",(785) 783-3480,1919 SW 10th Ave,Connor Wealth Management,KS,"Topeka, ",66604
Business Coaches & Consultants,(785) 266-2164,4009 SW 39th Ter,Twia Professional Conslnt Service,KS,"Topeka, ",66610
"Foresters,Forestry Consulting",(785) 368-3758,201 NW Topeka Blvd,Topeka Forestry Dept,KS,"Topeka, ",66603
Financial Planning Consultants,(785) 665-3022,3623 SE 29th St,Ameritime Compass Financial,KS,"Topeka, ",66605
Employee Benefit Consulting Services,(785) 272-2354,3118 SW Prairie Rd,Harvard Benefits,KS,"Topeka, ",66614
Business Coaches & Consultants,(785) 554-4524,322 SW Elmwood Ave,Magic Meals Personal Chefs,KS,"Topeka, ",66606
Financial Planning Consultants,(785) 272-1301,3311 SE Meadowview Dr,Edward Jones,KS,"Topeka, ",66605
Financial Planning Consultants,(785) 215-8003,814 SW Warren Ave,Diamante Relations Investment Group,KS,"Topeka, ",66606
Business Coaches & Consultants,(785) 273-8500,4630 SW 17th St,Fitzpatrick Associates,KS,"Topeka, ",66604
Business Coaches & Consultants,(785) 273-8595,4630 SW 17th St,Family Business Resource Center,KS,"Topeka, ",66604
Computer Network Design & Systems,(785) 228-1404,5101 SW 21st Street,"TOPAdviser Office Solutions, LLC",KS,"Topeka, ",66604
Financial Planning Consultants,(785) 273-5402,5101 SW 21st St,Integrated Wealth Advisors Inc,KS,"Topeka, ",66604
Financial Planning Consultants,(785) 273-4168,3620 SW Fairlawn Rd,Quantum Wealth Advisors,KS,"Topeka, ",66614
Investments,(785) 272-3900,1701 SW Fairlawn Rd,Reinert Wealth Management,KS,"Topeka, ",66604
Business Coaches & Consultants,(785) 271-9300,5601 SW Barrington Ct S,H M S,KS,"Topeka, ",66614
Business Coaches & Consultants,(785) 272-8248,5817 SW 26th St,David A Hedstrom Assoc,KS,"Topeka, ",66614
"Consulting Engineers,Civil Engineers",(785) 234-6600,4336 SE 37th,"Kramer Consulting, LLC",KS,"Topeka, ",66605
Tax Return Preparation-Business,(785) 272-4484,5825 SW 29th St,"SS&C Solutions, Inc.",KS,"Topeka, ",66614
Pension & Profit Sharing Plans,(785) 272-1086,5709 SW 21st St Suite 100,Edward Jones,KS,"Topeka, ",66604
,,,,,,
Financial Planners,(785) 289-5509,5835 SW 29th St Suite 201,Tucker Financial Services,KS,"Topeka, ",66614
"Advertising Agencies,Graphic Designers",(785) 354-8596,,Graphic Art Of Topeka,KS,"Topeka, ",66614
Financial Planners,(785) 232-3266,534 S Kansas Ave,"Clayton Financial Services, Inc.",KS,"Topeka, ",66603
"Credit Unions,Financial Services,Loans",(785) 271-6900,2808 SW Arrowhead Rd,Educational Credit Union,KS,"Topeka, ",66614
Accountants-Certified Public,(785) 272-6234,2800 SW Wanamaker Rd,Bradley E Hammel,KS,"Topeka, ",66614
Financial Services,(785) 286-0811,4745 NW Hunters Ridge Cir Suite F,Edward Jones - Financial Advisor: Gary D Starr,KS,"Topeka, ",66618
Computer Network Design & Systems,(785) 267-3223,2001 SW Gage Blvd,The Computer Store / Network Technologies,KS,"Topeka, ",66604
Financial Services,(785) 266-0850,515 SW 37th St Suite 101,Edward Jones - Financial Advisor: Thad Allen,KS,"Topeka, ",66611
Financial Services,(785) 273-1904,3718 SW Burlingame Rd,Edward Jones - Financial Advisor: Kasey D Priddy,KS,"Topeka, ",66609
Financial Services,(785) 228-1238,3124 SW 29th St Suite 4,Edward Jones - Financial Advisor: Joseph A Roberson,KS,"Topeka, ",66614
Financial Services,(785) 233-0366,634 S Kansas Ave,Edward Jones - Financial Advisor: Kenton S Cox,KS,"Topeka, ",66603
Financial Services,(785) 266-2265,3310 SE 29th St Suite 700,Edward Jones - Financial Advisor: Craig S Freeman,KS,"Topeka, ",66605
Financial Services,(785) 273-0110,3100 SW Huntoon St Suite 101,Edward Jones - Financial Advisor: Valerie J Nelson,KS,"Topeka, ",66604
Financial Services,(785) 272-1831,4101 SW Gage Center Dr,Edward Jones - Financial Advisor: Matt Wurtz,KS,"Topeka, ",66604
Financial Services,(785) 272-1301,3512 SW Fairlawn Rd Suite 100,Edward Jones - Financial Advisor: John A Gascon,KS,"Topeka, ",66614
Financial Services,(785) 272-1301,3512 SW Fairlawn Rd Suite 100,Edward Jones - Financial Advisor: Lief E Nelson,KS,"Topeka, ",66614
Financial Services,(785) 273-2277,4009 SW 10th Ave,Edward Jones - Financial Advisor: Mark E Schwartz,KS,"Topeka, ",66604
Financial Services,(785) 273-0087,5622 SW 29th St,Edward Jones - Financial Advisor: Sandra Davis,KS,"Topeka, ",66614
Financial Services,(785) 271-1624,301 SW Gage Blvd Suite 101,Edward Jones - Financial Advisor: Nancy J Sumpter,KS,"Topeka, ",66606
Financial Services,(785) 271-7088,2655 SW Wanamaker Rd Suite B,Edward Jones - Financial Advisor: Jahnnie A Brake,KS,"Topeka, ",66614
Financial Services,(785) 228-1045,5844 SW Huntoon St Suite 300,Edward Jones - Financial Advisor: Jonathan Didde,KS,"Topeka, ",66604
Financial Services,(785) 354-7180,605 NW US Highway 24 Suite 104,Edward Jones - Financial Advisor: Kelly S Donaldson,KS,"Topeka, ",66608
Financial Services,(785) 286-0811,4745 NW Hunters Ridge Cir Suite F,Edward Jones - Financial Advisor: Cassi Nelson,KS,"Topeka, ",66618
Tax Return Preparation,(785) 272-3176,990 SW Fairlawn Rd,"CBIZ MHM, LLC",KS,"Topeka, ",66606
"Advertising Agencies,Commercial Artists",(785) 272-8932,5942 SW 29th St Ste B,Friesen Design,KS,"Topeka, ",66614
Building Construction Consultants,(785) 235-1511,531 NW Tyler Ct,PDQ Construction Inc,KS,"Topeka, ",66608
Carpet & Rug Cleaners,(785) 380-8117,4900 SW Topeka Blvd,ServiceMaster Cleaning Services by AAA,KS,"Topeka, ",66609
Psychotherapists,(785) 224-5798,5990 SW 28th St Suite H,"Parker, Sheri L LSCSW",KS,"Topeka, ",66614
Funeral Directors,(785) 272-7888,2801 SW Urish Rd,Kevin Brennan Family Funeral Home,KS,"Topeka, ",66614
"Investment Securities,Financial Services",(785) 271-1033,3615 SW 29th St,Morgan Penny Financial Service,KS,"Topeka, ",66614
,(877) 206-8692,,,,,
,(785) 289-5509,5835 SW 29th St Suite 201,,KS,"Topeka, ",66614
,(501) 753-0202,,,,,
,,,,,,
Financial Planners,(785) 215-8080,1414 SW Ashworth Pl # 201,Reardon Jim,KS,"Topeka, ",66604
"Financial Planning Consultants,Insurance",(785) 228-5233,1414 SW Ashworth Pl Ste 100,Friedstrom Richard K,KS,"Topeka, ",66604
"Financial Planning Consultants,Insurance",(785) 228-5272,1414 SW Ashworth Pl,Richardson Guy E Ins Invstmnts,KS,"Topeka, ",66604
Financial Planning Consultants,(785) 783-3532,1225 SW Harvey St,Legacy Financial Partners,KS,"Topeka, ",66604
"Financial Planning Consultants,Insurance",(785) 271-1446,3430 SW Alameda Dr,Boyd Financial Services,KS,"Topeka, ",66614
Consulting Engineers,(785) 272-6830,1129 SW Wanamaker Rd Ste 101,Johnson Brad PE,KS,"Topeka, ",66604
Consulting Engineers,(785) 272-6830,1129 SW Wanamaker Rd,AMEC Engineering Inc,KS,"Topeka, ",66604
"Insurance,Financial Planning Consultants",(785) 234-8600,6342 SW 21st St,Modern Woodmen of America,KS,"Topeka, ",66615
Financial Planning Consultants,(785) 291-1003,1064 SW Wanamaker Rd,US Investments,KS,"Topeka, ",66604
Investments,(785) 273-3334,4200 SW Lincolnshire Rd,Miller Brad T.,KS,"Topeka, ",66610
Financial Planning Consultants,(785) 354-7180,605 NW US Highway 24,"Lee, Valerie J",KS,"Topeka, ",66608
Financial Planning Consultants,(785) 266-0850,605 NW US Highway 24,"Allen, Thad",KS,"Topeka, ",66608
Safety Consultants,(785) 266-1006,4111 NW 16th St,Safety Supplies Inc,KS,"Topeka, ",66618
Business Coaches & Consultants,(785) 845-5564,3917 SW 40th St,Precision Data Management,KS,"Topeka, ",66610
Financial Planning Consultants,(785) 408-8882,3124 SW Staffordshire Rd,Tarkenton Financial,KS,"Topeka, ",66614
Business Coaches & Consultants,(785) 354-1210,850 NE US Highway 24,Topeka Pump,KS,"Topeka, ",66608
Business Coaches & Consultants,(785) 408-5251,2850 SW Mission Woods Dr,Jc & Associates,KS,"Topeka, ",66614
Stump Removal & Grinding,(785) 286-2922,307 NE Spruce Ln,Eagle Consulting Service Inc,KS,"Topeka, ",66617
Investment Advisory Service,(785) 273-2685,6540 SW 10th Ave,Cornerstone Advisors,KS,"Topeka, ",66615
Financial Planning Consultants,(785) 272-6789,6540 SW 10th Ave,Hesse Lawrence J Financial Services,KS,"Topeka, ",66615
Business Coaches & Consultants,(785) 273-3000,6600 SW 10th Ave,Em Fusion,KS,"Topeka, ",66615
Business Coaches & Consultants,(785) 478-9780,2801 SW Rother Rd,Olson B S,KS,"Topeka, ",66614
Business Coaches & Consultants,(785) 783-7267,3234 NE Happy Hollow Rd,Sheryl Stanley Associates,KS,"Topeka, ",66617
Financial Planning Consultants,(785) 478-0408,7817 SW Indian Woods Pl,Fagan Financial Services Inc,KS,"Topeka, ",66615
Business Coaches & Consultants,(785) 286-0112,4116 NE Kimbal Rd,Prostler & Associates,KS,"Topeka, ",66617
Greenhouse Builders & Equipment,(785) 267-4514,8040 SW 61st St,Energy Consulting Associates,KS,"Topeka, ",66610
Business Coaches & Consultants,(785) 478-1633,8843 SW 10th Ave,White Ronald Plbr,KS,"Topeka, ",66615
Business Coaches & Consultants,(785) 478-3351,3620 SW Hodges Rd,Color Connections Inc,KS,"Topeka, ",66614
"Accountants-Certified Public,Bookkeeping",(785) 256-6800,5828 SW Douglas Rd,Schweer Joan J EA,KS,"Topeka, ",66610
Investment Advisory Service,(785) 580-8549,513 SW Arrowhead Rd Ste 102,"S M Edmonds Financials, Inc.",KS,"Topeka, ",66604
,,,,,,
Computer Network Design & Systems,(785) 380-0195,,"Kansas Web Services, Inc.",KS,"Topeka, ",66609
Business Coaches & Consultants,(785) 273-6400,,Genus Consulting,KS,"Topeka, ",66614
Computer System Designers & Consultants,(785) 267-3706,,Eclectic Technology,KS,"Topeka, ",66611
Marketing Programs & Services,(785) 478-3757,,Marketing International Inc,KS,"Topeka, ",66604
Marketing Programs & Services,(785) 408-5165,,Shultz Marketing,KS,"Topeka, ",66603
Financial Planning Consultants,(785) 272-1086,,Edward Jones,KS,"Topeka, ",66617
Financial Planning Consultants,(785) 266-4929,,Debt Settlement,KS,"Topeka, ",66611
Financial Planning Consultants,(785) 286-1771,,Cox Kenton S,KS,"Topeka, ",66617
Credit & Debt Counseling,(785) 266-4929,,Credit Repair,KS,"Topeka, ",66601
,(785) 273-2587,3001 SW Lincolnshire Rd,S-Consulting,KS,"Topeka, ",66614
Business Coaches & Consultants,(785) 383-9279,,Applied Performance Consulting,,,
"Franchising,Investments",(866) 934-7167,,Sunshine Franchise Consulting & Brokerage,,,
Secretarial Services,(800) 897-9880,,Ability Answering Service,,,
,(877) 365-4068,,Alpha Consulting Group,,,
Credit & Debt Counseling,(877) 206-8692,,ClearPoint Credit Counseling Solutions,,,
Sports & Entertainment Ticket Sales,(662) 325-2323,,Mississippi State University,,,
Mutual Funds,(888) 891-1510,,Edward Jones,,,
Employment Opportunities,(888) 836-6294,,Liberty Consulting,,,
Tax Return Preparation-Business,(855) 807-8533,,Dartmouth Financial & Tax Consulting,,,
Stock & Bond Brokers,(888) 891-1502,,Edward Jones,,,
Financial Services,(888) 891-1491,,Edward Jones,,,
Investment Securities,(888) 891-1492,,Edward Jones,,,
Investments,(888) 891-1511,,Edward Jones,,,
Computer System Designers & Consultants,(877) 938-2191,,AT&T,,,
Web Site Hosting,(888) 502-0802,,Kell Web Solutions Inc.,,,
Management Consultants,(888) 279-5769,,Soyring Consulting Inc,,,
Communication Consultants,(888) 731-1352,,Tellennium,,,
Records Destruction,(888) 350-9135,,Shred Nations,,,
Computer Technical Assistance &...,(866) 698-8604,,Techs In A Sec,,,
"Call Centers,Telephone Answering Service",(800) 369-8908,,CMS Customer Solutions,,,
,,,,,,
"Financial Planning Consultants,Insurance",(785) 437-3230,9971 NW US Highway 24,Haverkamp Chris,KS,"Silver Lake, ",66539
Consulting Engineers,(785) 582-4050,617 Walnut St,Rueck Associates,KS,"Silver Lake, ",66539
Consulting Engineers,(785) 582-4787,617 Walnut St,Computers Et Cetra,KS,"Silver Lake, ",66539
General Contractor Engineers,(785) 856-3360,2029 Becker Dr,360 Energy Engineers,KS,"Lawrence, ",66047
Business Coaches & Consultants,(785) 832-2110,2029 Becker Dr,Lawrence Regional Technology Center,KS,"Lawrence, ",66047
Financial Planning Consultants,(785) 484-2409,7272 K4 Hwy,Farm Bureau Financial Services,KS,"Meriden, ",66512
Financial Planning Consultants,(785) 836-7200,417 S Topeka St,Farm Bureau Financial Services,KS,"Carbondale, ",66414
Financial Planning Consultants,(785) 582-5805,323 W Railroad St,"Schwartz, Bob",KS,"Silver Lake, ",66539
Advertising Agencies,(785) 246-3229,5240 Decatur Rd,Jenny Lake Consulting Inc,KS,"Meriden, ",66512
Business Coaches & Consultants,(785) 691-9748,468 N 1700 Rd,Norman Ecological Consltng,KS,"Lawrence, ",66049
Financial Services,(785) 528-8177,516 Market St,Edward Jones - Financial Advisor: Robyn M Williams,KS,"Osage City, ",66523
Financial Services,(785) 364-4662,118 W 5th St,Edward Jones - Financial Advisor: Shannon L Wright,KS,"Holton, ",66436
"Investment Management,Investments",(800) 928-6468,,Austin Rare Coins & Bullion,,,
Computer Network Design & Systems,(316) 267-5016,,Communications Technology Associates Inc,,,
Mold Remediation,(913) 492-1346,,B&R Environmental Services and Demolition,,,
,,,,,,
"Mold Remediation,Testing Labs",(888) 610-2161,,ACM Engineering & Environmental,,,
Computers & Computer Equipment-Service...,(240) 720-1995,,PC eSupport National Computer Repair,,,
Taxes-Consultants & Representatives,(888) 301-8244,,Tax Remedy Consulting,,,
Assisted Living Facilities,(888) 294-1308,,Senior Advisor,,,
Business Documents & Records-Storage...,(866) 264-1936,,Iron Mountain,,,
"Call Centers,Telecommunications Services",(800) 230-9875,,AnswerNet,,,
Barbecue Grills & Supplies,(888) 358-9324,,Royal Swimming Pools Inc.,,,
Paper-Shredded,(866) 233-4430,,Iron Mountain,,,
Computer Data Recovery,(888) 360-6035,,Iron Mountain,,,
Construction & Building Equipment,(831) 634-2970,,Tovar Industries Inc,,,
Real Estate Inspection Service,(785) 478-2224,,Anderson Home Inspections,,,
Swimming Pool Construction,(866) 210-1784,,Four Seasons Pools & Spas,,,
Document Imaging,(888) 766-4128,,Royal Imaging Services LLC,,,
Telecommunications Services,(785) 862-7450,,TBS Electronics Inc,,,
Telephone Answering Service,(920) 490-7000,,Anser- Call Answering Service,,,
Computer & Equipment Dealers,(785) 364-2018,,Business M.D.,KS,"Holton, ",66436
Financial Services,(785) 863-2092,PO Box 323,Edward Jones - Financial Advisor QUENTIN L DAVIS,KS,"Oskaloosa, ",66066
Business Management,(785) 640-9936,,"Drinon & Associates, Inc.",,,
Internet Consultants,(785) 228-9998,,DogLegs Com,,,
Computer Network Design & Systems,(785) 234-5071,,A^+Handyman,,,
Marketing Consultants,(785) 478-3757,,Marketing International,,,
"Insurance,Agriculture Insurance",(785) 235-0023,,Menke Dwight D Insurance,,,
Financial Planning Consultants,(785) 267-9323,,Equi Trust Financial Svc,,,
Safety Consultants,(913) 888-8288,,Safety Consulting Inc,,,
Financial Planning Consultants,(785) 256-7700,841 N Washington St,Farm Bureau Financial Services Auburn Office,KS,"Auburn, ",66402
Marketing Consultants,(785) 836-3117,10542 SE Ratner Rd,Vernon Co,KS,"Berryton, ",66409
Financial Planning Consultants,(785) 267-6556,846 SE 101st St,Leasa Huffman,KS,"Wakarusa, ",66546
Business & Vocational Schools,(785) 783-8201,140 W 9th St,Investment Training & Consulting,KS,"Auburn, ",66402
Commodity Brokers,(785) 582-5494,9971 NW US Highway 24,Paragon Investments Inc,KS,"Silver Lake, ",66539
Financial Planning Consultants,(785) 582-4047,9971 NW US Highway 24,Firm Buereo Financial Service,KS,"Silver Lake, ",66539
,,,,,,
