category,phone,streetAddress,name,addressState,addressCity,addressZip
"Family Law Attorneys,Divorce Attorneys",(785) 380-0585,534 S Kansas Ave Suite 1120,"Patton, Joe",KS,"Topeka, ",66603
"General Practice Attorneys,Attorneys",(785) 233-9665,1324 SW Topeka Blvd,Tilton & Tilton Chtd.,KS,"Topeka, ",66612
"Attorneys,Probate Law Attorneys",(785) 235-6977,112 SW 6th Ave,Nystrom Law Office,KS,"Topeka, ",66603
Attorneys,(785) 380-4461,1400 SW Topeka Blvd,Cary L. Standiferd,KS,"Topeka, ",66612
"Attorneys,Drug Charges Attorneys",(785) 233-5887,100 SE 9th St,Hoffman & Hoffman,KS,"Topeka, ",66612
Attorneys,(785) 246-8697,1208 SW Tyler St,Cook & Fisher LLP,KS,"Topeka, ",66612
"Tax Attorneys,Attorneys",(877) 886-1918,,AAA Tax Relief,,,
Tax Return Preparation-Business,(888) 511-4058,,AAA Tax Relief,,,
"General Practice Attorneys,Attorneys",(785) 233-9665,1324 SW Topeka Blvd,Tilton & Tilton Chtd.,KS,"Topeka, ",66612
Attorneys,(785) 246-8697,1208 SW Tyler St,Cook & Fisher LLP,KS,"Topeka, ",66612
"Family Law Attorneys,Divorce Attorneys",(785) 380-0585,534 S Kansas Ave Suite 1120,"Patton, Joe",KS,"Topeka, ",66603
Attorneys,(785) 380-4461,1400 SW Topeka Blvd,Cary L. Standiferd,KS,"Topeka, ",66612
"Attorneys,Probate Law Attorneys",(785) 235-6977,112 SW 6th Ave,Nystrom Law Office,KS,"Topeka, ",66603
"Attorneys,Drug Charges Attorneys",(785) 233-5887,100 SE 9th St,Hoffman & Hoffman,KS,"Topeka, ",66612
"Attorneys,Malpractice Law Attorneys",(785) 273-8002,2913 SW Maupin Ln,"Ralston, Pope & Diehl LLC",KS,"Topeka, ",66614
Criminal Law Attorneys,(785) 380-0587,2813 SW Westport Plaza Dr,Malcolm L Copeland,KS,"Topeka, ",66614
Criminal Law Attorneys,(785) 440-4000,2942 -A SW Wanamaker Dr,Cavanaugh & Lemon PA,KS,"Topeka, ",66614
Attorneys,(785) 379-3890,3601 SW 29th St,"Taff Frank D, Attorney At Law",KS,"Topeka, ",66614
Mediation Services,(785) 246-8667,2348 SW Topeka Blvd,"Palmer, Leatherman White & Girard",KS,"Topeka, ",66611
Construction Law Attorneys,(785) 246-8715,100 SE 9th St,Cooper & Lee LLC,KS,"Topeka, ",66612
"Attorneys,Legal Service Plans",(785) 267-0055,3706 SW Topeka Blvd Ste 102,Heathman Law Office,KS,"Topeka, ",66609
"Attorneys,Personal Injury Law Attorneys",(785) 379-3854,222 SW 7th St,"Bryan Lykins, Hejtmanek & Fincher PA",KS,"Topeka, ",66603
"Attorneys,Criminal Law Attorneys",(785) 246-8664,921 SW Topeka Blvd,"Swinnen & Associates, LLC",KS,"Topeka, ",66612
"Attorneys,Criminal Law Attorneys",(785) 233-9467,1610 SW Topeka Blvd,Law Firm of Tenopir & Huerter,KS,"Topeka, ",66612
"Attorneys,Personal Injury Law Attorneys",(785) 357-6311,534 S Kansas Ave,Sloan Eisenbarth Glassman McEntire & Jarboe LLC,KS,"Topeka, ",66603
"Attorneys,Family Law Attorneys",(785) 228-6680,3615 SW 29th St,Debenham Law Office LLC,KS,"Topeka, ",66614
Automobile Accident Attorneys,(785) 380-4551,212 SW 8th Ave,"Pearson, George H III",KS,"Topeka, ",66603
Transportation Law Attorneys,(785) 232-4004,634 S Kansas Ave,Kevin P. Shepherd Attorney at Law,KS,"Topeka, ",66603
Workers Compensation Assistance,(785) 354-1100,1414 SW Ashworth Pl,"Frieden, Unrein & Forbes LLP",KS,"Topeka, ",66604
Accident & Property Damage Attorneys,(785) 380-0588,534 S Kansas Ave,"Patton, Joe",KS,"Topeka, ",66603
"Bankruptcy Law Attorneys,Attorneys",(785) 246-8728,512 SW 6th Ave Suite 100,Hinck Gary,KS,"Topeka, ",66603
Attorneys,(785) 379-3871,5930 SW 29th St,Smith Bryan W Attorney At Law LLC,KS,"Topeka, ",66614
"Probate Law Attorneys,Attorneys",(785) 267-0040,3301 SW Van Buren St,"Scott Quinlan Willard Barnes & Keeshan, LLC",KS,"Topeka, ",66611
Employee Benefits & Worker...,(785) 289-5629,5897 SW 29th St,Duncan A. Whittier Attorney at Law,KS,"Topeka, ",66614
"Attorneys,Probate Law Attorneys",(785) 234-0600,2708 NW Topeka Blvd,Samantha Harrington,KS,"Topeka, ",66617
"Attorneys,Bankruptcy Services",(785) 233-9908,510 SW 10th Ave,Williamson Law Office,KS,"Topeka, ",66612
"Attorneys,Family Law Attorneys",(785) 354-4833,2813 SW Westport Plaza Dr,"Bobo, O W III",KS,"Topeka, ",66614
Workers Compensation Assistance,(785) 272-3120,2641 SW Wanamaker Rd Suite 100,Patterson Legal Group LC,KS,"Topeka, ",66614
,(785) 380-0587,2813 SW Westport Plaza Dr,,KS,"Topeka, ",66614
,(785) 273-8002,2913 SW Maupin Ln,,KS,"Topeka, ",66614
,(785) 379-3890,3601 SW 29th St,,KS,"Topeka, ",66614
,(785) 440-4000,2942 -A SW Wanamaker Dr,,KS,"Topeka, ",66614
,(888) 659-7710,,,,,
,(785) 233-9467,1610 SW Topeka Blvd,,KS,"Topeka, ",66612
,(888) 818-0555,4601 E Douglas Ave,,KS,"Wichita, ",67218
,(785) 233-9665,1324 SW Topeka Blvd,,KS,"Topeka, ",66612
,(785) 357-6311,534 S Kansas Ave,,KS,"Topeka, ",66603
,(785) 246-8667,2348 SW Topeka Blvd,,KS,"Topeka, ",66611
,(785) 228-6680,3615 SW 29th St,,KS,"Topeka, ",66614
,(785) 379-3854,222 SW 7th St,,KS,"Topeka, ",66603
,(785) 354-1100,1414 SW Ashworth Pl,,KS,"Topeka, ",66604
,(785) 246-8664,921 SW Topeka Blvd,,KS,"Topeka, ",66612
,(785) 380-4551,212 SW 8th Ave,,KS,"Topeka, ",66603
,(785) 232-4004,634 S Kansas Ave,,KS,"Topeka, ",66603
,(785) 246-8715,100 SE 9th St,,KS,"Topeka, ",66612
,(785) 246-8728,512 SW 6th Ave Suite 100,,KS,"Topeka, ",66603
,(785) 380-0588,534 S Kansas Ave,,KS,"Topeka, ",66603
,(785) 234-2453,5930 SW 29th St,,KS,"Topeka, ",66614
,(800) 305-7063,,,,,
,(785) 440-4000,2942 -A SW Wanamaker Dr,,KS,"Topeka, ",66614
,(785) 267-0040,3301 SW Van Buren St,,KS,"Topeka, ",66611
,(785) 235-6977,112 SW 6th Ave,,KS,"Topeka, ",66603
,(877) 623-3533,,,,,
,(785) 267-0055,3706 SW Topeka Blvd Ste 102,,KS,"Topeka, ",66609
"Personal Injury Law Attorneys,Attorneys",(888) 854-9816,,The Personal Injury Center,,,
"Attorneys,Personal Injury Law Attorneys",(888) 625-1346,,Easily Legal,,,
"Attorneys,Personal Injury Law Attorneys",(888) 386-1853,,Auto Accident Attorney's,,,
Accident & Property Damage Attorneys,(866) 632-5150,,Auto Accident Attorney's,,,
"Attorneys,DUI & DWI Attorneys",(877) 817-9135,,Imhoff & Associates,,,
"Attorneys,Domestic Violence Attorneys",(866) 404-0540,,Imhoff & Associates,,,
"Sex Offense Attorneys,Attorneys",(888) 772-8231,,Imhoff & Associates,,,
"Attorneys,Drug Charges Attorneys",(888) 770-8009,,Imhoff & Associates,,,
"Attorneys,Legal Consultants-Medical",(866) 422-1793,,eLocal Lawyers,,,
"Criminal Law Attorneys,Attorneys",(888) 799-7855,,Imhoff & Associates,,,
"Tax Attorneys,Attorneys",(888) 775-4470,,Victory Tax Solutions,,,
Disability Services,(785) 233-2323,,McCullough Wareheim & LaBanker,,,
"Personal Injury Law Attorneys,Attorneys",(866) 867-4704,,Personal Injury Place,,,
"Criminal Law Attorneys,Attorneys",(866) 505-9614,,Imhoff & Associates,,,
"DUI & DWI Attorneys,Attorneys",(888) 770-7340,,Imhoff & Associates,,,
"Drug Charges Attorneys,Attorneys",(888) 769-4079,,Imhoff & Associates,,,
"Sex Offense Attorneys,Attorneys",(866) 451-1420,,Imhoff & Associates,,,
"Sex Offense Attorneys,Attorneys",(877) 867-5502,,Imhoff & Associates,,,
"Criminal Law Attorneys,Attorneys",(877) 530-4825,,Imhoff & Associates,,,
"DUI & DWI Attorneys,Attorneys",(877) 867-5451,,Imhoff & Associates,,,
"Drug Charges Attorneys,Attorneys",(877) 449-0557,,Imhoff & Associates,,,
"Attorneys,Divorce Assistance",(785) 842-6311,,Sloan: Eisenbarth Glassman McEntire & Jarboe,,,
"Attorneys,Criminal Law Attorneys",(877) 345-8879,,The DUI Attorney,,,
Attorneys,(800) 336-0086,,"Early, Lucarelli, Sweeney & Meisenkothen, L.L.C.",,,
Tax Attorneys,(800) 525-6059,,US Tax Shield,,,
"Patent, Trademark & Copyright Law...",(856) 266-5145,,IP Legal Services,,,
"Attorneys,Personal Injury Law Attorneys",(877) 787-2334,,CALIFORNIA & NATIONWIDE TRAFFIC TICKET DEFENDERS,,,
Military & Veterans Law Attorneys,(757) 337-4360,,The Law Center: Military & Security Clearance Law,,,
DUI & DWI Attorneys,(805) 456-9778,,California & Nationwide Traffic Ticket Attorneys,,,
Transportation Law Attorneys,(661) 430-6508,,Law Office of Edward S. Orchon,,,
,(785) 273-8002,2913 SW Maupin Ln,,KS,"Topeka, ",66614
,(785) 440-4000,2942 -A SW Wanamaker Dr,,KS,"Topeka, ",66614
,(785) 380-0587,2813 SW Westport Plaza Dr,,KS,"Topeka, ",66614
,(785) 379-3890,3601 SW 29th St,,KS,"Topeka, ",66614
,,,,,,
"Attorneys,Bankruptcy Law Attorneys",(866) 948-1182,,"Kahrs Law Offices, P. A.",KS,"Wichita, ",67278
"Patent, Trademark & Copyright Law...",(703) 740-8322,,Maier & Maier PLLC,,,
Social Security Consultants...,(208) 954-8252,,Social Security Disability Advisors,,,
"Check Recovery & Verification,Attorneys",(888) 794-7325,,Recheck Inc,KS,"Wichita, ",67278
Transportation Law Attorneys,(330) 757-6670,,TVC Pro Driver,,,
"Litigation Support Services,Paralegals",(646) 580-4104,,Divorce & Family Law Paralegals,,,
"Legal Clinics,Foreclosure Services",(866) 531-6309,,Legal Aid Legal Service,,,
Accident & Property Damage Attorneys,(855) 820-9854,,Personalinjury.org,,,
"Divorce Attorneys,Attorneys",(785) 201-9922,273905 SW Wood View Dr,Total Attorneys - Divorce,KS,"Topeka, ",66610
Attorneys,(785) 289-5847,632 SW Van Buren St,Liesmann Law,KS,"Topeka, ",66603
Attorneys,(785) 727-1360,534 S Kansas Ave,Patton & Patton Law Offices,KS,"Topeka, ",66603
"Bankruptcy Law Attorneys,Attorneys",(913) 210-1613,,Clear Bankruptcy,KS,"Winchester, ",66097
Banking & Mortgage Law Attorneys,(913) 735-4908,,Chapter7,KS,"Winchester, ",66097
"Attorneys,Legal Service Plans",(913) 203-1330,,Total Attorneys - Personal Injury,KS,"Winchester, ",66097
"Bankruptcy Law Attorneys,Attorneys",(913) 256-5985,,Total Attorneys,KS,"Winchester, ",66097
Social Security & Disability Law...,(785) 267-3400,310 SW 33rd St,"Eschmann & Pringle, P.A.",KS,"Topeka, ",66611
"Financial Services,Debt Adjusters",(785) 273-1353,5897 SW 29th St,Law Office of Paul D. Post,KS,"Topeka, ",66614
Workers Compensation Assistance,(785) 273-1353,5897 SW 29th St,Law Office of Paul D. Post,KS,"Topeka, ",66614
"Attorneys,Bankruptcy Services",(785) 235-2361,1400 SW Topeka Blvd,Schulteis Henry J,KS,"Topeka, ",66612
"Attorneys,General Practice Attorneys",(785) 271-1400,2813 SW Westport Plaza Dr,Reid-Peterson Jacqueline Law Firm,KS,"Topeka, ",66614
Attorneys,(785) 267-2410,3649 SW Burlingame Rd,Hamilton Laughlin Barker Johnson & Jones,KS,"Topeka, ",66611
Attorneys,(785) 354-1471,534 S Kansas Ave Suite 825,Bankruptcy Law Office,KS,"Topeka, ",66603
"Attorneys,Legal Service Plans",(785) 267-7735,200 SW 30th St,"Kunard, Sharon S",KS,"Topeka, ",66611
"Attorneys,General Practice Attorneys",(785) 267-6767,1508 SW Topeka Blvd,Netherton Rene,KS,"Topeka, ",66612
"Attorneys,General Practice Attorneys",(785) 233-0524,800 SW Jackson St,Ambrosio & Ambrosio Chartered,KS,"Topeka, ",66612
"Attorneys,General Practice Attorneys",(785) 233-0016,800 SW Jackson St,"Smoot, Brad",KS,"Topeka, ",66612
"Attorneys,Legal Service Plans",(785) 233-1903,212 SW 8th Ave # 200,Peterson John C,KS,"Topeka, ",66603
"Attorneys,Legal Service Plans",(785) 233-2265,212 SW 8th Ave # 202,R E Duncan Law Offices,KS,"Topeka, ",66603
"Attorneys,General Practice Attorneys",(785) 232-5252,2701 SW 17th St,Fakhoury Law Office,KS,"Topeka, ",66604
"Attorneys,Legal Service Plans",(785) 233-3700,700 SW Jackson St Ste A,Michael W Merriam Lawyer,KS,"Topeka, ",66603
,(785) 440-4000,2942 -A SW Wanamaker Dr,,KS,"Topeka, ",66614
,(785) 380-0587,2813 SW Westport Plaza Dr,,KS,"Topeka, ",66614
,(785) 379-3890,3601 SW 29th St,,KS,"Topeka, ",66614
,(785) 273-8002,2913 SW Maupin Ln,,KS,"Topeka, ",66614
,,,,,,
Attorneys,(785) 235-5678,222 SW 7th St,Lykins Dan,KS,"Topeka, ",66603
"Attorneys,Legal Service Plans",(785) 233-1446,555 S Kansas Ave,Polsinelli Pc,KS,"Topeka, ",66603
Attorneys,(785) 233-3600,534 S Kansas Ave,Foulston Siefkin LLP,KS,"Topeka, ",66603
"Attorneys,Legal Service Plans",(785) 273-7722,5601 SW Barrington Ct S,Larson & Blumreich Chartered,KS,"Topeka, ",66614
"Attorneys,Construction Law Attorneys",(785) 267-5004,1414 SW Ashworth Place Suite 201,"Entz & Entz, P.A.",KS,"Topeka, ",66615
Legal Service Plans,(323) 412-5458,1414 SW Topeka Blvd,Phelps Chartered Law,KS,"Topeka, ",66612
"Attorneys,General Practice Attorneys",(785) 232-8033,5835 SW 29th St,McWilliams Law Office,KS,"Topeka, ",66614
"Attorneys,Legal Service Plans",(785) 296-2215,120 SW 10th Ave # 2,Attorney General,KS,"Topeka, ",66612
Attorneys,(785) 357-0021,909 SE Quincy St,Zimmerman Angel,KS,"Topeka, ",66612
"Attorneys,General Practice Attorneys",(785) 233-8862,1101 SW 10th Ave,Wiechman & Gasper P.A.,KS,"Topeka, ",66604
"Attorneys,Criminal Law Attorneys",(785) 235-5500,1206 SW 10th Ave,Cook & Fisher LLP,KS,"Topeka, ",66604
"Attorneys,Legal Service Plans",(785) 357-6320,534 S Kansas Ave Ste 1100,Jarboe Vernon L Atty,KS,"Topeka, ",66603
Attorneys,(785) 233-0593,515 S Kansas Ave,Goodell Stratton Edmonds & Palmer LLP,KS,"Topeka, ",66603
"Attorneys,Legal Service Plans",(785) 232-7761,3550 SW 5th St,Fisher Patterson Sayler & Smith,KS,"Topeka, ",66606
Attorneys,(785) 274-9040,2850 SW Mission Woods Drive,"Mack & Associates, LLC",KS,"Topeka, ",66614
"Attorneys,General Practice Attorneys",(785) 232-8033,211 SW 33rd St,McWilliams Law Office,KS,"Topeka, ",66611
"Attorneys,General Practice Attorneys",(785) 215-6544,220 SW 33rd St,Renner Law Office PA,KS,"Topeka, ",66611
Attorneys,(785) 215-6544,220 SW 33rd St # 103,Renner Keith,KS,"Topeka, ",66611
Attorneys,(785) 267-0040,3301 SW Van Buren St,"Barnes, Patrick R, JD",KS,"Topeka, ",66611
Attorneys,(785) 267-3400,310 SW 33rd St,"Pringle, Timothy J, JD",KS,"Topeka, ",66611
"Attorneys,General Practice Attorneys",(785) 233-4545,420 SW 33rd St,Collins Craig E,KS,"Topeka, ",66611
"Attorneys,Legal Service Plans",(785) 267-2626,3360 SW Harrison St,"Vincent, William R",KS,"Topeka, ",66611
Attorneys,(785) 267-2866,3360 SW Harrison St # 200,Hall Dennis G,KS,"Topeka, ",66611
Attorneys,(785) 267-2866,3360 SW Harrison St,Law Offices,KS,"Topeka, ",66611
Attorneys,(785) 267-2866,3360 SW Harrison St # 200,Schenk Michael J,KS,"Topeka, ",66611
"Attorneys,General Practice Attorneys",(785) 266-5922,3360 SW Harrison St,Kessler Stephen,KS,"Topeka, ",66611
"Attorneys,General Practice Attorneys",(785) 267-6444,3706 SW Topeka Blvd,"Minihan, Shawn E",KS,"Topeka, ",66609
Attorneys,(785) 266-4220,3706 SW Topeka Blvd,"Smith, Ronald D",KS,"Topeka, ",66609
"Attorneys,Legal Service Plans",(785) 267-6444,3706 SW Topeka Blvd,Butler & Associates,KS,"Topeka, ",66609
Attorneys,(785) 233-1836,2348 SW Topeka Blvd,Palmer Jerry R,KS,"Topeka, ",66611
,(785) 380-0587,2813 SW Westport Plaza Dr,,KS,"Topeka, ",66614
,(785) 273-8002,2913 SW Maupin Ln,,KS,"Topeka, ",66614
,(785) 440-4000,2942 -A SW Wanamaker Dr,,KS,"Topeka, ",66614
,(785) 379-3890,3601 SW 29th St,,KS,"Topeka, ",66614
,,,,,,
"Attorneys,Family Law Attorneys",(785) 233-1700,634 S Kansas Ave Ste C,Jennifer Berger Law Office,KS,"Topeka, ",66603
Attorneys,(785) 232-2777,214 SW 6th Ave Ste 305,Iles Terry A,KS,"Topeka, ",66603
Attorneys,(785) 235-9511,534 S Kansas Ave,"Cosgrove, Webb & Oman",KS,"Topeka, ",66603
Attorneys,(785) 267-3367,214 SW 6th Ave,Bruce Alan Brumley,KS,"Topeka, ",66603
"Wills, Trusts & Estate Planning...",(785) 273-5250,2231 SW Wanamaker Rd,Newbery Ungerer & Hickert LLP,KS,"Topeka, ",66614
Attorneys,(785) 354-0727,515 SW Horne St,Leeds Law LLC,KS,"Topeka, ",66606
"Attorneys,Personal Injury Law Attorneys",(785) 273-2020,4848 SW 21st St,Weathers Riley & Sheppeard LLP,KS,"Topeka, ",66604
"Attorneys,Bankruptcy Law Attorneys",(785) 233-6704,112 SW 6th Ave,Larry Schneider,KS,"Topeka, ",66603
"Mediation Services,Attorneys",(785) 357-1800,212 SW 8th Ave Ste 102,Associates In Dispute Resolution LLC,KS,"Topeka, ",66603
"Attorneys,DUI & DWI Attorneys",(785) 273-1141,5891 SW 29th St,Wells Douglas E,KS,"Topeka, ",66614
Credit & Debt Counseling,(785) 234-3663,112 SW 6th Ave Suite 508,"Joseph I. Wittman, Attorney At Law",KS,"Topeka, ",66603
Civil Litigation & Trial Law Attorneys,(866) 954-6800,1613 SW 37th St,"Newman, Riffel & Hess, P.A.",KS,"Topeka, ",66611
"Attorneys,Bankruptcy Services",(785) 267-9516,2887 SW Macvicar Ave,"Stumbo Hanson, LLP",KS,"Topeka, ",66611
"Divorce Attorneys,Attorneys",(785) 235-2361,1400 SW Topeka Blvd,"Standiferd, Cary L",KS,"Topeka, ",66612
"Attorneys,Family Law Attorneys",(785) 273-4330,534 S Kansas Ave,Cindy Patton Law,KS,"Topeka, ",66603
"Tax Attorneys,Probate Law Attorneys",(785) 234-3461,534 S Kansas Ave,Coffman DeFries & Nothern PA,KS,"Topeka, ",66603
Social Security & Disability Law...,(888) 818-0555,,"Tilton & Tilton, Chtd",,,
Attorneys Referral & Information...,(888) 659-7710,,24/7 Legal,,,
"Attorneys,Social Security Services",(800) 305-7063,,Bill Gordon & Associates - Social Security Disability Attorneys,,,
"Attorneys,Criminal Law Attorneys",(877) 623-3533,,TVC Pro Driver,,,
"Tax Attorneys,Attorneys",(888) 474-4033,,AAA Tax Attorneys,,,
"Attorneys,Tax Attorneys",(888) 392-2976,,H & A Tax Relief,,,
"Tax Attorneys,Attorneys",(877) 886-1918,,AAA Tax Relief,,,
Tax Return Preparation-Business,(888) 511-4058,,AAA Tax Relief,,,
Automobile Accident Attorneys,(888) 843-4051,,Attorney Network,,,
Accident & Property Damage Attorneys,(877) 292-1836,,Injury HelpLine®,,,
"Attorneys,Construction Law Attorneys",(866) 224-6187,,The Personal Injury Center,,,
Attorneys,(866) 224-7566,,The Personal Injury Center,,,
"Attorneys,Personal Injury Law Attorneys",(855) 880-6131,,Easily Legal,,,
"Attorneys,Personal Injury Law Attorneys",(877) 229-1643,,eLocal Lawyers,,,
,(785) 379-3890,3601 SW 29th St,,KS,"Topeka, ",66614
,(785) 380-0587,2813 SW Westport Plaza Dr,,KS,"Topeka, ",66614
,(785) 440-4000,2942 -A SW Wanamaker Dr,,KS,"Topeka, ",66614
,(785) 273-8002,2913 SW Maupin Ln,,KS,"Topeka, ",66614
,(785) 289-5629,5897 SW 29th St,,KS,"Topeka, ",66614
,(785) 234-0600,2708 NW Topeka Blvd,,KS,"Topeka, ",66617
,(785) 354-4833,2813 SW Westport Plaza Dr,,KS,"Topeka, ",66614
,(785) 233-9908,510 SW 10th Ave,,KS,"Topeka, ",66612
,(785) 233-1700,634 S Kansas Ave Ste C,,KS,"Topeka, ",66603
,(785) 267-3367,214 SW 6th Ave,,KS,"Topeka, ",66603
,(785) 235-9511,534 S Kansas Ave,,KS,"Topeka, ",66603
,(785) 272-3120,2641 SW Wanamaker Rd Suite 100,,KS,"Topeka, ",66614
,(785) 232-2777,214 SW 6th Ave Ste 305,,KS,"Topeka, ",66603
,(785) 233-2323,,,,,
,(855) 880-6131,,,,,
,(866) 867-4704,,,,,
,(888) 854-9816,,,,,
,(877) 229-1643,,,,,
,,,,,,
,(866) 828-1898,15095 W 116th St,,KS,"Olathe, ",66062
,(888) 907-5281,704 Topeka Ave,,KS,"Lyndon, ",66451
,(888) 913-6580,137 N Main St,,KS,"Troy, ",66087
,(785) 685-4432,117 S 6th St,,KS,"Hiawatha, ",66434
,(913) 795-5511,425 Main St,,KS,"Mound City, ",66056
,(913) 735-4908,,,KS,"Winchester, ",66097
,(913) 210-1613,,,KS,"Winchester, ",66097
,(913) 256-5985,,,KS,"Winchester, ",66097
,(785) 201-9922,273905 SW Wood View Dr,,KS,"Topeka, ",66610
,(913) 203-1330,,,KS,"Winchester, ",66097
,(785) 289-5847,632 SW Van Buren St,,KS,"Topeka, ",66603
,(785) 727-1360,534 S Kansas Ave,,KS,"Topeka, ",66603
"Attorneys,Legal Service Plans",(785) 267-3410,2887 SW Macvicar Ave # 1,"Luckman, Todd A",KS,"Topeka, ",66611
"Attorneys,Legal Service Plans",(785) 267-3410,2887 SW Macvicar Ave # 1,"Barnes, Tom R, JD",KS,"Topeka, ",66611
Attorneys,(785) 267-2410,3649 SW Burlingame Rd,"Storey, Bob W",KS,"Topeka, ",66611
Attorneys,(785) 267-2410,3649 SW Burlingame Rd,"Jones, Jeffrey W, JD",KS,"Topeka, ",66611
"Attorneys,Family Law Attorneys",(785) 267-2410,3649 SW Burlingame Rd Ste 200,Johnson Eric K Atty,KS,"Topeka, ",66611
Attorneys,(785) 267-2410,3649 SW Burlingame Rd,"Laughlin, Gary E, JD",KS,"Topeka, ",66611
"Attorneys,Legal Service Plans",(785) 267-2410,3649 SW Burlingame Rd Ste 200,"Barker, William B, JD",KS,"Topeka, ",66611
Attorneys,(785) 267-2410,3649 SW Burlingame Rd,"Hamilton, John R, JD",KS,"Topeka, ",66611
Attorneys,(785) 271-9333,3649 SW Burlingame Rd,"Parmele, Dan, JD",KS,"Topeka, ",66611
"Divorce Attorneys,Adoption Law Attorneys",(785) 233-9467,1610 SW Topeka Blvd,Joseph P. Huerter Attorney,KS,"Topeka, ",66612
"Attorneys,Legal Service Plans",(785) 232-0920,1610 SW Topeka Blvd,"Chappas, James G",KS,"Topeka, ",66612
"Attorneys,Probate Law Attorneys",(785) 233-9467,1610 SW Topeka Blvd,Lawrence L. Tenopir  Attorney,KS,"Topeka, ",66612
"Attorneys,Criminal Law Attorneys",(785) 233-9467,1610 SW Topeka Blvd,David E. McDonald - Attorney,KS,"Topeka, ",66612
"Attorneys,Criminal Law Attorneys",(785) 246-6999,1610 SW Topeka Blvd,Benson Richard W,KS,"Topeka, ",66612
"Attorneys,Criminal Law Attorneys",(785) 233-9467,1610 SW Topeka Blvd,Matthew H. Conley- Attorney,KS,"Topeka, ",66612
Family Law Attorneys,(785) 233-9467,1610 SW Topeka Blvd,Nickolas C. Templin - Attorney,KS,"Topeka, ",66612
"Attorneys,Legal Service Plans",(785) 357-5251,1525 SW Topeka Blvd,Carpenter Chartered,KS,"Topeka, ",66612
Attorneys,(785) 357-5251,1525 SW Topeka Blvd,Showalter Richard Attorney,KS,"Topeka, ",66612
"Attorneys,Legal Service Plans",(785) 234-3272,1508 SW Topeka Blvd,Borcya Bonnie atty,KS,"Topeka, ",66612
Attorneys,(785) 235-9300,1508 SW Topeka Blvd,"Savage, M K",KS,"Topeka, ",66612
Attorneys,(785) 233-2323,1501 SW Topeka Blvd,"Fisher, Jan, JD",KS,"Topeka, ",66612
Attorneys,(785) 233-2323,1501 SW Topeka Blvd,"Wulfekoetter, Mitchell D, JD",KS,"Topeka, ",66612
"Attorneys,General Practice Attorneys",(785) 233-2323,1501 SW Topeka Blvd,"Ostrowski, John M",KS,"Topeka, ",66612
"Attorneys,Family Law Attorneys",(785) 233-2323,1501 SW Topeka Blvd,McCullough Wareheim La Bunker,KS,"Topeka, ",66612
"Attorneys,General Practice Attorneys",(785) 357-0311,1415 SW Topeka Blvd,Pomeroy Elwaine F Atty,KS,"Topeka, ",66612
"Attorneys,General Practice Attorneys",(785) 233-4151,2715 SW 29th St,Nichols & Wolfe Chartered,KS,"Topeka, ",66614
Attorneys,(785) 233-4151,2715 SW 29th St # A,Wolfe Philip B,KS,"Topeka, ",66614
"Attorneys,Family Law Attorneys",(785) 232-0753,2101 SW 21st St,"Crow, Daniel W, JD",KS,"Topeka, ",66604
"Attorneys,Family Law Attorneys",(785) 232-0753,2101 SW 21st St,Alderson Alderson Weiler Conklin Burghart & Crow,KS,"Topeka, ",66604
Attorneys,(785) 232-0753,2101 SW 21st St,"Henderson, Thomas C",KS,"Topeka, ",66604
,(785) 380-0587,2813 SW Westport Plaza Dr,,KS,"Topeka, ",66614
,(785) 273-8002,2913 SW Maupin Ln,,KS,"Topeka, ",66614
,(785) 379-3890,3601 SW 29th St,,KS,"Topeka, ",66614
,(785) 440-4000,2942 -A SW Wanamaker Dr,,KS,"Topeka, ",66614
,,,,,,
"Family Law Attorneys,Divorce Attorneys",(785) 380-0585,534 S Kansas Ave Suite 1120,"Patton, Joe",KS,"Topeka, ",66603
"General Practice Attorneys,Attorneys",(785) 233-9665,1324 SW Topeka Blvd,Tilton & Tilton Chtd.,KS,"Topeka, ",66612
"Attorneys,Probate Law Attorneys",(785) 235-6977,112 SW 6th Ave,Nystrom Law Office,KS,"Topeka, ",66603
Attorneys,(785) 380-4461,1400 SW Topeka Blvd,Cary L. Standiferd,KS,"Topeka, ",66612
"Attorneys,Drug Charges Attorneys",(785) 233-5887,100 SE 9th St,Hoffman & Hoffman,KS,"Topeka, ",66612
Attorneys,(785) 246-8697,1208 SW Tyler St,Cook & Fisher LLP,KS,"Topeka, ",66612
"Tax Attorneys,Attorneys",(877) 886-1918,,AAA Tax Relief,,,
Tax Return Preparation-Business,(888) 511-4058,,AAA Tax Relief,,,
"General Practice Attorneys,Attorneys",(785) 233-9665,1324 SW Topeka Blvd,Tilton & Tilton Chtd.,KS,"Topeka, ",66612
Attorneys,(785) 246-8697,1208 SW Tyler St,Cook & Fisher LLP,KS,"Topeka, ",66612
"Family Law Attorneys,Divorce Attorneys",(785) 380-0585,534 S Kansas Ave Suite 1120,"Patton, Joe",KS,"Topeka, ",66603
Attorneys,(785) 380-4461,1400 SW Topeka Blvd,Cary L. Standiferd,KS,"Topeka, ",66612
"Attorneys,Probate Law Attorneys",(785) 235-6977,112 SW 6th Ave,Nystrom Law Office,KS,"Topeka, ",66603
"Attorneys,Drug Charges Attorneys",(785) 233-5887,100 SE 9th St,Hoffman & Hoffman,KS,"Topeka, ",66612
"Attorneys,Malpractice Law Attorneys",(785) 273-8002,2913 SW Maupin Ln,"Ralston, Pope & Diehl LLC",KS,"Topeka, ",66614
Criminal Law Attorneys,(785) 380-0587,2813 SW Westport Plaza Dr,Malcolm L Copeland,KS,"Topeka, ",66614
Criminal Law Attorneys,(785) 440-4000,2942 -A SW Wanamaker Dr,Cavanaugh & Lemon PA,KS,"Topeka, ",66614
Attorneys,(785) 379-3890,3601 SW 29th St,"Taff Frank D, Attorney At Law",KS,"Topeka, ",66614
Mediation Services,(785) 246-8667,2348 SW Topeka Blvd,"Palmer, Leatherman White & Girard",KS,"Topeka, ",66611
Construction Law Attorneys,(785) 246-8715,100 SE 9th St,Cooper & Lee LLC,KS,"Topeka, ",66612
"Attorneys,Legal Service Plans",(785) 267-0055,3706 SW Topeka Blvd Ste 102,Heathman Law Office,KS,"Topeka, ",66609
"Attorneys,Personal Injury Law Attorneys",(785) 379-3854,222 SW 7th St,"Bryan Lykins, Hejtmanek & Fincher PA",KS,"Topeka, ",66603
"Attorneys,Criminal Law Attorneys",(785) 246-8664,921 SW Topeka Blvd,"Swinnen & Associates, LLC",KS,"Topeka, ",66612
"Attorneys,Criminal Law Attorneys",(785) 233-9467,1610 SW Topeka Blvd,Law Firm of Tenopir & Huerter,KS,"Topeka, ",66612
"Attorneys,Personal Injury Law Attorneys",(785) 357-6311,534 S Kansas Ave,Sloan Eisenbarth Glassman McEntire & Jarboe LLC,KS,"Topeka, ",66603
"Attorneys,Family Law Attorneys",(785) 228-6680,3615 SW 29th St,Debenham Law Office LLC,KS,"Topeka, ",66614
Automobile Accident Attorneys,(785) 380-4551,212 SW 8th Ave,"Pearson, George H III",KS,"Topeka, ",66603
Transportation Law Attorneys,(785) 232-4004,634 S Kansas Ave,Kevin P. Shepherd Attorney at Law,KS,"Topeka, ",66603
Workers Compensation Assistance,(785) 354-1100,1414 SW Ashworth Pl,"Frieden, Unrein & Forbes LLP",KS,"Topeka, ",66604
Accident & Property Damage Attorneys,(785) 380-0588,534 S Kansas Ave,"Patton, Joe",KS,"Topeka, ",66603
"Bankruptcy Law Attorneys,Attorneys",(785) 246-8728,512 SW 6th Ave Suite 100,Hinck Gary,KS,"Topeka, ",66603
Attorneys,(785) 379-3871,5930 SW 29th St,Smith Bryan W Attorney At Law LLC,KS,"Topeka, ",66614
"Probate Law Attorneys,Attorneys",(785) 267-0040,3301 SW Van Buren St,"Scott Quinlan Willard Barnes & Keeshan, LLC",KS,"Topeka, ",66611
Employee Benefits & Worker...,(785) 289-5629,5897 SW 29th St,Duncan A. Whittier Attorney at Law,KS,"Topeka, ",66614
"Attorneys,Probate Law Attorneys",(785) 234-0600,2708 NW Topeka Blvd,Samantha Harrington,KS,"Topeka, ",66617
"Attorneys,Bankruptcy Services",(785) 233-9908,510 SW 10th Ave,Williamson Law Office,KS,"Topeka, ",66612
"Attorneys,Family Law Attorneys",(785) 354-4833,2813 SW Westport Plaza Dr,"Bobo, O W III",KS,"Topeka, ",66614
Workers Compensation Assistance,(785) 272-3120,2641 SW Wanamaker Rd Suite 100,Patterson Legal Group LC,KS,"Topeka, ",66614
,(785) 273-8002,2913 SW Maupin Ln,,KS,"Topeka, ",66614
,(785) 440-4000,2942 -A SW Wanamaker Dr,,KS,"Topeka, ",66614
,(785) 379-3890,3601 SW 29th St,,KS,"Topeka, ",66614
,(785) 380-0587,2813 SW Westport Plaza Dr,,KS,"Topeka, ",66614
,(888) 659-7710,,,,,
,(785) 233-9467,1610 SW Topeka Blvd,,KS,"Topeka, ",66612
,(888) 818-0555,4601 E Douglas Ave,,KS,"Wichita, ",67218
,(785) 233-9665,1324 SW Topeka Blvd,,KS,"Topeka, ",66612
,(785) 357-6311,534 S Kansas Ave,,KS,"Topeka, ",66603
,(785) 246-8667,2348 SW Topeka Blvd,,KS,"Topeka, ",66611
,(785) 228-6680,3615 SW 29th St,,KS,"Topeka, ",66614
,(785) 379-3854,222 SW 7th St,,KS,"Topeka, ",66603
,(785) 354-1100,1414 SW Ashworth Pl,,KS,"Topeka, ",66604
,(785) 246-8664,921 SW Topeka Blvd,,KS,"Topeka, ",66612
,(785) 380-4551,212 SW 8th Ave,,KS,"Topeka, ",66603
,(785) 232-4004,634 S Kansas Ave,,KS,"Topeka, ",66603
,(785) 246-8715,100 SE 9th St,,KS,"Topeka, ",66612
,(785) 246-8728,512 SW 6th Ave Suite 100,,KS,"Topeka, ",66603
,(785) 380-0588,534 S Kansas Ave,,KS,"Topeka, ",66603
,(785) 234-2453,5930 SW 29th St,,KS,"Topeka, ",66614
,(800) 305-7063,,,,,
,(785) 440-4000,2942 -A SW Wanamaker Dr,,KS,"Topeka, ",66614
,(785) 267-0040,3301 SW Van Buren St,,KS,"Topeka, ",66611
,(785) 235-6977,112 SW 6th Ave,,KS,"Topeka, ",66603
,(877) 623-3533,,,,,
,(785) 267-0055,3706 SW Topeka Blvd Ste 102,,KS,"Topeka, ",66609
"Attorneys,Mediation Services",(785) 233-1836,2348 SW Topeka Blvd # 100,"White Jr, Gary D",KS,"Topeka, ",66611
"Attorneys,Legal Service Plans",(785) 233-1836,2348 SW Topeka Blvd,Van Dyk Dustin,KS,"Topeka, ",66611
Attorneys,(785) 233-1836,2348 SW Topeka Blvd,"Leatherman, Lj",KS,"Topeka, ",66611
Attorneys,(785) 209-3456,2348 SW Topeka Blvd # 100,"Leatherman, I",KS,"Topeka, ",66611
Attorneys,(785) 209-3456,2348 SW Topeka Blvd # 100,Revenaugh Nicole M,KS,"Topeka, ",66611
Attorneys,(785) 209-3456,2348 SW Topeka Blvd # 100,"Girard, Meaghan M",KS,"Topeka, ",66611
Attorneys,(785) 233-1836,2348 SW Topeka Blvd # 100,"Dalton, Meaghan M",KS,"Topeka, ",66611
Attorneys,(785) 234-3441,2816 SW Burlingame Rd,"Frieden, John C",KS,"Topeka, ",66611
"Attorneys,Criminal Law Attorneys",(785) 267-6115,1535 SW 29th St,Irigonegaray & Associates,KS,"Topeka, ",66611
"Attorneys,Legal Service Plans",(785) 267-6115,1535 SW 29th St,Herbert Elizabeth,KS,"Topeka, ",66611
"Attorneys,Legal Service Plans",(785) 267-2488,2825 SE California Ave,Reed John L,KS,"Topeka, ",66605
"Attorneys,Legal Service Plans",(785) 267-5400,1603 SW 37th St,"McKenzie, Scott D, JD",KS,"Topeka, ",66611
Attorneys,(785) 267-4561,1605 SW 37th St,Klenda Mitchell Austerman,KS,"Topeka, ",66611
Attorneys,(785) 267-4561,1605 SW 37th St,Steed David W,KS,"Topeka, ",66611
Attorneys,(785) 267-5858,1611 SW 37th St,Murphy & Freund,KS,"Topeka, ",66611
"Attorneys,Legal Service Plans",(785) 267-5858,1611 SW 37th St,"Freund, Nancy E",KS,"Topeka, ",66611
Attorneys,(785) 267-0660,1613 SW 37th St,Newman Billy,KS,"Topeka, ",66611
Attorneys,(785) 233-0918,1700 SW Sieben St,Works C Bruce Atty-Residence,KS,"Topeka, ",66611
Attorneys,(785) 233-4800,12 SW Pepper Tree Ln,Family Law Practice,KS,"Topeka, ",66611
"Attorneys,Probate Law Attorneys",(785) 273-8600,2201 SW 29th St,Harmon Richard,KS,"Topeka, ",66611
Attorneys,(785) 266-5121,2201 SW 29th St,"Aadalen, David K, JD",KS,"Topeka, ",66611
Attorneys,(918) 967-8542,84 SW Pepper Tree Ln,"Berger, Jerold E",KS,"Topeka, ",66611
Attorneys,(785) 271-9333,3469 SW Burlingame Rd,Social Security Disability Attorney Daniel A Parmele,KS,"Topeka, ",66611
Attorneys,(785) 232-3700,1734 SW Van Buren St,Ledbetter Law Office,KS,"Topeka, ",66612
Attorneys,(785) 267-3410,2887 SW Macvicar Ave # 1,"Hendricks, Lee W",KS,"Topeka, ",66611
"Attorneys,Legal Service Plans",(785) 267-3410,2887 SW Macvicar Ave # 1,"Kurtz, Quentin",KS,"Topeka, ",66611
Attorneys,(785) 267-3410,2887 SW Macvicar Ave,Smith Wesley F Atty,KS,"Topeka, ",66611
"Attorneys,Legal Service Plans",(785) 267-3410,2887 SW Macvicar Ave,Poulton Karen T Atty,KS,"Topeka, ",66611
Attorneys,(785) 267-3410,2887 SW Macvicar Ave # 1,"Sheedy, Kathryn E",KS,"Topeka, ",66611
Attorneys,(785) 267-3410,2887 SW Macvicar Ave # 1,Hanson Gary H,KS,"Topeka, ",66611
,(785) 273-8002,2913 SW Maupin Ln,,KS,"Topeka, ",66614
,(785) 440-4000,2942 -A SW Wanamaker Dr,,KS,"Topeka, ",66614
,(785) 380-0587,2813 SW Westport Plaza Dr,,KS,"Topeka, ",66614
,(785) 379-3890,3601 SW 29th St,,KS,"Topeka, ",66614
,,,,,,
Attorneys,(785) 232-0753,2101 SW 21st St,"Weiler, Joseph M, JD",KS,"Topeka, ",66604
Attorneys,(785) 232-0753,2101 SW 21st St,"Frost, Brian, JD",KS,"Topeka, ",66604
Attorneys,(785) 232-0753,2101 SW 21st St,"Muir, Jared",KS,"Topeka, ",66604
Attorneys,(785) 232-0753,2101 SW 21st St,"Alderson Jr, W Robert, JD",KS,"Topeka, ",66604
Attorneys,(785) 232-0753,2101 SW 21st St,"Burghart, Mark A, JD",KS,"Topeka, ",66604
Attorneys,(785) 232-0753,2101 SW 21st St,"Conklin, Darin M, JD",KS,"Topeka, ",66604
"Attorneys,General Practice Attorneys",(785) 232-1700,1401 SW Topeka Blvd,Law Office of Brock Snyder,KS,"Topeka, ",66612
"Attorneys,General Practice Attorneys",(785) 233-6424,1400 SW Topeka Blvd,Benfer & Owen PA,KS,"Topeka, ",66612
"Attorneys,Legal Service Plans",(785) 235-2361,1400 SW Topeka Blvd # 1,Roby Bruce A,KS,"Topeka, ",66612
Attorneys,(785) 233-6424,1400 SW Topeka Blvd,"Carpinelli, John F",KS,"Topeka, ",66612
Attorneys,(785) 233-9665,1324 SW Topeka Blvd,Jason C. Robbins – Attorney At Law,KS,"Topeka, ",66612
Attorneys,(785) 233-9665,1324 SW Topeka Blvd,"Robbins, Jason C, JD",KS,"Topeka, ",66612
"Attorneys,Legal Service Plans",(785) 235-1650,1321 SW Topeka Blvd,Rork William K,KS,"Topeka, ",66612
"Attorneys,Legal Service Plans",(785) 608-1680,1321 S.W. Topeka Blvd.,"Kenneth B. Miller, Attorney at Law",KS,"Topeka, ",66612
"Attorneys,Legal Service Plans",(785) 232-2011,1622 SW Washburn Ave,Hazlett Allan A Atty,KS,"Topeka, ",66604
"Attorneys,Legal Service Plans",(785) 235-1877,1243 SW Topeka Blvd,"Cox, Deborah",KS,"Topeka, ",66612
"Attorneys,Legal Service Plans",(785) 266-8664,1243 SW Topeka Blvd,"Dykes, M Jill",KS,"Topeka, ",66612
"Attorneys,Legal Service Plans",(785) 234-0040,1243 SW Topeka Blvd,"Harrington, Bruce",KS,"Topeka, ",66612
"Attorneys,General Practice Attorneys",(785) 233-8877,1243 SW Topeka Blvd,Law Office Of Inho Hwang,KS,"Topeka, ",66612
Attorneys,(785) 783-8696,1243 SW Topeka Blvd,Richards Susan G Attorney at Law,KS,"Topeka, ",66612
"Attorneys,General Practice Attorneys",(785) 783-3509,1243 SW Topeka Blvd # B,"Pet, William",KS,"Topeka, ",66612
"Attorneys,General Practice Attorneys",(785) 235-6939,1243 SW Topeka Blvd. Ste A,Carter Law Offices,KS,"Topeka, ",66612
"Attorneys,General Practice Attorneys",(785) 235-5497,1608 SW Mulvane St,Hazlett Allan A Atty,KS,"Topeka, ",66604
Attorneys,(785) 232-9000,1001 SE Quincy St,Jerry Shelor Attorney,KS,"Topeka, ",66612
Attorneys,(785) 233-8600,1001 SE Quincy St # 2,"Liesmann, Tim, JD",KS,"Topeka, ",66612
"Attorneys,Legal Service Plans",(785) 232-2200,100 SE 9th St,Whitton Jon H Atty,KS,"Topeka, ",66612
Attorneys,(785) 232-3104,3124 SW 29th St,Youngman & Carpenter Chartered,KS,"Topeka, ",66614
Attorneys,(785) 357-0021,909 SE Quincy St,"Hays, Jennifer",KS,"Topeka, ",66612
"Attorneys,Family Law Attorneys",(785) 234-6699,933 S Kansas Ave,Florez Law Offices,KS,"Topeka, ",66612
"Attorneys,General Practice Attorneys",(785) 354-1354,919 S Kansas Ave,Damron Whitney B,KS,"Topeka, ",66612
Attorneys,(785) 232-4377,900 S Kansas Ave,Hickman Public Affairs,KS,"Topeka, ",66612
,(785) 379-3890,3601 SW 29th St,,KS,"Topeka, ",66614
,(785) 380-0587,2813 SW Westport Plaza Dr,,KS,"Topeka, ",66614
,(785) 440-4000,2942 -A SW Wanamaker Dr,,KS,"Topeka, ",66614
,(785) 273-8002,2913 SW Maupin Ln,,KS,"Topeka, ",66614
,,,,,,
Attorneys,(785) 232-2200,100 SE 9th St # 2,"Gragson, J Phillip",KS,"Topeka, ",66612
"Attorneys,General Practice Attorneys",(785) 232-2200,100 SE 9th St,Henson Hutton Mudrick,KS,"Topeka, ",66612
"Attorneys,Legal Service Plans",(785) 232-2200,100 SE 9th St,Haney Thomas D Atty,KS,"Topeka, ",66612
"Attorneys,Legal Service Plans",(785) 232-2200,100 SE 9th St # 2,"Vogelsberg, Amanda",KS,"Topeka, ",66612
"Attorneys,Legal Service Plans",(785) 233-9988,100 SE 9th St,Lee Gregory A Atty,KS,"Topeka, ",66612
Attorneys,(785) 233-4225,100 SE 9th St,"Herbster, Judd L",KS,"Topeka, ",66612
Attorneys,(785) 233-3700,100 SE 9th St,"Merriam, Michael W",KS,"Topeka, ",66612
Attorneys,(785) 232-2200,100 SE 9th St # 2,"Mudrick, David P",KS,"Topeka, ",66612
Attorneys,(785) 232-5845,1322 SW College Ave,"Muxlow, Doug",KS,"Topeka, ",66604
"Attorneys,Lobbyists",(785) 232-0545,825 S. Kansas Ave.,"Glenn, Cornish & Hanson, Chtd.",KS,"Topeka, ",66612
"Attorneys,Legal Service Plans",(785) 233-9950,510 SW 10th Ave,Miller Victor Atty,KS,"Topeka, ",66612
Attorneys,(785) 233-9908,510 SW 10th Ave,"Hadley, Courtney M, JD",KS,"Topeka, ",66612
Attorneys,(785) 233-9908,510 SW 10th Ave,"Jurgensen, Shawn C, JD",KS,"Topeka, ",66612
Attorneys,(785) 232-0545,825 S Kansas Ave # 510,"Hanson, David A",KS,"Topeka, ",66612
Attorneys,(785) 232-0545,825 S Kansas Ave # 510,Karns Larry G,KS,"Topeka, ",66612
Attorneys,(785) 357-5085,825 S Kansas Ave,Kensinger & Associates,KS,"Topeka, ",66612
Attorneys,(785) 232-0545,825 S Kansas Ave,"Foreman, Carol L",KS,"Topeka, ",66612
Attorneys,(785) 232-0545,825 S Kansas Ave,"Sigler, Sandra M",KS,"Topeka, ",66612
"Attorneys,Legal Service Plans",(785) 233-4800,114 SE 8th Ave,Kimball D Kay Atty,KS,"Topeka, ",66603
"Attorneys,General Practice Attorneys",(785) 861-7100,921 SW Topeka Blvd,Urbom Law Offices Charted,KS,"Topeka, ",66612
Attorneys,(785) 234-5681,812 SW Jackson St,"Quarnstrom, Carl W",KS,"Topeka, ",66612
"Attorneys,Legal Service Plans",(785) 235-1000,800 SW Jackson St,Sanchez Conn Felix Atty,KS,"Topeka, ",66612
"Attorneys,Legal Service Plans",(785) 234-3686,800 SW Jackson St,"Small, Jonathan P",KS,"Topeka, ",66612
"Attorneys,Legal Service Plans",(785) 233-6700,800 SW Jackson St # 1000,Engel Law PA,KS,"Topeka, ",66612
"Attorneys,Legal Service Plans",(785) 232-7772,800 SW Jackson St,Kansas Independent Oil & Gas Association,KS,"Topeka, ",66612
"Attorneys,Legal Service Plans",(785) 232-2662,800 SW Jackson St # 1310,"Ludwig, Maren",KS,"Topeka, ",66612
Attorneys,(785) 232-2662,800 SW Jackson St # 1310,"Gilmore Gaugha, Julia",KS,"Topeka, ",66612
"Attorneys,General Practice Attorneys",(785) 233-5117,800 SW Jackson St,Garrett & Koons Law Offices,KS,"Topeka, ",66612
Attorneys,(785) 232-2662,800 SW Jackson St # 1310,"Lennen, Michael",KS,"Topeka, ",66612
,(785) 380-0587,2813 SW Westport Plaza Dr,,KS,"Topeka, ",66614
,(785) 440-4000,2942 -A SW Wanamaker Dr,,KS,"Topeka, ",66614
,(785) 273-8002,2913 SW Maupin Ln,,KS,"Topeka, ",66614
,(785) 379-3890,3601 SW 29th St,,KS,"Topeka, ",66614
,,,,,,
Attorneys,(785) 235-5678,222 SW 7th St,Fincher Roger D,KS,"Topeka, ",66603
"Attorneys,General Practice Attorneys",(785) 234-2828,629 SE Quincy St,"Frost, Thomas B, JD",KS,"Topeka, ",66603
Criminal Law Attorneys,(785) 424-5723,634 S. Kansas Ave Suite C,Jarboe Law,KS,"Topeka, ",66603
Attorneys,(785) 232-4335,634 S Kansas Ave,Shepherd Kevin,KS,"Topeka, ",66603
Attorneys,(785) 232-3540,634 S Kansas Ave,"Berger, Jerold E, JD",KS,"Topeka, ",66603
Attorneys,(785) 232-4335,634 S Kansas Ave,"Shepherd, Kevin, JD",KS,"Topeka, ",66603
Attorneys,(785) 235-0200,408 SW 7th St,Sl Theron,KS,"Topeka, ",66603
Attorneys,(785) 233-8862,1101 SW 10th Ave,Gasper Kerry M,KS,"Topeka, ",66604
"Attorneys,Legal Service Plans",(785) 232-9700,1101 SW 10th Ave,Bankruptcy Center,KS,"Topeka, ",66604
Attorneys,(785) 234-4040,123 SE 6th Ave,Kauffman & Eye,KS,"Topeka, ",66603
Attorneys,(785) 234-4040,123 SE 6th Ave,Robert V Eye Law Office,KS,"Topeka, ",66603
"Attorneys,General Practice Attorneys",(785) 233-7428,1122 SW 10th Ave,Stewart William R Atty,KS,"Topeka, ",66604
"Attorneys,Legal Service Plans",(785) 232-6200,107 SW 6th Ave # 210,Holbrrok & Osborn,KS,"Topeka, ",66603
"Attorneys,Legal Service Plans",(785) 234-4661,107 SW 6th Ave # 210,"Bonebrake, Carol R",KS,"Topeka, ",66603
Attorneys,(785) 251-1006,1122 SW 10th Ave,Belfort & Belfort Attorneys At Law,KS,"Topeka, ",66604
"Attorneys,General Practice Attorneys",(785) 233-7001,1122 SW 10th Ave,"Miller, David L",KS,"Topeka, ",66604
"Attorneys,Legal Service Plans",(785) 232-1200,632 SW Van Buren St,"Rosel, Steven D, JD",KS,"Topeka, ",66603
"Attorneys,Legal Service Plans",(785) 224-3912,632 SW Van Buren St Lower Level,Lykins Law Office,KS,"Topeka, ",66603
"Attorneys,General Practice Attorneys",(785) 354-8188,214 SW 6th Ave,Harper Law Office,KS,"Topeka, ",66603
"Attorneys,General Practice Attorneys",(785) 235-1111,214 SW 6th Ave,Kaup Law Office,KS,"Topeka, ",66603
"Attorneys,General Practice Attorneys",(785) 290-5529,1200 SW 10th Ave,Kearney Law Office PA,KS,"Topeka, ",66604
"Attorneys,Legal Service Plans",(785) 234-5859,1200 SW 10th Ave,Kearney & Associates Inc,KS,"Topeka, ",66604
Attorneys,(785) 290-5529,1200 SW 10th Ave,Kearney Steve,KS,"Topeka, ",66604
Attorneys,(785) 235-5500,1206 SW 10th Ave,Cook Kevin J,KS,"Topeka, ",66604
Attorneys,(785) 235-5500,1206 SW 10th Ave,"Brackman, Seth K, JD",KS,"Topeka, ",66604
"Attorneys,Criminal Law Attorneys",(785) 235-5500,1206 SW 10th Ave,"Fisher, Jason Jake, JD",KS,"Topeka, ",66604
Attorneys,(785) 354-1100,555 S Kansas Ave # 303,Bergmann Mathew R,KS,"Topeka, ",66603
Attorneys,(785) 233-1446,555 S Kansas Ave # 101,Sneed William W,KS,"Topeka, ",66603
Attorneys,(785) 232-7266,555 S Kansas Ave # 303,Patty Clint,KS,"Topeka, ",66603
Attorneys,(785) 354-1100,555 S Kansas Ave # 303,Unrein Eric I,KS,"Topeka, ",66603
,(785) 273-8002,2913 SW Maupin Ln,,KS,"Topeka, ",66614
,(785) 379-3890,3601 SW 29th St,,KS,"Topeka, ",66614
,(785) 380-0587,2813 SW Westport Plaza Dr,,KS,"Topeka, ",66614
,(785) 440-4000,2942 -A SW Wanamaker Dr,,KS,"Topeka, ",66614
,,,,,,
Attorneys,(785) 232-7772,800 SW Jackson St # 1400,Cross Ed,KS,"Topeka, ",66612
"Attorneys,Legal Service Plans",(785) 233-6700,800 SW Jackson St,Geier Jason Atty,KS,"Topeka, ",66612
Attorneys,(785) 233-1903,212 SW 8th Ave,Capitol Strategies,KS,"Topeka, ",66603
Attorneys,(785) 371-1339,212 SW 8th Ave,Kansas Work Comp Law,KS,"Topeka, ",66603
Attorneys,(785) 357-1800,212 SW 8th Ave # 102,Rute Larry R,KS,"Topeka, ",66603
"Divorce Attorneys,Family Law Attorneys",(785) 233-9988,"100 SE 9th St., 3rd Floor","Dan Heinz, Attorney at Law",KS,"Topeka, ",66612
"Attorneys,Legal Service Plans",(785) 273-6700,PO Box 3905,Selvidge Kathleen W Atty,KS,"Topeka, ",66604
"Attorneys,Legal Service Plans",(785) 232-0495,823 SW 10th Ave,James Caplinger,KS,"Topeka, ",66612
Attorneys,(785) 232-6868,827 SW Topeka Blvd,Kjorlie Eric,KS,"Topeka, ",66612
"Attorneys,General Practice Attorneys",(785) 235-0400,707 SE Quincy St,Marc White Attorney at Law,KS,"Topeka, ",66603
"Attorneys,General Practice Attorneys",(785) 234-6553,727 S Kansas Ave,"Jackson, Michael M",KS,"Topeka, ",66603
Attorneys,(785) 296-4353,727 S Kansas Ave,"Woolery, Christopher",KS,"Topeka, ",66603
Attorneys,(785) 272-1545,3601 SW 29th St,Tom D Fulzenloger Atty,KS,"Topeka, ",66614
Attorneys,(785) 233-1344,3615 SW 29th St # 201,"French, Wayne, JD",KS,"Topeka, ",66614
"Attorneys,General Practice Attorneys",(785) 228-2075,3625 SW 29th St,"Graham, Ruth E",KS,"Topeka, ",66614
Attorneys,(785) 354-8531,712 S Kansas Ave # 201,Harp Marilyn,KS,"Topeka, ",66603
Attorneys,(785) 233-0309,115 SE 7th St,James Kurt L Attorney At Law,KS,"Topeka, ",66603
"Attorneys,Legal Service Plans",(785) 228-5601,3615 SW 29th St,Hollins H Kent,KS,"Topeka, ",66614
Attorneys,(785) 233-9950,700 SW Jackson St,"Miller, Victor",KS,"Topeka, ",66603
"Attorneys,Bankruptcy Services",(785) 234-6553,700 SW Jackson St # 1100,"Brunton, Michael F, JD",KS,"Topeka, ",66603
"Attorneys,Legal Service Plans",(785) 233-5411,700 SW Jackson St # 200,Parrish Management Corp,KS,"Topeka, ",66603
"Attorneys,Probate Law Attorneys",(785) 234-4446,700 SW Jackson St,"Burson, Margo E, JD",KS,"Topeka, ",66603
"Attorneys,Legal Service Plans",(785) 234-0059,700 SW Jackson St,Wright James C Atty,KS,"Topeka, ",66603
"Attorneys,Management Consultants",(785) 233-9908,700 SW Jackson St Ste 404,Williamson Darcy D Atty,KS,"Topeka, ",66603
Attorneys,(785) 838-4300,700 SW Jackson St,"Kaup, James M",KS,"Topeka, ",66603
Attorneys,(785) 233-8600,216 SW 7th St,Liesmann Tim Atty,KS,"Topeka, ",66603
Attorneys,(785) 233-4000,1838 SW Campbell Ave,Elwood H Philip Atty,KS,"Topeka, ",66604
Attorneys,(785) 235-5678,222 SW 7th St,Bryan John J,KS,"Topeka, ",66603
"Attorneys,Legal Service Plans",(785) 235-5678,222 SW 7th St,"Billings, Richard",KS,"Topeka, ",66603
"Attorneys,Legal Service Plans",(785) 235-5678,222 SW 7th St,Hejtmanek Danton C,KS,"Topeka, ",66603
,(785) 440-4000,2942 -A SW Wanamaker Dr,,KS,"Topeka, ",66614
,(785) 379-3890,3601 SW 29th St,,KS,"Topeka, ",66614
,(785) 273-8002,2913 SW Maupin Ln,,KS,"Topeka, ",66614
,(785) 380-0587,2813 SW Westport Plaza Dr,,KS,"Topeka, ",66614
,,,,,,
"Attorneys,Legal Service Plans",(785) 357-6320,534 S Kansas Ave,"Heptig, Michael S",KS,"Topeka, ",66603
"Attorneys,Tax Attorneys",(785) 234-3461,534 S Kansas Ave,"William, Susan K, JD",KS,"Topeka, ",66603
Attorneys,(785) 357-6320,534 S Kansas Ave # 1000,Sook Christopher,KS,"Topeka, ",66603
Attorneys,(785) 357-6541,801 SW Western Ave,"Turner, Phillip L",KS,"Topeka, ",66606
"Attorneys,Legal Service Plans",(785) 357-6541,801 SW Western AVE,Turner Phillip L Atty,KS,"Topeka, ",66606
"Attorneys,Legal Service Plans",(785) 233-0593,515 S Kansas Ave,Raimond Richard R,KS,"Topeka, ",66603
"Attorneys,Legal Service Plans",(785) 233-0593,515 S Kansas Ave # 100,Bork N Larry,KS,"Topeka, ",66603
"Attorneys,Legal Service Plans",(785) 233-0593,515 S Kansas Ave # 100,Robertson Cody G,KS,"Topeka, ",66603
"Attorneys,Legal Service Plans",(785) 233-0593,515 S Kansas Ave,"Bausch, John",KS,"Topeka, ",66603
Attorneys,(785) 233-0593,515 S Kansas Ave # 100,"Letourneau, Gerald J",KS,"Topeka, ",66603
"Attorneys,General Practice Attorneys",(785) 233-0593,515 S Kansas Ave,Hay Charles R Atty,KS,"Topeka, ",66603
Attorneys,(785) 233-0593,515 S Kansas Ave,McClure Robert Attorney,KS,"Topeka, ",66603
Attorneys,(785) 233-0593,515 S Kansas Ave,"Palmer, Arthur E",KS,"Topeka, ",66603
Attorneys,(785) 233-0593,515 S Kansas Ave,Stauffer John H Jr Attorney,KS,"Topeka, ",66603
"Attorneys,Legal Service Plans",(785) 408-8000,515 S Kansas Ave,Hamilton Patricia E,KS,"Topeka, ",66603
Attorneys,(785) 233-0593,515 S Kansas Ave # 100,"Hellmer, Ryan P",KS,"Topeka, ",66603
"Attorneys,Legal Service Plans",(785) 408-8000,515 S Kansas Ave Ste 200,Ballobin Kristin L Atty,KS,"Topeka, ",66603
"Attorneys,Legal Service Plans",(785) 276-9300,515 S Kansas Ave,Christopher Mary E,KS,"Topeka, ",66603
"Attorneys,Legal Service Plans",(785) 276-9300,515 S Kansas Ave # 403,"Garrett, J Shannon, JD",KS,"Topeka, ",66603
"Attorneys,Legal Service Plans",(785) 408-8000,515 S Kansas Ave Ste 200,Donaldson Emily Atty,KS,"Topeka, ",66603
Attorneys,(866) 240-1884,515 S Kansas Ave Ste 403,The Law Offices Of Garrett & Coons,KS,"Topeka, ",66603
"Attorneys,Legal Service Plans",(785) 233-0593,515 S Kansas Ave # 100,"Stratton, Wayne T",KS,"Topeka, ",66603
Attorneys,(785) 233-0593,515 S Kansas Ave,GSEP Law,KS,"Topeka, ",66603
"Attorneys,Legal Service Plans",(785) 233-0593,515 S Kansas Ave # 100,"Youngentob, Harold S",KS,"Topeka, ",66603
"Attorneys,Legal Service Plans",(785) 233-0593,515 S Kansas Ave,Owens Miranda K,KS,"Topeka, ",66603
"Attorneys,General Practice Attorneys",(785) 233-0593,515 S Kansas Ave # 100,Leadstrom Nathan D,KS,"Topeka, ",66603
"Attorneys,Legal Service Plans",(785) 233-0593,515 S Kansas Ave,Elwood H Philip Atty,KS,"Topeka, ",66603
Attorneys,(785) 266-9920,512 SW 6th Ave Suite 100,"Gardner, Shawn",KS,"Topeka, ",66603
"Attorneys,Divorce Assistance",(785) 266-9920,512 SW 6th Ave # 100,Consumer Law Center Pa,KS,"Topeka, ",66603
"Attorneys,Legal Service Plans",(785) 233-1446,555 S Kansas Ave Ste 101,Schwarm Steve A Atty,KS,"Topeka, ",66603
"Attorneys,Bankruptcy Services",(785) 266-9920,512 SW 6th Ave,Hinck Minter & Gardner Attorney,KS,"Topeka, ",66603
,(785) 440-4000,2942 -A SW Wanamaker Dr,,KS,"Topeka, ",66614
,(785) 273-8002,2913 SW Maupin Ln,,KS,"Topeka, ",66614
,(785) 380-0587,2813 SW Westport Plaza Dr,,KS,"Topeka, ",66614
,(785) 379-3890,3601 SW 29th St,,KS,"Topeka, ",66614
,,,,,,
Attorneys,(785) 354-1100,555 S Kansas Ave # 303,Resner Timothy D,KS,"Topeka, ",66603
Attorneys,(785) 354-1100,555 S Kansas Ave # 303,Head Brenda L,KS,"Topeka, ",66603
"Attorneys,General Practice Attorneys",(785) 354-7611,615 SW Topeka Blvd,"Probasco, Wayne",KS,"Topeka, ",66603
Attorneys,(785) 233-6334,615 SW Topeka Blvd,"Bjorgaard, E L",KS,"Topeka, ",66603
"Attorneys,Probate Law Attorneys",(785) 234-3461,534 S Kansas Ave,"Weeks, Lance A, JD",KS,"Topeka, ",66603
"Attorneys,Legal Service Plans",(785) 357-6311,534 S Kansas Ave,"Downing, Shaye L",KS,"Topeka, ",66603
Attorneys,(785) 234-3461,534 S Kansas Ave,"Wietharn, Jeffrey A, JD",KS,"Topeka, ",66603
Attorneys,(785) 235-9511,534 S Kansas Ave # 1100,"Bonebrake, Carol B",KS,"Topeka, ",66603
"Attorneys,Legal Service Plans",(785) 235-9511,534 S Kansas Ave # 1100,"Horttor, Donald J",KS,"Topeka, ",66603
Attorneys,(785) 357-6311,534 S Kansas Ave,"Johnson, Alan V",KS,"Topeka, ",66603
"Attorneys,Legal Service Plans",(785) 233-3600,534 S Kansas Ave,Kellim Kristopher M Atty,KS,"Topeka, ",66603
Attorneys,(785) 233-3600,534 S Kansas Ave # 1400,"Linenberger, Marta F",KS,"Topeka, ",66603
Attorneys,(785) 234-3461,534 S Kansas Ave,"De Fries, S Lucky, JD",KS,"Topeka, ",66603
Attorneys,(785) 233-3600,534 S Kansas Ave,"Hay, Charles R",KS,"Topeka, ",66603
Attorneys,(785) 842-6311,534 S Kansas Ave,"Peterson, Martha A",KS,"Topeka, ",66603
"Attorneys,Legal Service Plans",(785) 357-6320,534 S Kansas Ave,James Richard Biles,KS,"Topeka, ",66603
Attorneys,(785) 357-6311,534 S Kansas Ave,"Lanterman, Stephen D",KS,"Topeka, ",66603
"Attorneys,General Practice Attorneys",(785) 235-9511,534 S Kansas Ave,"Houston, John T, JD",KS,"Topeka, ",66603
Attorneys,(785) 235-9511,534 S Kansas Ave,"Baer, Robert L, JD",KS,"Topeka, ",66603
Attorneys,(785) 354-1471,534 S Kansas Ave,"Neis, Mark W, JD",KS,"Topeka, ",66603
"Attorneys,Legal Service Plans",(785) 272-4800,534 S Kansas Ave,"Oyler, Stan",KS,"Topeka, ",66603
"Attorneys,Family Law Attorneys",(785) 357-6311,534 S Kansas Ave,"Sloan, James W",KS,"Topeka, ",66603
"Attorneys,Legal Service Plans",(785) 233-3600,534 S Kansas Ave # 1400,"Graber, Jeremy L",KS,"Topeka, ",66603
Attorneys,(785) 233-3600,534 S Kansas Ave # 1400,"Rhodes, Johnathan A",KS,"Topeka, ",66603
Attorneys,(785) 354-1471,534 S Kansas Ave,"Michaux, Jill A, JD",KS,"Topeka, ",66603
Attorneys,(785) 357-6311,534 S Kansas Ave,"McEntire, James R",KS,"Topeka, ",66603
Attorneys,(785) 235-9511,534 S Kansas Ave,"Jensen, Donald E, JD",KS,"Topeka, ",66603
"Attorneys,Tax Attorneys",(785) 234-3461,534 S Kansas Ave,"Nothern, R Austin, JD",KS,"Topeka, ",66603
Attorneys,(785) 357-6311,534 S Kansas Ave,"Jacques, Brian",KS,"Topeka, ",66603
,(785) 440-4000,2942 -A SW Wanamaker Dr,,KS,"Topeka, ",66614
,(785) 273-8002,2913 SW Maupin Ln,,KS,"Topeka, ",66614
,(785) 379-3890,3601 SW 29th St,,KS,"Topeka, ",66614
,(785) 380-0587,2813 SW Westport Plaza Dr,,KS,"Topeka, ",66614
,,,,,,
Attorneys,(785) 266-9920,512 SW 6th Ave,"Minter, Scott M",KS,"Topeka, ",66603
Attorneys,(785) 296-2500,500 SW Van Buren St,Regional Legal Counsel,KS,"Topeka, ",66603
Attorneys,(785) 232-9828,424 S Kansas Ave Ste 205,Federal Public Defender,KS,"Topeka, ",66603
"Attorneys,General Practice Attorneys",(785) 272-1900,2631 SE Aquarius Dr,"Hurd, E Bernard",KS,"Topeka, ",66605
"Attorneys,Legal Service Plans",(785) 235-2378,425 S Kansas Ave,Works & Works,KS,"Topeka, ",66603
"Attorneys,Legal Service Plans",(785) 272-0159,1936 SW Bowman Ct,Schenk Michael J Atty,KS,"Topeka, ",66604
"Attorneys,Legal Service Plans",(785) 228-5736,400 S Kansas Ave # 200,Martinek Ron D,KS,"Topeka, ",66603
"Attorneys,Legal Service Plans",(785) 228-5736,400 S Kansas Ave # 200,Barney Carrie A,KS,"Topeka, ",66603
Attorneys,(785) 228-5736,400 S Kansas Ave # 200,"Kitt, Charles F",KS,"Topeka, ",66603
Attorneys,(785) 357-6510,400 S Kansas Ave # 202,Sutton Shelly,KS,"Topeka, ",66603
"Attorneys,Legal Service Plans",(785) 228-5736,400 S Kansas Ave # 200,Shultz Timothy A,KS,"Topeka, ",66603
"Attorneys,Legal Service Plans",(785) 235-3415,434 SW Topeka Blvd,Beck Terry E,KS,"Topeka, ",66603
"Attorneys,General Practice Attorneys",(785) 235-3415,434 SW Topeka Blvd,Kurtz Law Office Chartered,KS,"Topeka, ",66603
Attorneys,(785) 235-3415,434 SW Topeka Blvd,Conwell Gary L,KS,"Topeka, ",66603
"Attorneys,Legal Service Plans",(785) 235-3415,434 SW Topeka Blvd,Francis Michael,KS,"Topeka, ",66603
Attorneys,(785) 266-5121,3117 SW Harland Ct,"Clutter, Michael",KS,"Topeka, ",66604
Estate Planning Attorneys,(785) 409-4878,PO Box 750644,The Law Office of Ronald D. Dees,KS,"Topeka, ",66675
Attorneys,(785) 267-7184,PO Box 1501,"Steffen, Robert L",KS,"Topeka, ",66601
Attorneys,(785) 233-7860,1240 SW Oakley,"John R. Dietrick, P.A.",KS,"Topeka, ",66604
Attorneys,(785) 234-4600,1436 SW Lakeside Dr,"Horttor-Donald, J",KS,"Topeka, ",66604
Attorneys,(785) 273-6342,3536 SW Avalon Ln,"Wright, Douglas S",KS,"Topeka, ",66604
Attorneys,(785) 783-8780,3613 SE 30th Ter # 204,"Thompson, Lucas",KS,"Topeka, ",66605
"Attorneys,Legal Service Plans",(785) 232-7003,201 SW Greenwood Ave,Desch Joe,KS,"Topeka, ",66606
"Attorneys,Criminal Law Attorneys",(785) 408-5888,1111 SW Gage Blvd,Jurgensen Zook Pa,KS,"Topeka, ",66604
Attorneys,(785) 408-5888,1111 SW Gage Blvd # 300,"Zook, Jennifer, JD",KS,"Topeka, ",66604
"Attorneys,Legal Service Plans",(785) 783-8323,3500 SW Fairlawn Rd,Gay Riordan Fincher Munson & Sinclair,KS,"Topeka, ",66614
Attorneys,(785) 783-8323,3500 SW Fairlawn Rd Ste 210,Gay Eldon,KS,"Topeka, ",66614
"Attorneys,General Practice Attorneys",(785) 267-7300,4990 SW 21st St,Beary Law Firm,KS,"Topeka, ",66604
Attorneys,(785) 215-8506,3500 SW Fairlawn Rd,Crowley Law Office,KS,"Topeka, ",66614
Attorneys,(785) 273-2020,4848 SW 21st St # 202,"Weathers, Wesley A, JD",KS,"Topeka, ",66604
"Attorneys,Legal Service Plans",(785) 273-2020,4848 SW 21st St # 202,"Sheppeard, Cynthia J",KS,"Topeka, ",66604
,(785) 273-8002,2913 SW Maupin Ln,,KS,"Topeka, ",66614
,(785) 379-3890,3601 SW 29th St,,KS,"Topeka, ",66614
,(785) 380-0587,2813 SW Westport Plaza Dr,,KS,"Topeka, ",66614
,(785) 440-4000,2942 -A SW Wanamaker Dr,,KS,"Topeka, ",66614
,,,,,,
"Attorneys,Legal Service Plans",(785) 272-8794,3620 SW Fairlawn Rd,Telthorst & Associates,KS,"Topeka, ",66614
"Attorneys,Legal Service Plans",(785) 271-9991,3321 SW 6th Ave,"Cafer, Glenda",KS,"Topeka, ",66606
Attorneys,(785) 232-7761,3550 SW 5th St # A,"Pepperdine, Larry G, JD",KS,"Topeka, ",66606
"Attorneys,Legal Service Plans",(785) 232-7761,3550 SW 5th St,Cooper David R,KS,"Topeka, ",66606
Attorneys,(785) 232-7761,3550 SW 5th St,"Mock, Terelle A",KS,"Topeka, ",66606
Attorneys,(785) 232-7761,3550 SW 5th St # A,"Pigg, J Steven",KS,"Topeka, ",66606
Attorneys,(785) 232-7761,3550 SW 5th St # A,"Watson, Teresa L",KS,"Topeka, ",66606
"Attorneys,Legal Service Plans",(785) 232-7761,3550 SW 5th St,Fabert Steve R Atty,KS,"Topeka, ",66606
"Attorneys,Legal Service Plans",(785) 273-7722,5601 SW Barrington Ct S,"Streit, Alan E",KS,"Topeka, ",66614
"Attorneys,Legal Service Plans",(785) 273-7722,5601 SW Barrington Ct S,"Crowley, Matthew S, JD",KS,"Topeka, ",66614
Attorneys,(785) 273-7722,5601 SW Barrington Ct S,"Riggs, Joel",KS,"Topeka, ",66614
"Attorneys,Legal Service Plans",(785) 273-7722,5601 SW Barrington Ct S,Reed Ben Atty,KS,"Topeka, ",66614
"Attorneys,Family Law Attorneys",(785) 235-5330,5611 SW Barrington Ct S,Woner Glenn Reeder & Girard PA,KS,"Topeka, ",66614
"Attorneys,General Practice Attorneys",(785) 272-3000,5611 SW Barrington Ct S,"Hoover, Ann L",KS,"Topeka, ",66614
Attorneys,(785) 235-5330,5611 SW Barrington Ct S,"Girard, Timothy H, JD",KS,"Topeka, ",66614
Attorneys,(785) 235-5330,5611 SW Barrington Ct S,Woner Bruce J,KS,"Topeka, ",66614
"Attorneys,Legal Service Plans",(785) 271-0800,5605 SW Barrington Ct S,Bennett & Hendrix LLP,KS,"Topeka, ",66614
Attorneys,(785) 271-0800,5605 SW Barrington Ct S,"Moylan, Penny R",KS,"Topeka, ",66614
"Attorneys,General Practice Attorneys",(785) 273-3153,5340 SW 17th St,Barry Law Offices,KS,"Topeka, ",66604
Attorneys,(785) 783-7229,3532 SW Kent Ct,Rasch A,KS,"Topeka, ",66614
"Attorneys,Legal Service Plans",(785) 272-1600,2110 SW Belle Ave Ste. A,Smith-Woertz Ardith R,KS,"Topeka, ",66614
Attorneys,(785) 273-8002,2913 SW Maupin Ln,"Diehl, Kevin L, JD",KS,"Topeka, ",66614
Attorneys,(785) 273-8002,2913 SW Maupin Ln,"Diehl, Tom",KS,"Topeka, ",66614
Attorneys,(785) 273-8002,2913 SW Maupin Ln,Ralston Pope & Diehl,KS,"Topeka, ",66614
"Attorneys,General Practice Attorneys",(785) 273-1441,5845 SW 29th St,Hein Ronald R,KS,"Topeka, ",66614
"Attorneys,General Practice Attorneys",(785) 273-1650,5897 SW 29th St,Hal Des Jardins Law Office,KS,"Topeka, ",66614
Attorneys,(785) 251-1003,5897 SW 29th St,"Whitter, Duncan A",KS,"Topeka, ",66614
Attorneys,(785) 440-4000,2942 SW Wanamaker Dr,Biggs James B,KS,"Topeka, ",66614
"Attorneys,Insurance,Legal Service Plans",(785) 228-1901,5100 SW 10th Ave,David N Holstead PA,KS,"Topeka, ",66604
,(785) 440-4000,2942 -A SW Wanamaker Dr,,KS,"Topeka, ",66614
,(785) 273-8002,2913 SW Maupin Ln,,KS,"Topeka, ",66614
,(785) 380-0587,2813 SW Westport Plaza Dr,,KS,"Topeka, ",66614
,(785) 379-3890,3601 SW 29th St,,KS,"Topeka, ",66614
,,,,,,
Attorneys,(785) 440-4000,2942 SW Wanamaker Dr,Cox Vincent M,KS,"Topeka, ",66614
"Attorneys,Criminal Law Attorneys",(785) 440-4000,2942A SW Wanamaker Dr,"Lemon, Thomas G - Cavanaugh & Lemon Pa",KS,"Topeka, ",66614
"Attorneys,General Practice Attorneys",(785) 272-2121,2900 SW Wanamaker Dr # 204,Berberick Law Office,KS,"Topeka, ",66614
Attorneys,(785) 272-2121,2900 SW Wanamaker Dr,Bankruptcy Advocates,KS,"Topeka, ",66614
Attorneys,(785) 273-8835,2813 SW Westport Plaza Dr,M Copeland Law,KS,"Topeka, ",66614
Attorneys,(785) 861-7100,3024 SW Wanamaker Rd,Urbom Law Office Charted,KS,"Topeka, ",66614
Attorneys,(785) 861-7100,3024 SW Wanamaker Rd Ste 301,Urbom Kathleen,KS,"Topeka, ",66614
Attorneys,(785) 273-5250,2231 SW Wanamaker Rd,Pitsenberger William H,KS,"Topeka, ",66614
Attorneys,(785) 273-5250,2231 SW Wanamaker Rd Ste 101,Hickert B J,KS,"Topeka, ",66614
Attorneys,(785) 354-1100,1414 SW Ashworth Pl,"Unrein, Eric I, JD",KS,"Topeka, ",66604
Attorneys,(785) 354-1100,1414 SW Ashworth Pl,"Fowler, Kevin M, JD",KS,"Topeka, ",66604
Attorneys,(785) 354-1100,1414 SW Ashworth Pl,"Resner, Timothy D",KS,"Topeka, ",66604
Attorneys,(785) 354-1100,1414 SW Ashworth Pl,"Bergmann, Mathew R",KS,"Topeka, ",66604
Attorneys,(785) 232-7266,1414 SW Ashworth Pl,"Patty, Clint",KS,"Topeka, ",66604
Attorneys,(785) 354-1100,1414 SW Ashworth Pl,"Head, Brenda L, JD",KS,"Topeka, ",66604
"Attorneys,Legal Service Plans",(785) 272-5462,6131 SW Brookfield Cir,Schulteis Henry J Atty,KS,"Topeka, ",66614
"Attorneys,Legal Service Plans",(785) 273-1332,148 SW Fairlawn Rd,Elwood H Philip Atty,KS,"Topeka, ",66606
Attorneys,(785) 234-0059,5100 SW Redbud Ln,"Wright, James C, JD",KS,"Topeka, ",66606
Attorneys,(785) 273-1851,6342 SW 21st St,Ronald J Laskowski P A,KS,"Topeka, ",66615
Attorneys,(785) 267-5004,6342 SW 21st St # 101,Entz Entz & Laskowski,KS,"Topeka, ",66615
Attorneys,(785) 273-5566,2440 SW Camelot Pl,"Schultz, Richard A, JD",KS,"Topeka, ",66614
"Attorneys,General Practice Attorneys",(785) 235-0686,2708 NW Topeka Blvd,Patton Law Firm,KS,"Topeka, ",66617
Attorneys,(785) 478-3869,6729 SW Sherwood Ct,"Hein, Ronald R",KS,"Topeka, ",66614
Attorneys,(785) 783-7065,2850 SW Mission Woods Dr,Law Offices of David Alegria,KS,"Topeka, ",66614
"Attorneys,General Practice Attorneys",(785) 272-5500,3910 SW Canterbury Town Rd,"Herron, Jeannine",KS,"Topeka, ",66610
"Attorneys,Legal Service Plans",(785) 478-1177,2224 SW Lowell Ln,Wells Douglas E,KS,"Topeka, ",66614
Attorneys,(785) 408-5888,4830 NE Indian Creek Rd,Jennifer Zook Law Office,KS,"Topeka, ",66617
Attorneys,(785) 224-3431,,Bruce J Clark Law Offices,KS,"Topeka, ",66608
Attorneys,(785) 234-5681,9021 SW 45th St,"Quarnstrom, Carl W, JD",KS,"Topeka, ",66610
Attorneys,(785) 246-1268,5548 NW Brickyard Rd,Ireland Lawrence P Atty,KS,"Topeka, ",66618
Attorneys,(785) 232-6401,,Coxe Susana Vg Atty,KS,"Topeka, ",66604
,(785) 379-3890,3601 SW 29th St,,KS,"Topeka, ",66614
,(785) 380-0587,2813 SW Westport Plaza Dr,,KS,"Topeka, ",66614
,(785) 440-4000,2942 -A SW Wanamaker Dr,,KS,"Topeka, ",66614
,(785) 273-8002,2913 SW Maupin Ln,,KS,"Topeka, ",66614
,,,,,,
Attorneys,(785) 354-8188,,"Harper, John P, JD",KS,"Topeka, ",66606
Attorneys,(785) 233-2015,,Devoe & Neff Lawyers Lic,KS,"Topeka, ",66603
"Attorneys,Legal Service Plans",(785) 233-2015,,Pope Judy,KS,"Topeka, ",66603
"Attorneys,Bankruptcy Services",(785) 276-9300,515 S Kansas Ave Ste 403,Law Office of Garrett & Coons,KS,"Topeka, ",66603
"Insurance Attorneys,Attorneys",(785) 233-8600,1001 SE Quincy St,Pauzauskie Law Offices,KS,"Topeka, ",66612
"DUI & DWI Attorneys,Attorneys",(785) 232-3540,114 SE 8th Ave,"Berger, J.E. Jerry Atty At Law",KS,"Topeka, ",66603
Immigration Law Attorneys,(785) 235-6500,1243 SW Topeka Blvd,Edward M. Collazo,KS,"Topeka, ",66612
"State Government,Attorneys",(785) 296-4564,120 SW 10th Ave Fl 1,State of Kansas,KS,"Topeka, ",66612
"Court & Convention Reporters,Attorneys",(785) 272-0610,4831 SW 33rd Ter,Waters Court Reporting,KS,"Topeka, ",66614
"Federal Law Attorneys,Attorneys",(785) 267-0040,3301 SW Van Buren St,Rein William C,KS,"Topeka, ",66611
"Appellate Practice Attorneys,Attorneys",(785) 267-0040,3301 SW Van Buren St,Keeshan E Robert,KS,"Topeka, ",66611
Corporation & Partnership Law Attorneys,(785) 267-0040,3301 SW Van Buren St,Willard Jim,KS,"Topeka, ",66611
"Divorce Attorneys,Attorneys",(785) 266-9920,3706 SW Topeka Blvd,Consumer Law Center PA,KS,"Topeka, ",66609
"Adoption Law Attorneys,Attorneys",(785) 234-0022,2222 SE Pennsylvania Ave,Christian Family Adoption,KS,"Topeka, ",66605
"Adoption Services,Attorneys",(785) 234-0022,2222 SE Pennsylvania Ave,Austin K Vincent Adoption Law,KS,"Topeka, ",66605
"General Practice Attorneys,Attorneys",(785) 235-3961,1503 SE Quincy St,Jones & Purce,KS,"Topeka, ",66612
"Real Estate Management,Attorneys",(785) 233-9467,1610 SW Topeka Blvd,Huerter Joseph Pielo SW Topeka,KS,"Topeka, ",66612
"Legal Service Plans,Attorneys",(785) 234-3272,1508 SW Topeka Blvd,Meek Casey Y,KS,"Topeka, ",66612
"Legal Service Plans,Attorneys",(785) 234-3272,1508 SW Topeka Blvd,Strickland Sonya L,KS,"Topeka, ",66612
"Arbitration Services,Attorneys",(785) 234-3272,1508 SW Topeka Blvd,DUI Defense Team,KS,"Topeka, ",66612
"Divorce Assistance,Attorneys",(785) 235-2361,1400 SW Topeka Blvd,Waggener Roby Standiferd,KS,"Topeka, ",66612
Corporation & Partnership Law Attorneys,(785) 354-1100,100 SE 9th St,Davis Unrein Biggs & Head LLP,KS,"Topeka, ",66612
Employee Benefits & Worker...,(785) 233-9988,100 SE 9th St,Peterson Gary M,KS,"Topeka, ",66612
"Legal Service Plans,Attorneys",(785) 232-3104,510 SW 10th Ave,Carpenter Derrick Atty,KS,"Topeka, ",66612
"Adoption Law Attorneys,Attorneys",(785) 233-4800,114 SE 8th Ave,Family Law Practice,KS,"Topeka, ",66603
"Wills, Trusts & Estate Planning...",(785) 232-2662,800 SW Jackson St # 1310,Hayse Richard F,KS,"Topeka, ",66612
Securities & Investment Law Attorneys,(785) 232-2662,800 SW Jackson St # 1310,Walter Roger N,KS,"Topeka, ",66612
"General Practice Attorneys,Attorneys",(785) 233-1344,707 SE Quincy St Ste A,French Law Office,KS,"Topeka, ",66603
"Mediation Services,Attorneys",(785) 232-5348,712 S Kansas Ave,Midland Mediation-Settlement,KS,"Topeka, ",66603
,(785) 273-8002,2913 SW Maupin Ln,,KS,"Topeka, ",66614
,(785) 379-3890,3601 SW 29th St,,KS,"Topeka, ",66614
,(785) 380-0587,2813 SW Westport Plaza Dr,,KS,"Topeka, ",66614
,(785) 440-4000,2942 -A SW Wanamaker Dr,,KS,"Topeka, ",66614
,,,,,,
"General Practice Attorneys,Attorneys",(785) 232-8033,3024 SW Wanamaker Rd Ste 307,McWilliams Law Office,KS,"Topeka, ",66614
"Legal Service Plans,Attorneys",(785) 272-0927,420 SW Whitehall Ln,Barry Donald D,KS,"Topeka, ",66606
"Legal Service Plans,Attorneys",(785) 357-5010,5016 SW Brentwood Ct,Bertelson Kenneth P,KS,"Topeka, ",66606
"Adoption Law Attorneys,Attorneys",(785) 232-6401,,Coxe Family Law Corp Atty,KS,"Topeka, ",66601
"Attorneys,Legal Service Plans",(785) 256-7117,930 Washington St,Barnett Lee,KS,"Auburn, ",66402
Attorneys,(785) 256-7117,930 Washington St,Auburn Professional Offices,KS,"Auburn, ",66402
Attorneys,(785) 836-2277,11035 S Lakeview Rd,Selvidge Kathleen Atty,KS,"Carbondale, ",66414
Attorneys,(785) 484-2103,212 Palmer St,"Leffingwell, David, JD",KS,"Meriden, ",66512
Attorneys,(785) 232-2727,114 SE 8th Avenue,Jarboe Law,,"Topeka, ",66603
"Attorneys,General Practice Attorneys",(785) 863-2772,,Hayes Michael C Atty,KS,"Oskaloosa, ",66066
Attorneys,(785) 273-9222,,Thomas J Leising,,,
Attorneys,(785) 232-2600,,Reynolds Gold & Grosser PC,,,
"Wills, Trusts & Estate Planning...",(785) 783-8558,,Shultz Jack W,,,
Corporation & Partnership Law Attorneys,(785) 484-2443,PO Box 320,"David, Leffingwell Law Offices",KS,"Meriden, ",66512
"Legal Service Plans,Attorneys",(785) 354-8531,,Kansas Legal Services,,,
,(785) 440-4000,2942 -A SW Wanamaker Dr,,KS,"Topeka, ",66614
,(785) 273-8002,2913 SW Maupin Ln,,KS,"Topeka, ",66614
,(785) 379-3890,3601 SW 29th St,,KS,"Topeka, ",66614
,(785) 380-0587,2813 SW Westport Plaza Dr,,KS,"Topeka, ",66614
,,,,,,
"Legal Service Plans,Attorneys",(785) 234-9702,700 SW Jackson St,Cambell Amy A,KS,"Topeka, ",66603
"County & Parish Government,Attorneys",(785) 296-1833,701 SW Jackson St # 300,Shawnee County Public Defender,KS,"Topeka, ",66603
Accident & Property Damage Attorneys,(785) 233-2015,700 SW Jackson St,Dickson And Pope,KS,"Topeka, ",66603
"Family Law Attorneys,Attorneys",(785) 233-4800,634 S Kansas Ave,Family Law Practice,KS,"Topeka, ",66603
Corporation & Partnership Law Attorneys,(785) 233-0579,1122 SW 10th Ave,Jones Jeffrey,KS,"Topeka, ",66604
"Bankruptcy Law Attorneys,Attorneys",(785) 234-3663,112 SW 6th Ave,Joe I. Wittman - Attorney,KS,"Topeka, ",66603
"General Practice Attorneys,Attorneys",(785) 232-2777,214 SW 6th Ave Ste 305,Law Office of Terry A Iies,KS,"Topeka, ",66603
"Divorce Assistance,Attorneys",(785) 235-9777,214 SW 6th Ave,Carkhuff Timothy J Attorney At Law,KS,"Topeka, ",66603
"Collection Agencies,Attorneys",(785) 233-2332,615 SW Topeka Blvd,E Lou Bjorgaard Probasco,KS,"Topeka, ",66603
"Legal Service Plans,Attorneys",(785) 408-8000,515 S Kansas Ave Ste 200,Smith Wesley F,KS,"Topeka, ",66603
"Legal Service Plans,Attorneys",(785) 408-8000,515 S Kansas Ave Ste 200,Stevens & Brand,KS,"Topeka, ",66603
"Legal Service Plans,Attorneys",(785) 233-0593,515 S Kansas Ave,Salsbury Patrick M,KS,"Topeka, ",66603
"Consumer Law Attorneys,Attorneys",(785) 267-7867,511 SW Jackson St,Consumer Law Center,KS,"Topeka, ",66603
"Legal Service Plans,Attorneys",(785) 234-1551,509 SW Jackson St,Hamilton Jan,KS,"Topeka, ",66603
"Bankruptcy Law Attorneys,Attorneys",(785) 234-1551,509 SW Jackson St,Chapter 13 Bankruptcy Trustee,KS,"Topeka, ",66603
"Legal Service Plans,Attorneys",(785) 232-2727,525 SW Topeka Blvd,Berger Jerold E,KS,"Topeka, ",66603
"Legal Service Plans,Attorneys",(785) 357-6510,400 S Kansas Ave,The Kansas Continuing Legal Education,KS,"Topeka, ",66603
"Legal Service Plans,Attorneys",(785) 357-6386,305 SW Greenwood Ave,Palmer A L Landscp Desgnrs,KS,"Topeka, ",66606
"Family Law Attorneys,Attorneys",(785) 228-2080,1215 SW Gage Blvd,Reynolds Mindy,KS,"Topeka, ",66604
"Divorce Assistance,Attorneys",(785) 271-2385,5040 SW 28th St,Divorce Works,KS,"Topeka, ",66614
"Legal Service Plans,Attorneys",(785) 271-1410,1027 SW Gage Blvd,Sullivan D Thad,KS,"Topeka, ",66604
"Legal Service Plans,Attorneys",(785) 271-1082,5111 SW 21st St,Heck Ronald D,KS,"Topeka, ",66604
"Legal Service Plans,Attorneys",(785) 215-6474,1701 SW Fairlawn Rd,Michael S Navaro PA,KS,"Topeka, ",66604
Discrimination & Civil Rights Law...,(785) 273-7722,5601 SW Barrington Ct S,"Larson, William A",KS,"Topeka, ",66614
"Mediation Services,Attorneys",(785) 272-1600,2110 SW Belle Ave,Ebert William F,KS,"Topeka, ",66614
"Legal Service Plans,Attorneys",(785) 272-5630,3220 SW Timberlake Ln,Desjardins Hal E,KS,"Topeka, ",66614
"Title Companies,Escrow Service",(785) 271-9500,5715 SW 21st St,Lawyers Title,KS,"Topeka, ",66604
"Juvenile Law Attorneys,Attorneys",(785) 273-3900,5891 SW 29th St,Schultz Marc A Attorney At Law,KS,"Topeka, ",66614
"Litigation & Tort Attorneys,Attorneys",(785) 440-4000,2942A SW Wanamaker Dr,"Grosskreutz, Scott A, JD",KS,"Topeka, ",66614
"Construction Law Attorneys,Attorneys",(785) 234-2453,5930 SW 29th Street,Bryan Smith Attorney At Law,KS,"Topeka, ",66614
,(785) 380-0587,2813 SW Westport Plaza Dr,,KS,"Topeka, ",66614
,(785) 273-8002,2913 SW Maupin Ln,,KS,"Topeka, ",66614
,(785) 440-4000,2942 -A SW Wanamaker Dr,,KS,"Topeka, ",66614
,(785) 379-3890,3601 SW 29th St,,KS,"Topeka, ",66614
,,,,,,
