category,phone,streetAddress,name,addressState,addressCity,addressZip
"Insurance,Fire Insurance",(316) 721-1800,7200 W 13th St N Ste 6,Hensley Insurance Inc.,KS,"Wichita, ",67212
Insurance,(316) 685-2388,5745 E Central Ave,Blythe Insurance Agency Inc,KS,"Wichita, ",67208
"Auto Insurance,Health Insurance",(316) 682-5500,935 S Woodlawn Blvd,Cope Insurance Agency,KS,"Wichita, ",67218
"Insurance,Auto Insurance",(866) 276-1219,,State Farm,,,
"Auto Insurance,Insurance",(316) 652-7500,3236 N Rock Rd,GEICO Insurance Agent,KS,"Wichita, ",67226
Insurance,(877) 899-7483,,Progressive Insurance,,,
"Insurance,Auto Insurance",(877) 832-0334,,Discount Insurance Quotes,,,
"Insurance,Auto Insurance",(888) 494-5280,,Discount Insurance Quotes,,,
"Auto Insurance,Insurance",(316) 652-7500,3236 N Rock Rd,GEICO Insurance Agent,KS,"Wichita, ",67226
"Insurance,Fire Insurance",(316) 721-1800,7200 W 13th St N Ste 6,Hensley Insurance Inc.,KS,"Wichita, ",67212
Insurance,(316) 685-2388,5745 E Central Ave,Blythe Insurance Agency Inc,KS,"Wichita, ",67208
"Auto Insurance,Health Insurance",(316) 682-5500,935 S Woodlawn Blvd,Cope Insurance Agency,KS,"Wichita, ",67218
"Insurance,Auto Insurance",(316) 681-1470,2020 N Webb Rd Suite 201,Jim Maddox,KS,"Wichita, ",67206
"Insurance,Auto Insurance",(316) 722-7700,1930 N Maize Rd,Steve Clark Insurance Agency,KS,"Wichita, ",67212
"Insurance,Life Insurance",(316) 684-2809,931 S Rock Rd,Anderson Ross Agency,KS,"Wichita, ",67207
"Debt Adjusters,Investments",(316) 267-1233,7701 E Kellogg Dr,Primerica/Jeannie Roberts,KS,"Wichita, ",67207
Boat & Marine Insurance,(316) 712-4155,2020 N Tyler Rd,Andy Woodward Insurance Agency,KS,"Wichita, ",67212
Insurance,(316) 729-8300,889 N Maize Rd,Thomas May Insurance,KS,"Wichita, ",67212
Insurance,(316) 425-7755,123 N Tyler Rd,Midwest Insurance Agency,KS,"Wichita, ",67212
Health Plans-Information & Referral...,(316) 943-2101,2061 N West St,Greg Fewin Agency,KS,"Wichita, ",67203
"Insurance,Life Insurance,Auto Insurance",(316) 687-1244,7777 E Osie St Ste 303A,Stan Miller Agency Inc,KS,"Wichita, ",67207
Business & Commercial Insurance,(316) 462-9263,5112 E Central Ave,Whitehead Insurance LLC,KS,"Wichita, ",67208
Insurance Consultants & Analysts,(316) 263-4927,1111 W Douglas Ave Ste 2,Farmers Ins Group - Floyd Bird,KS,"Wichita, ",67213
"Insurance,Auto Insurance",(316) 683-7537,9415 E Harry St Ste 701,Insurors Inc,KS,"Wichita, ",67207
Business & Commercial Insurance,(316) 264-9317,1700 E Douglas Ave,M & M Insurance,KS,"Wichita, ",67214
"Insurance,Auto Insurance",(316) 686-5968,13121 E 21st St N,Kevin Shields - State Farm Insurance Agent,KS,"Wichita, ",67230
"Insurance,Homeowners Insurance",(316) 683-6571,303 S Hillside St,Terry Johnson - State Farm Insurance Agent,KS,"Wichita, ",67211
"Insurance,Homeowners Insurance",(316) 945-5775,3610 W Central Ave,David Lawrence - State Farm Insurance Agent,KS,"Wichita, ",67203
"Insurance,Auto Insurance",(316) 684-0509,6121 E Central Ave,Andre Hale - State Farm Insurance Agent,KS,"Wichita, ",67208
"Insurance,Homeowners Insurance",(316) 722-9009,530 N Ridge Rd,Shelby Brock - State Farm Insurance Agent,KS,"Wichita, ",67212
"Insurance,Auto Insurance",(316) 681-2641,8118 E Douglas Ave,Bob Jones - State Farm Insurance Agent,KS,"Wichita, ",67206
"Insurance,Homeowners Insurance",(316) 267-3846,108 E 2nd St N,David Kemp - State Farm Insurance Agent,KS,"Wichita, ",67202
"Insurance,Homeowners Insurance",(316) 267-8273,923 W Douglas Ave,Josh Miller - State Farm Insurance Agent,KS,"Wichita, ",67213
"Insurance,Homeowners Insurance",(316) 941-4545,2803 W 13th St N,Tammy Long - State Farm Insurance Agent,KS,"Wichita, ",67203
"Insurance,Homeowners Insurance",(316) 838-4204,2307 N Amidon Ave,Vic Everett - State Farm Insurance Agent,KS,"Wichita, ",67204
"Insurance,Homeowners Insurance",(316) 425-3717,4618 E Central Ave,Josh Bolduc - State Farm Insurance Agent,KS,"Wichita, ",67208
"Insurance,Homeowners Insurance",(316) 942-7481,1337 N West St,Lien Nguyen - State Farm Insurance Agent,KS,"Wichita, ",67203
"Insurance,Homeowners Insurance",(316) 522-4443,2701 S Seneca St,Don Payne - State Farm Insurance Agent,KS,"Wichita, ",67217
,(877) 331-8261,,,,,
,(888) 444-0603,,,,,
,(888) 431-3748,,,,,
,(877) 294-7187,,,,,
,(877) 889-9212,,,,,
,(888) 431-3748,,,,,
,(877) 826-2256,,,,,
,(866) 788-4408,,,,,
,(888) 221-3685,,,,,
,(877) 281-5725,,,,,
,(316) 462-9263,5112 E Central Ave,,KS,"Wichita, ",67208
,(877) 294-7187,,,,,
,(316) 687-1244,7777 E Osie St Ste 303A,,KS,"Wichita, ",67207
,(316) 681-1470,2020 N Webb Rd Suite 201,,KS,"Wichita, ",67206
,(316) 722-7700,1930 N Maize Rd,,KS,"Wichita, ",67212
,(316) 263-4927,1111 W Douglas Ave Ste 2,,KS,"Wichita, ",67213
,(316) 712-4155,2020 N Tyler Rd,,KS,"Wichita, ",67212
,(316) 267-1233,7701 E Kellogg Dr,,KS,"Wichita, ",67207
,(316) 448-0536,1311 N Rose Hill Rd,,KS,"Rose Hill, ",67133
,(316) 729-8300,889 N Maize Rd,,KS,"Wichita, ",67212
,(316) 943-2101,2061 N West St,,KS,"Wichita, ",67203
,(316) 425-7755,123 N Tyler Rd,,KS,"Wichita, ",67212
,(316) 684-2809,931 S Rock Rd,,KS,"Wichita, ",67207
,(316) 652-7500,3236 N Rock Rd,,KS,"Wichita, ",67226
,(316) 321-0630,6262 SW Spring Rd,,KS,"El Dorado, ",67042
,(316) 683-7537,9415 E Harry St Ste 701,,KS,"Wichita, ",67207
"Insurance,Homeowners Insurance",(316) 942-4440,2400 W Pawnee St,Ed Sandate - State Farm Insurance Agent,KS,"Wichita, ",67213
"Insurance,Auto Insurance",(316) 686-6878,5635 E Harry St,Jose Looney - State Farm Insurance Agent,KS,"Wichita, ",67218
"Insurance,Auto Insurance",(316) 721-8822,101 S Ridge Rd,Justin Buoy - State Farm Insurance Agent,KS,"Wichita, ",67209
"Insurance,Homeowners Insurance",(316) 440-4949,7829 E Rockhill St,Heidi Holle-Williams - State Farm Insurance Agent,KS,"Wichita, ",67206
"Insurance,Auto Insurance",(316) 425-0925,1125 S Rock Rd,Crystal McEachern - State Farm Insurance Agent,KS,"Wichita, ",67207
"Insurance,Auto Insurance",(316) 721-4849,7570 W 21st St N,Bill Kemp - State Farm Insurance Agent,KS,"Wichita, ",67205
"Insurance,Homeowners Insurance",(316) 683-7548,3700 N Woodlawn Blvd,Gary Thompson - State Farm Insurance Agent,KS,"Wichita, ",67220
"Insurance,Homeowners Insurance",(316) 636-1020,2929 N Rock Rd,Les Withrow - State Farm Insurance Agent,KS,"Wichita, ",67226
"Insurance,Homeowners Insurance",(316) 687-2700,2929 N Rock Rd,Kevin R Rathert - State Farm Insurance Agent,KS,"Wichita, ",67226
"Insurance,Homeowners Insurance",(316) 722-5466,8815 W 13th St N,Mike Dillmon - State Farm Insurance Agent,KS,"Wichita, ",67212
"Insurance,Homeowners Insurance",(316) 685-0394,9431 E Central Ave,John Schultz - State Farm Insurance Agent,KS,"Wichita, ",67206
"Insurance,Auto Insurance",(316) 721-8181,2121 N Tyler Rd,Paul Brucks - State Farm Insurance Agent,KS,"Wichita, ",67212
"Insurance,Homeowners Insurance",(316) 685-4006,9415 E Harry St,Kathy Richard - State Farm Insurance Agent,KS,"Wichita, ",67207
"Insurance,Homeowners Insurance",(316) 729-4600,10254 W 13th St N,Dean Jones - State Farm Insurance Agent,KS,"Wichita, ",67212
"Insurance,Homeowners Insurance",(316) 613-3811,215 S Maize Rd,David Dettwiler - State Farm Insurance Agent,KS,"Wichita, ",67209
"Insurance,Homeowners Insurance",(316) 682-2300,11330 E Central Ave,Ernie Ruelas - State Farm Insurance Agent,KS,"Wichita, ",67206
"Insurance,Homeowners Insurance",(316) 685-2156,1459 S Greenwich Rd,Scott Forester - State Farm Insurance Agent,KS,"Wichita, ",67207
"Insurance,Auto Insurance",(316) 721-5769,13303 W Maple St,Jim Morgan - State Farm Insurance Agent,KS,"Wichita, ",67235
"Insurance,Auto Insurance",(316) 722-7621,1000 N Tyler Rd,Mary Sue Smith - State Farm Insurance Agent,KS,"Wichita, ",67212
Health Insurance,(316) 262-1550,,AAA Fortune Protection Ins,KS,"Wichita, ",67208
Insurance,(316) 202-1320,1101 W Douglas Ave,Theodore Shannon - Farmers Insurance,KS,"Wichita, ",67213
"Insurance,Life Insurance,Auto Insurance",(316) 202-1303,615 E 47th St S Ste 621,Gordon Ritthaler - Farmers Insurance,KS,"Wichita, ",67216
"Insurance,Auto Insurance",(316) 247-6050,8606 W 13th St N #180,Michael Edwards - Farmers Insurance,KS,"Wichita, ",67212
"Insurance,Homeowners Insurance",(316) 247-6016,9310 E 37th St N,Steven Long - Farmers Insurance,KS,"Wichita, ",67226
Insurance,(316) 729-8796,7920 W Kellogg Dr Suite 400,Castleberry Insurance,KS,"Wichita, ",67209
Insurance,(316) 686-6666,1819 S Rock Rd Ste 101,Insurance Partners of Kansas,KS,"Wichita, ",67207
Insurance,(316) 729-8304,889 N Maize Rd Ste 201,Thomas L. May Insurance,KS,"Wichita, ",67212
Insurance,(316) 682-9200,5112 E Central Ave,Whitehead Insurance,KS,"Wichita, ",67208
Insurance,(888) 323-9602,,Progressive Insurance,KS,"Wichita, ",67206
Insurance,(888) 260-6493,,Progressive Insurance,KS,"Wichita, ",67202
,(877) 331-8261,,,,,
,(888) 444-0603,,,,,
,(877) 294-7187,,,,,
,(888) 431-3748,,,,,
,(316) 283-9100,130 E 4th St,,KS,"Newton, ",67114
,(316) 264-9317,1700 E Douglas Ave,,KS,"Wichita, ",67214
,(316) 262-1550,,,KS,"Wichita, ",67208
,(620) 326-5977,1018 W 8th St,,KS,"Wellington, ",67152
,(316) 202-1303,615 E 47th St S Ste 621,,KS,"Wichita, ",67216
,(316) 247-6050,8606 W 13th St N #180,,KS,"Wichita, ",67212
,(316) 247-6016,9310 E 37th St N,,KS,"Wichita, ",67226
,(316) 202-1320,1101 W Douglas Ave,,KS,"Wichita, ",67213
,(620) 326-3359,116 W Lincoln Ave,,KS,"Wellington, ",67152
,(316) 684-0509,6121 E Central Ave,,KS,"Wichita, ",67208
,(316) 777-1157,113 E Plaza Ln,,KS,"Mulvane, ",67110
,(316) 721-4849,7570 W 21st St N,,KS,"Wichita, ",67205
,(316) 681-2641,8118 E Douglas Ave,,KS,"Wichita, ",67206
,(316) 721-7779,4041 N Maize Rd,,KS,"Maize, ",67101
,(316) 320-2210,208 S Main St,,KS,"El Dorado, ",67042
,(620) 583-7481,1115 E River St,,KS,"Eureka, ",67045
,(316) 744-7500,1548 E 61st St N,,KS,"Park City, ",67219
,(316) 425-0925,1125 S Rock Rd,,KS,"Wichita, ",67207
,(316) 788-2885,325 N Baltimore Ave,,KS,"Derby, ",67037
,(316) 613-3811,215 S Maize Rd,,KS,"Wichita, ",67209
,(316) 267-3846,108 E 2nd St N,,KS,"Wichita, ",67202
,(316) 945-5775,3610 W Central Ave,,KS,"Wichita, ",67203
,(316) 776-0558,1311 N Rose Hill Rd,,KS,"Rose Hill, ",67133
,(316) 729-4600,10254 W 13th St N,,KS,"Wichita, ",67212
,(316) 522-4443,2701 S Seneca St,,KS,"Wichita, ",67217
,(316) 942-4440,2400 W Pawnee St,,KS,"Wichita, ",67213
,(316) 682-2300,11330 E Central Ave,,KS,"Wichita, ",67206
,(316) 683-7548,3700 N Woodlawn Blvd,,KS,"Wichita, ",67220
,(316) 440-4949,7829 E Rockhill St,,KS,"Wichita, ",67206
,(316) 681-1470,2020 N Webb Rd Suite 201,,KS,"Wichita, ",67206
Insurance,(316) 942-1231,3202 W 13th St N,Johnson Hank Insurance,KS,"Wichita, ",67203
"Insurance,Auto Insurance",(316) 685-1244,13413 E Windham St,Larnard Smith Cushenberry Insurance,KS,"Wichita, ",67230
"Auto Insurance,Insurance",(316) 721-3300,1301 N West St,"Allstate Insurance Company - Kevin Hutchins, Premier Agency",KS,"Wichita, ",67203
"Auto Insurance,Insurance",(316) 686-3059,5825 E Central Ave,Allstate Insurance Company - David K Kauffman,KS,"Wichita, ",67208
"Auto Insurance,Insurance",(316) 462-9209,3900 E Harry #100,Allstate Insurance Company - Anthony Newry,KS,"Wichita, ",67218
"Auto Insurance,Insurance",(316) 945-0090,4800 W Maple St # 116,"Allstate Insurance Company - William Mull, Premier Agency",KS,"Wichita, ",67209
"Auto Insurance,Insurance",(316) 684-0121,6611 E Central Ave Ste A,Allstate Insurance Company - Mike Light,KS,"Wichita, ",67206
"Auto Insurance,Insurance",(316) 681-2120,2020 N Woodlawn 380,"Allstate Insurance Company - Timothy Waltrip, Premier Agency",KS,"Wichita, ",67208
"Auto Insurance,Insurance",(316) 689-8452,260 N Rock Rd Ste 125,"Allstate Insurance Company - Mark Wurfel, Premier Agency",KS,"Wichita, ",67206
"Auto Insurance,Insurance",(316) 682-0202,1861 N Rock Rd Ste 203,"Allstate Insurance Company - Kevin Hutchins, Premier Agency",KS,"Wichita, ",67206
"Insurance,Truck Insurance,Auto Insurance",(316) 729-8796,7920 W Kellogg Dr Suite 400,Castleberry Insurance,KS,"Wichita, ",67209
"Insurance,Truck Insurance,Auto Insurance",(316) 686-6666,1819 S Rock Rd Ste 101,Insurance Partners of Kansas,KS,"Wichita, ",67207
"Auto Insurance,Insurance",(316) 462-9275,6505 E 37th St N Ste 300,Allstate Insurance Company - Jon Emmitt,KS,"Wichita, ",67226
"Auto Insurance,Insurance",(316) 722-3222,8815 W 13th St N Suite 140,"Allstate Insurance Company - Pamela Kirtley, Premier Agency",KS,"Wichita, ",67212
"Auto Insurance,Insurance",(316) 684-0777,550 N Webb Rd Unit C2,Allstate Insurance Company - Patrick Haller,KS,"Wichita, ",67206
"Auto Insurance,Insurance",(316) 651-5600,9415 E Harry St Suite 704,"Allstate Insurance Company - Tracy Rutledge, Premier Agency",KS,"Wichita, ",67207
"Truck Insurance,Auto Insurance",(316) 729-8304,889 N Maize Rd Ste 201,Thomas L. May Insurance,KS,"Wichita, ",67212
"Auto Insurance,Insurance",(316) 773-9864,10011 W 21st St N Ste 107,"Allstate Insurance Company - William Mull, Premier Agency",KS,"Wichita, ",67205
"Auto Insurance,Insurance",(316) 686-1117,1603 N Chapel Hill St #100,Allstate Insurance Company - Ross Viner,KS,"Wichita, ",67206
"Auto Insurance,Insurance",(316) 721-1418,11931 W Central #300,Allstate Insurance Company - Krystal Allee,KS,"Wichita, ",67212
"Insurance,Truck Insurance,Auto Insurance",(316) 682-9200,5112 E Central Ave,Whitehead Insurance,KS,"Wichita, ",67208
"Insurance,Truck Insurance,Auto Insurance",(888) 260-6493,,Progressive Insurance,KS,"Wichita, ",67202
"Insurance,Truck Insurance,Auto Insurance",(888) 323-9602,,Progressive Insurance,KS,"Wichita, ",67206
"Financial Services,Insurance",(316) 202-1543,2400 W Pawnee St Ste 102,American Family Insurance - Gregory N. Rogers Agency Inc.,KS,"Wichita, ",67213
"Homeowners Insurance,Life Insurance",(316) 684-2809,931 S Rock Rd,Farmers Insurance-Ross Anderson,KS,"Wichita, ",67207
"Financial Services,Homeowners Insurance",(316) 202-1554,9091 W Central Ave,American Family Insurance - John Rouse,KS,"Wichita, ",67212
"Attorneys,Transportation Law Attorneys",(316) 262-6800,727 N Waco Ave,Hammond Zongker & Farris,KS,"Wichita, ",67203
"Financial Services,Homeowners Insurance",(316) 202-1546,2046 S Seneca St,American Family Insurance - Jerrod Crawford,KS,"Wichita, ",67213
"Financial Services,Homeowners Insurance",(316) 202-1332,1512 N Broadway St,American Family Insurance - Alice Nguyen,KS,"Wichita, ",67214
"Financial Services,Homeowners Insurance",(316) 202-1341,251 S Hillside St,American Family Insurance - Dan Beat Agency Inc.,KS,"Wichita, ",67211
"Financial Services,Homeowners Insurance",(316) 202-1542,2607 W 13th St N,American Family Insurance - Brad Woody,KS,"Wichita, ",67203
"Financial Services,Homeowners Insurance",(316) 202-1347,2607 W 13th St N,American Family Insurance - Dustee D. Self,KS,"Wichita, ",67203
,(888) 431-3748,,,,,
,(877) 331-8261,,,,,
,(877) 294-7187,,,,,
,(888) 444-0603,,,,,
,(316) 721-5769,13303 W Maple St,,KS,"Wichita, ",67235
,(316) 685-0394,9431 E Central Ave,,KS,"Wichita, ",67206
,(316) 686-6878,5635 E Harry St,,KS,"Wichita, ",67218
,(316) 425-3717,4618 E Central Ave,,KS,"Wichita, ",67208
,(316) 267-8273,923 W Douglas Ave,,KS,"Wichita, ",67213
"Used Car Dealers,Warranty Contracts",(316) 247-1788,2868 S Broadway St,Affordable Auto Inc,KS,"Wichita, ",67216
"Insurance,Auto Insurance",(866) 276-1219,,State Farm,,,
Insurance,(877) 899-7483,,Progressive Insurance,,,
"Insurance,Auto Insurance",(888) 444-0603,,American Family Insurance,,,
"Insurance,Auto Insurance",(877) 294-7187,,GEICO,,,
"Insurance,Property & Casualty Insurance",(888) 431-3748,,Allstate Insurance Company,,,
"Auto Insurance,Investment Management",(877) 889-9212,,COUNTRY Financial,,,
Insurance,(866) 788-4408,,The General Insurance,,,
"Auto Insurance,Insurance",(877) 281-5725,,Nationwide Insurance,,,
"Insurance,Auto Insurance,Banks",(316) 448-0536,1311 N Rose Hill Rd,DeWane R Ewert - State Farm Insurance Agent,KS,"Rose Hill, ",67133
"Auto Insurance,Insurance",(877) 826-2256,,Farmers Insurance,,,
"Insurance,Truck Insurance,Auto Insurance",(888) 221-3685,,Progressive Insurance,,,
Insurance,(316) 321-0630,6262 SW Spring Rd,"Wartick Insurance Agency, LLC",KS,"El Dorado, ",67042
"Insurance,Auto Insurance",(855) 291-0255,,Discount Insurance Quotes,,,
"Financial Services,Homeowners Insurance",(316) 202-1547,2040 W 21st St N,American Family Insurance - Vern Harding Agency Inc.,KS,"Wichita, ",67203
"Financial Services,Homeowners Insurance",(316) 202-1337,303 N West St Ste 100,American Family Insurance - Sandra Means,KS,"Wichita, ",67203
"Financial Services,Homeowners Insurance",(316) 202-1573,4520 E Central Ave,American Family Insurance - Jon Green,KS,"Wichita, ",67208
"Financial Services,Homeowners Insurance",(316) 202-1563,2400 W Pawnee St Ste 102,American Family Insurance - Michael S. Rogers Agency Inc.,KS,"Wichita, ",67213
"Financial Services,Homeowners Insurance",(316) 202-4188,5333 E Kellogg Dr,American Family Insurance - Gerald Shope,KS,"Wichita, ",67218
"Financial Services,Homeowners Insurance",(316) 202-1334,4960 E 21st St N Ste 106,American Family Insurance - Alex Acosta,KS,"Wichita, ",67208
"Financial Services,Homeowners Insurance",(316) 202-1336,5813 E Central Ave,American Family Insurance - Rich Hutfles Agency Inc.,KS,"Wichita, ",67208
"Financial Services,Homeowners Insurance",(316) 202-1566,2120 N Woodlawn St Ste 333,American Family Insurance - Stephanie Kemp,KS,"Wichita, ",67208
"Financial Services,Homeowners Insurance",(316) 202-1596,7000 E Harry St,American Family Insurance - Gerald Amato Agency Inc.,KS,"Wichita, ",67207
"Financial Services,Homeowners Insurance",(316) 202-1552,7701 E Kellogg Dr Ste 730,American Family Insurance - Robert Davis,KS,"Wichita, ",67207
"Financial Services,Homeowners Insurance",(316) 202-1559,8020 E Central Ave Ste 140,American Family Insurance - Sara Long Agency Llc,KS,"Wichita, ",67206
"Financial Services,Homeowners Insurance",(316) 202-1574,1133 S Rock Rd Ste 7,American Family Insurance - Sammy Oduniyi,KS,"Wichita, ",67207
"Financial Services,Homeowners Insurance",(316) 202-1590,7570 W 21st St N Ste 1046B,American Family Insurance - Kenneth Schuette,KS,"Wichita, ",67205
,(316) 721-8822,101 S Ridge Rd,,KS,"Wichita, ",67209
,(316) 685-4006,9415 E Harry St,,KS,"Wichita, ",67207
,(316) 687-2700,2929 N Rock Rd,,KS,"Wichita, ",67226
,(316) 686-5968,13121 E 21st St N,,KS,"Wichita, ",67230
,(316) 636-1020,2929 N Rock Rd,,KS,"Wichita, ",67226
,(316) 942-7481,1337 N West St,,KS,"Wichita, ",67203
,(316) 775-5494,105 E 5th Ave,,KS,"Augusta, ",67010
,(316) 722-7621,1000 N Tyler Rd,,KS,"Wichita, ",67212
,(316) 722-5466,8815 W 13th St N,,KS,"Wichita, ",67212
,(316) 721-8181,2121 N Tyler Rd,,KS,"Wichita, ",67212
,(316) 788-7788,1710 E Madison Ave,,KS,"Derby, ",67037
,(316) 283-5143,522 N Main St,,KS,"Newton, ",67114
,(316) 685-2156,1459 S Greenwich Rd,,KS,"Wichita, ",67207
,(316) 722-9009,530 N Ridge Rd,,KS,"Wichita, ",67212
"Auto Insurance,Insurance",(888) 427-0542,,Esurance,,,
"Financial Services,Homeowners Insurance",(316) 202-1585,8404 W 13th St N Ste 190,American Family Insurance - Vivian Adams,KS,"Wichita, ",67212
"Financial Services,Homeowners Insurance",(316) 202-1549,2121 N Tyler Rd Ste 111,American Family Insurance - Chris Post,KS,"Wichita, ",67212
"Financial Services,Homeowners Insurance",(316) 202-1550,8343 E 32nd St N Ste 130,American Family Insurance - Rachel Fenske Agency Inc,KS,"Wichita, ",67226
"Financial Services,Homeowners Insurance",(316) 202-1551,9415 E Harry St Ste 105,American Family Insurance - P. S. Sengvilay,KS,"Wichita, ",67207
"Financial Services,Homeowners Insurance",(316) 202-1544,1317 N Maize Rd Ste 103,American Family Insurance - Pamela Kirk,KS,"Wichita, ",67212
"Financial Services,Homeowners Insurance",(316) 202-1346,10616 W Maple St Ste 400,American Family Insurance - Kerri Mauck,KS,"Wichita, ",67209
"Financial Services,Homeowners Insurance",(316) 202-1579,343 S Greenwich Rd Ste 103,American Family Insurance - Jennifer Gagnebin,KS,"Wichita, ",67207
"Financial Services,Homeowners Insurance",(316) 202-1338,2552 N Maize Ct Ste 600,American Family Insurance - Angela Valentine,KS,"Wichita, ",67205
"Financial Services,Homeowners Insurance",(316) 202-1560,631 N Cardington St,American Family Insurance - David Spachek,KS,"Wichita, ",67212
"Financial Services,Homeowners Insurance",(316) 202-1567,11940 W Central Ave Ste 106,American Family Insurance - Shon L. Chapman Agency Inc.,KS,"Wichita, ",67212
"Title Companies,Insurance,Notaries Public",(316) 522-8292,1409 W 31st St S,D&S Thrifty Auto Title Service,KS,"Wichita, ",67217
"Insurance,Health Insurance",(316) 304-3727,7570 W 21st St N,Health Insurance Specialist The,KS,"Wichita, ",67205
,(316) 722-7700,1930 N Maize Rd,,KS,"Wichita, ",67212
,(316) 941-4545,2803 W 13th St N,,KS,"Wichita, ",67203
,(316) 683-6571,303 S Hillside St,,KS,"Wichita, ",67211
,(316) 283-6726,1025 N Main St,,KS,"Newton, ",67114
,(316) 788-1964,958 N Buckner St,,KS,"Derby, ",67037
,(316) 733-1000,825 W Central Ave,,KS,"Andover, ",67002
,(316) 320-2136,142 N Main St,,KS,"El Dorado, ",67042
,(316) 838-4204,2307 N Amidon Ave,,KS,"Wichita, ",67204
,(316) 321-2305,223 N Main St,,KS,"El Dorado, ",67042
,(316) 685-1244,13413 E Windham St,,KS,"Wichita, ",67230
,(800) 488-2408,407 N Merchant St,,KS,"Belle Plaine, ",67013
"Insurance,Auto Insurance",(877) 832-0334,,Discount Insurance Quotes,,,
"Motorcycle Insurance,Life Insurance",(877) 248-0512,,Liberty Mutual,,,
"Motorcycle Insurance,Insurance",(888) 309-5920,,Liberty Mutual,,,
"Motorcycle Insurance,Insurance",(888) 850-6560,,Liberty Mutual,,,
"Auto Insurance,Insurance",(866) 404-7305,,Auto Insurance Compare ©,,,
"Auto Insurance,Insurance",(877) 220-5911,,Liberty Mutual,,,
"Auto Insurance,Insurance",(888) 850-5017,,Liberty Mutual,,,
"Insurance,Auto Insurance",(877) 455-4189,,Insuring Today,,,
"Insurance,Auto Insurance",(888) 445-8127,,Insuring Tomorrow LLC,,,
"Insurance,Truck Insurance,Auto Insurance",(877) 774-5547,,Liberty Mutual,,,
"Insurance,Truck Insurance,Auto Insurance",(888) 844-0057,,Liberty Mutual,,,
"Insurance,Auto Insurance",(888) 450-3656,,Insuring Today,,,
"Auto Insurance,Insurance",(877) 866-0104,,Cheap Auto Insurance®,,,
"Life Insurance,Motorcycle Insurance",(877) 558-0536,,US Insurance Net,,,
Flood Insurance,(316) 721-4746,6700 W Central Ave Ste 114,Steve Pore Insurance Agency - Farmers,KS,"Wichita, ",67212
"Travel Agencies,Airline Ticket Agencies",(316) 262-5167,5227 S Main St,Traveltime,KS,"Wichita, ",67217
"Abstracters,Escrow Service",(316) 267-8371,434 N Main St,Security 1st Title,KS,"Wichita, ",67202
"Title Companies,Escrow Service",(316) 262-8261,232 N Mead St,Kansas Secured Title-Sedgwick County,KS,"Wichita, ",67202
,(877) 294-7187,,,,,
,(888) 431-3748,,,,,
,(877) 331-8261,,,,,
,(888) 444-0603,,,,,
,(316) 942-1231,3202 W 13th St N,,KS,"Wichita, ",67203
,(316) 729-8796,7920 W Kellogg Dr Suite 400,,KS,"Wichita, ",67209
,(316) 729-8796,7920 W Kellogg Dr Suite 400,,KS,"Wichita, ",67209
,(316) 686-6666,1819 S Rock Rd Ste 101,,KS,"Wichita, ",67207
,(316) 686-6666,1819 S Rock Rd Ste 101,,KS,"Wichita, ",67207
,(316) 283-9100,130 E 4th St,,KS,"Newton, ",67114
,(877) 331-8261,,,,,
,(877) 294-7187,,,,,
,(888) 444-0603,,,,,
,(888) 431-3748,,,,,
,(316) 788-8806,1121 N College Park St Ste 300,,KS,"Derby, ",67037
,(316) 945-0090,4800 W Maple St # 116,,KS,"Wichita, ",67209
,(316) 773-9864,10011 W 21st St N Ste 107,,KS,"Wichita, ",67205
,(888) 542-4965,,,,,
,(888) 812-8697,,,,,
,(888) 855-0113,,,,,
,(877) 866-0104,,,,,
,(855) 291-0255,,,,,
,(888) 427-0542,,,,,
,(888) 346-8634,,,,,
,(316) 283-9100,130 E 4th St,,KS,"Newton, ",67114
,(888) 323-9602,,,KS,"Wichita, ",67206
,(888) 260-6493,,,KS,"Wichita, ",67202
,(888) 260-6493,,,KS,"Wichita, ",67202
,(888) 323-9602,,,KS,"Wichita, ",67206
,(316) 729-8304,889 N Maize Rd Ste 201,,KS,"Wichita, ",67212
,(316) 729-8304,889 N Maize Rd Ste 201,,KS,"Wichita, ",67212
,(316) 682-9200,5112 E Central Ave,,KS,"Wichita, ",67208
,(316) 682-9200,5112 E Central Ave,,KS,"Wichita, ",67208
,(316) 462-9209,3900 E Harry #100,,KS,"Wichita, ",67218
,(316) 686-3059,5825 E Central Ave,,KS,"Wichita, ",67208
,(316) 440-4141,105 S Andover Rd Suite C-1,,KS,"Andover, ",67002
,(316) 462-9275,6505 E 37th St N Ste 300,,KS,"Wichita, ",67226
,(316) 721-3300,1301 N West St,,KS,"Wichita, ",67203
,(888) 450-3656,,,,,
,(888) 445-8127,,,,,
,(877) 248-0512,,,,,
,(877) 204-9373,,,,,
,(888) 312-2581,,,,,
,,,,,,
,(866) 742-0682,116 N Main St,,KS,"Cunningham, ",67035
,(855) 256-2402,101 N Kansas St,,KS,"Haven, ",67543
,(316) 462-9320,3900 E Harry #100,,KS,"Wichita, ",67218
,(316) 347-7889,6505 E 37th St N Ste 300,,KS,"Wichita, ",67226
,(316) 215-7906,123 E Broadway St Ste 101,,KS,"Newton, ",67114
,(316) 682-0202,1861 N Rock Rd Ste 203,,KS,"Wichita, ",67206
,(316) 558-8181,1701 E Madison Ave Suite E,,KS,"Derby, ",67037
,(316) 721-1418,11931 W Central #300,,KS,"Wichita, ",67212
,(316) 689-8452,260 N Rock Rd Ste 125,,KS,"Wichita, ",67206
,(316) 684-0121,6611 E Central Ave Ste A,,KS,"Wichita, ",67206
,(316) 722-3222,8815 W 13th St N Suite 140,,KS,"Wichita, ",67212
,(316) 684-0777,550 N Webb Rd Unit C2,,KS,"Wichita, ",67206
,(316) 686-1117,1603 N Chapel Hill St #100,,KS,"Wichita, ",67206
,(316) 681-2120,2020 N Woodlawn 380,,KS,"Wichita, ",67208
,(316) 651-5600,9415 E Harry St Suite 704,,KS,"Wichita, ",67207
"Insurance,Fire Insurance",(316) 721-1800,7200 W 13th St N Ste 6,Hensley Insurance Inc.,KS,"Wichita, ",67212
Insurance,(316) 685-2388,5745 E Central Ave,Blythe Insurance Agency Inc,KS,"Wichita, ",67208
"Auto Insurance,Health Insurance",(316) 682-5500,935 S Woodlawn Blvd,Cope Insurance Agency,KS,"Wichita, ",67218
"Insurance,Auto Insurance",(866) 276-1219,,State Farm,,,
"Auto Insurance,Insurance",(316) 652-7500,3236 N Rock Rd,GEICO Insurance Agent,KS,"Wichita, ",67226
Insurance,(877) 899-7483,,Progressive Insurance,,,
"Insurance,Auto Insurance",(877) 832-0334,,Discount Insurance Quotes,,,
"Insurance,Auto Insurance",(888) 494-5280,,Discount Insurance Quotes,,,
"Auto Insurance,Insurance",(316) 652-7500,3236 N Rock Rd,GEICO Insurance Agent,KS,"Wichita, ",67226
"Insurance,Fire Insurance",(316) 721-1800,7200 W 13th St N Ste 6,Hensley Insurance Inc.,KS,"Wichita, ",67212
Insurance,(316) 685-2388,5745 E Central Ave,Blythe Insurance Agency Inc,KS,"Wichita, ",67208
"Auto Insurance,Health Insurance",(316) 682-5500,935 S Woodlawn Blvd,Cope Insurance Agency,KS,"Wichita, ",67218
"Insurance,Auto Insurance",(316) 681-1470,2020 N Webb Rd Suite 201,Jim Maddox,KS,"Wichita, ",67206
"Insurance,Auto Insurance",(316) 722-7700,1930 N Maize Rd,Steve Clark Insurance Agency,KS,"Wichita, ",67212
"Insurance,Life Insurance",(316) 684-2809,931 S Rock Rd,Anderson Ross Agency,KS,"Wichita, ",67207
"Debt Adjusters,Investments",(316) 267-1233,7701 E Kellogg Dr,Primerica/Jeannie Roberts,KS,"Wichita, ",67207
Boat & Marine Insurance,(316) 712-4155,2020 N Tyler Rd,Andy Woodward Insurance Agency,KS,"Wichita, ",67212
Insurance,(316) 729-8300,889 N Maize Rd,Thomas May Insurance,KS,"Wichita, ",67212
Insurance,(316) 425-7755,123 N Tyler Rd,Midwest Insurance Agency,KS,"Wichita, ",67212
Health Plans-Information & Referral...,(316) 943-2101,2061 N West St,Greg Fewin Agency,KS,"Wichita, ",67203
"Insurance,Life Insurance,Auto Insurance",(316) 687-1244,7777 E Osie St Ste 303A,Stan Miller Agency Inc,KS,"Wichita, ",67207
Business & Commercial Insurance,(316) 462-9263,5112 E Central Ave,Whitehead Insurance LLC,KS,"Wichita, ",67208
Insurance Consultants & Analysts,(316) 263-4927,1111 W Douglas Ave Ste 2,Farmers Ins Group - Floyd Bird,KS,"Wichita, ",67213
"Insurance,Auto Insurance",(316) 683-7537,9415 E Harry St Ste 701,Insurors Inc,KS,"Wichita, ",67207
Business & Commercial Insurance,(316) 264-9317,1700 E Douglas Ave,M & M Insurance,KS,"Wichita, ",67214
"Insurance,Auto Insurance",(316) 686-5968,13121 E 21st St N,Kevin Shields - State Farm Insurance Agent,KS,"Wichita, ",67230
"Insurance,Homeowners Insurance",(316) 683-6571,303 S Hillside St,Terry Johnson - State Farm Insurance Agent,KS,"Wichita, ",67211
"Insurance,Motorcycle Insurance",(877) 622-7228,,Motorcycle Insurance Pro,,,
"Insurance,Homeowners Insurance",(316) 945-5775,3610 W Central Ave,David Lawrence - State Farm Insurance Agent,KS,"Wichita, ",67203
"Insurance,Auto Insurance",(316) 684-0509,6121 E Central Ave,Andre Hale - State Farm Insurance Agent,KS,"Wichita, ",67208
"Insurance,Homeowners Insurance",(316) 722-9009,530 N Ridge Rd,Shelby Brock - State Farm Insurance Agent,KS,"Wichita, ",67212
"Insurance,Auto Insurance",(316) 681-2641,8118 E Douglas Ave,Bob Jones - State Farm Insurance Agent,KS,"Wichita, ",67206
"Insurance,Homeowners Insurance",(316) 267-3846,108 E 2nd St N,David Kemp - State Farm Insurance Agent,KS,"Wichita, ",67202
"Insurance,Homeowners Insurance",(316) 267-8273,923 W Douglas Ave,Josh Miller - State Farm Insurance Agent,KS,"Wichita, ",67213
"Insurance,Homeowners Insurance",(316) 941-4545,2803 W 13th St N,Tammy Long - State Farm Insurance Agent,KS,"Wichita, ",67203
"Insurance,Homeowners Insurance",(316) 838-4204,2307 N Amidon Ave,Vic Everett - State Farm Insurance Agent,KS,"Wichita, ",67204
"Insurance,Homeowners Insurance",(316) 425-3717,4618 E Central Ave,Josh Bolduc - State Farm Insurance Agent,KS,"Wichita, ",67208
"Insurance,Homeowners Insurance",(316) 942-7481,1337 N West St,Lien Nguyen - State Farm Insurance Agent,KS,"Wichita, ",67203
"Insurance,Homeowners Insurance",(316) 522-4443,2701 S Seneca St,Don Payne - State Farm Insurance Agent,KS,"Wichita, ",67217
,(888) 431-3748,,,,,
,(877) 331-8261,,,,,
"Insurance,Recreational Vehicle Insurance",(888) 839-6522,,RV Insurance Finder ©,,,
"Auto Insurance,Insurance",(888) 812-8697,,Allstate®,,,
"Auto Insurance,Insurance",(866) 403-0294,,21st Century,,,
"Homeowners Insurance,Insurance",(877) 815-8513,,MetLife,,,
Insurance,(866) 411-6811,,Cheap Auto Insurance Quotes,,,
Property & Casualty Insurance,(888) 807-1609,,Cheap Auto Insurance Quotes,,,
"Auto Insurance,Motorcycle Insurance",(877) 499-4774,,Cheap Auto Insurance Quotes,,,
"Insurance,Recreational Vehicle Insurance",(877) 220-5934,,Liberty Mutual,,,
Annuities & Retirement Insurance Plans,(888) 346-8536,,Insurancery,,,
"Auto Insurance,Insurance",(888) 346-8559,,Insurancery,,,
"Auto Insurance,Insurance",(888) 854-1062,,Cheap Auto Insurance Quotes,,,
"Insurance,Recreational Vehicle Insurance",(888) 850-6528,,Liberty Mutual,,,
Health Plans-Information & Referral...,(877) 204-9373,,Ready For My Quote,,,
"Motorcycle Insurance,Dental Insurance",(877) 202-8781,,MetLife,,,
"Life Insurance,Insurance",(888) 855-0113,,Ameri Quote,,,
,(888) 444-0603,,,,,
,(877) 294-7187,,,,,
,(877) 889-9212,,,,,
,(888) 431-3748,,,,,
,(877) 826-2256,,,,,
,(866) 788-4408,,,,,
,(888) 221-3685,,,,,
,(877) 281-5725,,,,,
,(316) 462-9263,5112 E Central Ave,,KS,"Wichita, ",67208
,(877) 294-7187,,,,,
,(316) 687-1244,7777 E Osie St Ste 303A,,KS,"Wichita, ",67207
,(316) 681-1470,2020 N Webb Rd Suite 201,,KS,"Wichita, ",67206
,(316) 722-7700,1930 N Maize Rd,,KS,"Wichita, ",67212
,(316) 263-4927,1111 W Douglas Ave Ste 2,,KS,"Wichita, ",67213
,(316) 712-4155,2020 N Tyler Rd,,KS,"Wichita, ",67212
"Truck Insurance,Insurance",(888) 287-8959,,Progressive Commercial Vehicle,,,
"Health Insurance,Insurance",(877) 261-1785,,Health Markets,,,
"Insurance,Health Insurance",(866) 389-4563,,US Insurance Net,,,
"Insurance,Life Insurance",(866) 402-7245,,US Insurance Net,,,
"Property & Casualty Insurance,Insurance",(855) 873-0572,,Ready For My Quote,,,
Insurance,(855) 880-5013,,Best Quotes,,,
"Property & Casualty Insurance,Insurance",(888) 760-3869,,Insurancery,,,
"Life Insurance,Insurance",(888) 346-8330,,Insurancery,,,
"Fire Insurance,Insurance",(888) 760-3889,,Insurancery,,,
"Homeowners Insurance,Insurance",(888) 346-8634,,Insurancery,,,
"Renters Insurance,Insurance",(877) 579-2769,,Rate Kick,,,
"Insurance,Life Insurance",(866) 317-9328,,US Insurance Net,,,
"Motorcycle Insurance,Life Insurance",(888) 346-8577,,Insurancery,,,
Insurance,(888) 346-8581,,Insurancery,,,
,(316) 267-1233,7701 E Kellogg Dr,,KS,"Wichita, ",67207
,(316) 448-0536,1311 N Rose Hill Rd,,KS,"Rose Hill, ",67133
,(316) 729-8300,889 N Maize Rd,,KS,"Wichita, ",67212
,(316) 943-2101,2061 N West St,,KS,"Wichita, ",67203
,(316) 425-7755,123 N Tyler Rd,,KS,"Wichita, ",67212
,(316) 684-2809,931 S Rock Rd,,KS,"Wichita, ",67207
,(316) 652-7500,3236 N Rock Rd,,KS,"Wichita, ",67226
,(316) 321-0630,6262 SW Spring Rd,,KS,"El Dorado, ",67042
,(316) 683-7537,9415 E Harry St Ste 701,,KS,"Wichita, ",67207
,(888) 444-0603,,,,,
,(877) 294-7187,,,,,
,(877) 331-8261,,,,,
,(888) 431-3748,,,,,
,,,,,,
Health Plans-Information & Referral...,(888) 583-4219,,iCan Benefit Group,,,
"Insurance,Property & Casualty Insurance",(866) 404-3546,,US Insurance Net,,,
"Dental Insurance,Insurance",(877) 379-3563,,Encore Dental,,,
Insurance,(888) 820-1956,,US Insurance Net,,,
"Homeowners Insurance,Insurance",(877) 814-2573,,US Insurance Net,,,
"Renters Insurance,Insurance",(888) 346-8628,,Insurancery,,,
"Auto Insurance,Motorcycle Insurance",(888) 760-3886,,Insurancery,,,
"Homeowners Insurance,Insurance",(888) 346-8174,,Insurancery,,,
Health Plans-Information & Referral...,(888) 346-8143,,Insurancery,,,
"Insurance,Property & Casualty Insurance",(888) 815-8846,,US Insurance Net,,,
Insurance,(888) 815-9032,,US Insurance Net,,,
Property & Casualty Insurance,(888) 815-8960,,US Insurance Net,,,
"Life Insurance,Motorcycle Insurance",(888) 816-0245,,US Insurance Net,,,
"Insurance,Auto Insurance",(888) 815-9018,,US Insurance Net,,,
"Life Insurance,Health Insurance",(888) 816-0138,,US Insurance Net,,,
"Motorcycle Insurance,Health Insurance",(888) 816-0145,,US Insurance Net,,,
Auto Insurance,(316) 283-9100,130 E 4th St,Krueger Insurance,KS,"Newton, ",67114
"Insurance,Auto Insurance",(316) 744-7500,1548 E 61st St N,Cindy Waggoner - State Farm Insurance Agent,KS,"Park City, ",67219
"Insurance,Homeowners Insurance",(316) 721-7779,4041 N Maize Rd,Bob Scott - State Farm Insurance Agent,KS,"Maize, ",67101
"Insurance,Homeowners Insurance",(316) 788-1964,958 N Buckner St,Todd Benway - State Farm Insurance Agent,KS,"Derby, ",67037
"Insurance,Auto Insurance",(316) 733-1000,825 W Central Ave,Tony Durano - State Farm Insurance Agent,KS,"Andover, ",67002
"Insurance,Homeowners Insurance",(316) 788-2885,325 N Baltimore Ave,Curt White - State Farm Insurance Agent,KS,"Derby, ",67037
"Insurance,Homeowners Insurance",(316) 788-7788,1710 E Madison Ave,Rael Hodgson - State Farm Insurance Agent,KS,"Derby, ",67037
"Insurance,Homeowners Insurance",(316) 776-0558,1311 N Rose Hill Rd,DeWane R Ewert - State Farm Insurance Agent,KS,"Rose Hill, ",67133
"Insurance,Auto Insurance",(316) 777-1157,113 E Plaza Ln,Angela Fox - State Farm Insurance Agent,KS,"Mulvane, ",67110
"Insurance,Auto Insurance",(316) 775-5494,105 E 5th Ave,Lowell Peterson - State Farm Insurance Agent,KS,"Augusta, ",67010
"Insurance,Homeowners Insurance",(316) 283-5143,522 N Main St,Rich Huffman - State Farm Insurance Agent,KS,"Newton, ",67114
"Insurance,Homeowners Insurance",(316) 283-6726,1025 N Main St,Todd Barnes - State Farm Insurance Agent,KS,"Newton, ",67114
Financial Planning Consultants,(620) 326-5977,1018 W 8th St,Farm Bureau Financial Services,KS,"Wellington, ",67152
"Insurance,Life Insurance,Auto Insurance",(316) 320-2210,208 S Main St,Bonnie Buckman - State Farm Insurance Agent,KS,"El Dorado, ",67042
,(877) 331-8261,,,,,
,(888) 431-3748,,,,,
,(877) 294-7187,,,,,
,(888) 444-0603,,,,,
,,,,,,
"Insurance,Homeowners Insurance",(316) 320-2136,142 N Main St,Valerie Bean - State Farm Insurance Agent,KS,"El Dorado, ",67042
"Insurance,Homeowners Insurance",(620) 326-3359,116 W Lincoln Ave,Alison Rusk - State Farm Insurance Agent,KS,"Wellington, ",67152
"Insurance,Homeowners Insurance",(620) 583-7481,,Bruce Detwiler - State Farm Insurance Agent,,,
"Insurance,Auto Insurance",(888) 494-5280,,Discount Insurance Quotes,,,
Insurance,(316) 283-9100,130 E 4th St,Krueger Insurance,KS,"Newton, ",67114
"Auto Insurance,Insurance",(316) 558-8181,1701 E Madison Ave Suite E,"Allstate Insurance Company - Kevin Hutchins, Premier Agency",KS,"Derby, ",67037
"Auto Insurance,Insurance",(316) 788-8806,1121 N College Park St Ste 300,"Allstate Insurance Company - Tracy Rutledge, Premier Agency",KS,"Derby, ",67037
"Auto Insurance,Insurance",(316) 440-4141,105 S Andover Rd Suite C-1,Allstate Insurance Company - Jerry Garcia,KS,"Andover, ",67002
Insurance,(800) 488-2408,407 N Merchant St,Tri County Insurance,KS,"Belle Plaine, ",67013
"Insurance,Truck Insurance,Auto Insurance",(316) 283-9100,130 E 4th St,Krueger Insurance,KS,"Newton, ",67114
"Homeowners Insurance,Life Insurance",(316) 321-2305,223 N Main St,Jon Gull Agency,KS,"El Dorado, ",67042
"Insurance,Auto Insurance",(866) 763-0251,,Discount Insurance Quotes,,,
"Homeowners Insurance,Health Insurance",(888) 815-8828,,Esurance,,,
"Insurance,Auto Insurance",(888) 542-4965,,21st Century Insurance,,,
"Auto Insurance,Insurance",(866) 446-3955,,Cheap Auto Insurance Quotes,,,
"Insurance,Auto Insurance",(888) 312-2581,,US Insurance Net,,,
"Insurance,Homeowners Insurance",(877) 345-1044,,US Insurance Net,,,
Insurance,(866) 268-3284,,Cheap Auto Insurance Quotes,,,
"Insurance,Insurance Medical Examinations",(877) 844-1592,,US Insurance Net,,,
Business & Commercial Insurance,(316) 283-7281,714 N Main St,Miller Insurance Agency,KS,"Newton, ",67114
Homeowners Insurance,(316) 540-0123,217 N Main St,B Noll Insurance & Financial Services,KS,"Cheney, ",67025
"Auto Insurance,Insurance",(866) 276-1219,,State Farm,,,
"Insurance,Auto Insurance,Banks",(877) 331-8261,,State Farm,,,
"Auto Insurance,Insurance",(877) 229-9777,,GEICO,,,
"Motorcycle Insurance,Insurance",(877) 336-4405,,GEICO,,,
"Health Insurance,Dental Insurance",(800) 244-6224,,CIGNA,,,
"Auto Insurance,Insurance",(877) 229-9777,,GEICO,,,
"Auto Insurance,Insurance",(888) 539-6124,,Allstate Insurance Company,,,
"Abstracters,Title Companies",(620) 382-2130,,Hannaford Abstract & Title Co,,,
"Insurance,Property & Casualty Insurance",(888) 667-5311,,Ready For My Quote,,,
,(888) 444-0603,,,,,
,(877) 331-8261,,,,,
,(877) 294-7187,,,,,
,(888) 431-3748,,,,,
,,,,,,
"Renters Insurance,Insurance",(888) 667-7806,,Ready For My Quote,,,
"Financial Services,Insurance",(316) 202-1343,614 N Mulberry Rd,American Family Insurance - Lisa Moling,KS,"Derby, ",67037
"Financial Services,Homeowners Insurance",(316) 202-1564,260 N Main St Ste 300C,American Family Insurance - Forrest Hummel,KS,"Haysville, ",67060
"Financial Services,Homeowners Insurance",(316) 202-1545,1220 S Meridian Ave Ste C,American Family Insurance - Tim Denk,KS,"Valley Center, ",67147
"Financial Services,Homeowners Insurance",(316) 202-1577,227 S Baltimore Ave,American Family Insurance - Jean Garinger,KS,"Derby, ",67037
"Financial Services,Homeowners Insurance",(316) 202-1570,1224 N Andover Rd Ste 400,American Family Insurance - Wes Sawyer,KS,"Andover, ",67002
"Financial Services,Homeowners Insurance",(316) 202-1339,1002 N Rose Hill Rd,American Family Insurance - Tamara Potter Agency Inc.,KS,"Rose Hill, ",67133
"Financial Services,Homeowners Insurance",(316) 202-1562,1214 N Rock Rd Ste B,American Family Insurance - Kirk Farber,KS,"Mulvane, ",67110
"Financial Services,Homeowners Insurance",(316) 202-1556,107 W 6th Ave,American Family Insurance - Dylan Hartnett,KS,"Augusta, ",67010
"Financial Services,Homeowners Insurance",(316) 215-7892,2309 S Kansas Rd,American Family Insurance - Kenneth Hall,KS,"Newton, ",67114
"Financial Services,Homeowners Insurance",(316) 215-7891,1311 N Main St,American Family Insurance - Edd Wallace,KS,"Newton, ",67114
Health Insurance,(888) 413-0960,,SelectQuote Senior,,,
"Financial Services,Homeowners Insurance",(316) 251-7004,325 N Main St,American Family Insurance - Stephanie Thomas,KS,"El Dorado, ",67042
"Financial Services,Homeowners Insurance",(316) 251-7005,201 N Main St,American Family Insurance - Rebecca Shum,KS,"El Dorado, ",67042
"Financial Services,Homeowners Insurance",(620) 359-1022,108 N Washington Ave,American Family Insurance - Leta Logan,KS,"Wellington, ",67152
Telephone Companies,(866) 336-5608,,Time Warner Cable Authorized Agent,,,
"Insurance,Truck Insurance",(888) 260-6493,,Progressive Insurance,,,
"Renters Insurance,Insurance",(888) 431-3748,,Allstate Insurance Company,,,
Title Companies,(800) 592-2323,,The Document Center Inc,,,
"Truck Insurance,Motorcycle Insurance",(888) 260-6493,,Progressive Insurance,,,
"Homeowners Insurance,Insurance",(888) 431-3748,,Allstate Insurance Company,,,
"Banks,Insurance,Loans",(316) 777-1171,122 W Main St,Carson Bank,KS,"Mulvane, ",67110
"Auto Insurance,Insurance",(866) 229-8160,,Acceptance Insurance,,,
"Surety & Fidelity Bonds,Skip Tracing",(800) 835-4931,,Anytime Bail Bonds,,,
"Life Insurance,Boat & Marine Insurance",(316) 462-9320,3900 E Harry #100,"Allstate Insurance Company - Anthony Newry, Premier Agency",KS,"Wichita, ",67218
Insurance,(316) 347-7889,6505 E 37th St N Ste 300,"Allstate Insurance Company - Jon Emmitt, Premier Agency",KS,"Wichita, ",67226
"Insurance,Homeowners Insurance",(316) 721-1800,7200 W 13th St N Ste 6,Travelers Insurance-Hensley Insurance Inc,KS,"Wichita, ",67212
"Auto Insurance,Insurance,Life Insurance",(888) 522-1887,,Allstate Insurance Company,,,
Insurance,(316) 618-0000,3228 E Pawnee St,Villegas Insurance,KS,"Wichita, ",67218
"Insurance,Agriculture Insurance",(316) 522-8470,325 W 31st St S,Clites Insurance Agency,KS,"Wichita, ",67217
,(877) 331-8261,,,,,
,(888) 431-3748,,,,,
,(888) 444-0603,,,,,
,(877) 294-7187,,,,,
,,,,,,
"Insurance,Agriculture Insurance",(316) 688-1030,2400 N Woodlawn Blvd,American Family Insurance - Valerie Reich,KS,"Wichita, ",67220
Insurance,(316) 729-7862,515 N Ridge Rd # 200,Allstate,KS,"Wichita, ",67212
Insurance,(316) 944-3550,6331 W Maple St,McIver Insurance,KS,"Wichita, ",67209
"Insurance,Property & Casualty Insurance",(316) 352-5700,245 N Waco St,EMC Insurance Company,KS,"Wichita, ",67202
"Insurance,Homeowners Insurance",(316) 260-1555,2160 W 21st St N,Farmers Insurance,KS,"Wichita, ",67203
Insurance,(316) 262-0671,125 N Market St # 1600,Tigert Joseph,KS,"Wichita, ",67202
"Insurance,Financial Services",(316) 265-2220,505 S Broadway St Ste 211,Farmers Insurance - Gary Unruh,KS,"Wichita, ",67202
"Insurance,Financial Services",(316) 264-3361,1111 W Douglas Ave Ste 3,Farmers Insurance - James Franklin,KS,"Wichita, ",67213
"Homeowners Insurance,Life Insurance",(316) 265-1058,822 W 13th St N,Farmers Insurance - Robb Morrison,KS,"Wichita, ",67203
"Homeowners Insurance,Life Insurance",(316) 684-2800,2330 E Douglas Ave,Farmers Insurance - Skye Callaway,KS,"Wichita, ",67214
"Homeowners Insurance,Life Insurance",(316) 831-9783,402 W 21st St N,Farmers Insurance - Davidson Pham,KS,"Wichita, ",67203
"Homeowners Insurance,Life Insurance",(316) 665-6975,1786 S Seneca St Ste 5,Farmers Insurance - Thoi Bui,KS,"Wichita, ",67213
"Insurance,Financial Services",(316) 788-9990,200 S Hillside St Ste B,Farmers Insurance - Matthew Mills,KS,"Wichita, ",67211
"Insurance,Financial Services",(316) 308-6284,200 S Hillside St,Farmers Insurance - Sue Bailey,KS,"Wichita, ",67211
"Homeowners Insurance,Life Insurance",(316) 440-4300,200 S Hillside St,Farmers Insurance - Ramon Emmart,KS,"Wichita, ",67211
"Insurance,Financial Services",(316) 685-8091,637 S Hillside St,Farmers Insurance - Clarence Wallis,KS,"Wichita, ",67211
"Homeowners Insurance,Life Insurance",(316) 943-2101,2061 N West St,Farmers Insurance - Gregory Fewin,KS,"Wichita, ",67203
"Homeowners Insurance,Life Insurance",(316) 522-0032,1307 W 31st St S,Farmers Insurance - Bryan Hyde,KS,"Wichita, ",67217
"Homeowners Insurance,Life Insurance",(316) 683-8592,1959 S Oliver St,Farmers Insurance - Dale Headley,KS,"Wichita, ",67218
"Homeowners Insurance,Life Insurance",(316) 682-5500,935 S Woodlawn Blvd,Farmers Insurance - Anthony Cope,KS,"Wichita, ",67218
"Homeowners Insurance,Life Insurance",(316) 721-8322,6700 W Central Ave Ste 114,Farmers Insurance - Steven Pore,KS,"Wichita, ",67212
"Homeowners Insurance,Life Insurance",(316) 665-4433,6821 E Harry St,Farmers Insurance - Thai Tram,KS,"Wichita, ",67207
"Homeowners Insurance,Life Insurance",(316) 943-8400,534 N Ridge Rd Ste A,Farmers Insurance - David Blanding,KS,"Wichita, ",67212
"Homeowners Insurance,Life Insurance",(316) 201-6633,240 N Rock Rd Ste 330,Farmers Insurance - Joshua Franklin,KS,"Wichita, ",67206
"Homeowners Insurance,Life Insurance",(316) 618-3000,240 N Rock Rd Ste 210,Farmers Insurance - James Mcqueen,KS,"Wichita, ",67206
"Homeowners Insurance,Life Insurance",(316) 634-1155,8020 E Central Ave Ste 105,Farmers Insurance - Kathy Holt,KS,"Wichita, ",67206
"Insurance,Financial Services",(316) 683-5081,1445 N Rock Rd Ste 150,Farmers Insurance - Ryan Jenkins,KS,"Wichita, ",67206
"Insurance,Financial Services",(316) 612-9853,1251 S Longfellow St,Farmers Insurance - Craig Wulf,KS,"Wichita, ",67207
"Auto Insurance,Insurance",(316) 685-5234,1125 S Rock Rd,"Polly-Faulkner Insurance Agency, Inc",KS,"Wichita, ",67207
"Homeowners Insurance,Life Insurance",(316) 687-2808,1640 S Rock Rd,Farmers Insurance - Dwight Smalley,KS,"Wichita, ",67207
,(888) 431-3748,,,,,
,(888) 444-0603,,,,,
,(877) 331-8261,,,,,
,(877) 294-7187,,,,,
,,,,,,
"Insurance,Agriculture Insurance",(316) 263-3211,245 N Waco St,Willis Of Greater Kansas Inc,KS,"Wichita, ",67202
"Insurance,Agriculture Insurance",(316) 263-3211,245 N Waco St,"Wells, Aaron M",KS,"Wichita, ",67202
"Insurance,Agriculture Insurance",(316) 262-1338,150 N Main St,Lashley & Associates,KS,"Wichita, ",67202
Insurance,(316) 683-7537,PO Box 780745,Insurors Inc,KS,"Wichita, ",67278
"Insurance,Agriculture Insurance",(316) 425-3888,105 S Broadway St,Marcos Hernandez Agent New York Life,KS,"Wichita, ",67202
Insurance,(316) 269-1666,220 W Douglas Ave # 200,Deines John,KS,"Wichita, ",67202
"Insurance,Homeowners Insurance",(316) 978-9950,300 W Douglas Ave # 120,"Jones, Adam S",KS,"Wichita, ",67202
Insurance,(316) 268-7273,100 E English St,Bing Dale,KS,"Wichita, ",67202
"Insurance,Agriculture Insurance",(316) 268-7273,100 E English St,"Teter, Conni",KS,"Wichita, ",67202
"Insurance,Agriculture Insurance",(316) 267-0400,333 S Broadway St,Steven Long Insurance,KS,"Wichita, ",67202
"Insurance,Agriculture Insurance",(316) 440-1790,616 W Douglas Ave,Z Insurance Group,KS,"Wichita, ",67203
"Insurance,Agriculture Insurance",(316) 262-3711,505 S Broadway St,Boucher Insurance Agency Inc,KS,"Wichita, ",67202
"Insurance,Agriculture Insurance",(316) 260-4100,505 S Broadway St,Aflac District Offcie,KS,"Wichita, ",67202
Insurance,(316) 262-3711,505 S Broadway St # 122,Branscum Sandra,KS,"Wichita, ",67202
Insurance,(316) 267-8273,619 W Douglas Ave,Ayres Michael W,KS,"Wichita, ",67213
"Insurance,Auto Insurance",(316) 267-8273,619 W Douglas Ave,Mike W Ayres Insurance Inc,KS,"Wichita, ",67213
Insurance,(316) 267-7878,1101 W Douglas Ave,Miller Tricia,KS,"Wichita, ",67213
"Insurance,Auto Insurance",(316) 267-2323,1107 W Douglas Ave,Oliver Burton Farmers Insurance,KS,"Wichita, ",67213
"Insurance,Auto Insurance",(316) 634-6005,260 W 13th St N,American Family Insurance,KS,"Wichita, ",67203
"Insurance,Agriculture Insurance",(316) 269-0400,1512 N Broadway St,"Nguyen, Trang",KS,"Wichita, ",67214
Insurance,(316) 264-9317,1700 E Douglas Ave,Newhouse Jim,KS,"Wichita, ",67214
Insurance,(316) 264-9317,1700 E Douglas Ave,Allstate Insurance Agency,KS,"Wichita, ",67214
Insurance,(316) 265-5680,431 S Lulu St,Madrigal & Associates Inc,KS,"Wichita, ",67211
Insurance,(316) 265-5680,431 S Lulu St,Allstate Insurance Agency,KS,"Wichita, ",67211
Insurance,(316) 425-0032,1200 S Broadway St,Buoy David,KS,"Wichita, ",67211
Insurance,(316) 262-8000,1809 N Broadway St # B,Allstate,KS,"Wichita, ",67214
"Insurance,Agriculture Insurance",(316) 684-2800,2330 E Douglas Ave,Chris Morgan Agency Inc,KS,"Wichita, ",67214
Insurance,(316) 684-2800,2330 E Douglas Ave,Christopher Morgan Insurance,KS,"Wichita, ",67214
Insurance,(316) 942-7887,2012 W 13th St N,Harris Agency Inc,KS,"Wichita, ",67203
"Insurance,Agriculture Insurance",(316) 942-7887,2012 W 13th St N,Harris Trevor,KS,"Wichita, ",67203
,(877) 294-7187,,,,,
,(888) 431-3748,,,,,
,(877) 331-8261,,,,,
,(888) 444-0603,,,,,
,,,,,,
Business & Commercial Insurance,(316) 682-4500,1819 S Rock Rd Ste 105,Farmers Insurance - Duane Desmarteau,KS,"Wichita, ",67207
"Homeowners Insurance,Life Insurance",(316) 685-0440,1819 S Rock Rd Ste 101,Farmers Insurance - Justin Larkin,KS,"Wichita, ",67207
"Insurance,Financial Services",(316) 260-1577,615 E 47th St S Ste 621,Farmers Insurance - Gordon Ritthaler,KS,"Wichita, ",67216
"Homeowners Insurance,Life Insurance",(316) 927-2753,8428 W 13th St N Ste 130,Farmers Insurance - Regina Loyacano,KS,"Wichita, ",67212
"Insurance,Agriculture Insurance",(316) 722-7621,1000 N Tyler Rd,"Sue, Mary Sue",KS,"Wichita, ",67212
Insurance,(316) 722-3222,8815 W 13th St N Ste 140,Allstate Insurance - Pam Kirtley,KS,"Wichita, ",67212
Insurance,(316) 684-0777,550 N Webb Rd Ste C2,Allstate Insurance - Patrick Haller,KS,"Wichita, ",67206
"Homeowners Insurance,Life Insurance",(316) 683-7971,2020 N Tyler Rd Ste 128,Farmers Insurance - Elizabeth Hamilton-Dickey,KS,"Wichita, ",67212
"Homeowners Insurance,Life Insurance",(316) 729-5572,9235 W Central Ave,Farmers Insurance - Matt Mcmillan,KS,"Wichita, ",67212
"Homeowners Insurance,Life Insurance",(316) 722-1420,9235 W Central Ave,Farmers Insurance - Joe Voss,KS,"Wichita, ",67212
"Homeowners Insurance,Life Insurance",(316) 425-7877,3450 N Rock Rd Ste 501,Farmers Insurance - Russell Lane,KS,"Wichita, ",67226
"Insurance,Homeowners Insurance",(316) 691-5700,3450 N Rock Rd,Bankers Life & Casualty Co,KS,"Wichita, ",67226
"Homeowners Insurance,Life Insurance",(316) 722-0351,2290 N Tyler Rd,Farmers Insurance - Gary Short,KS,"Wichita, ",67205
"Homeowners Insurance,Life Insurance",(316) 722-1101,2290 N Tyler Rd Ste 200,Farmers Insurance - Loren Elsen,KS,"Wichita, ",67205
"Homeowners Insurance,Life Insurance",(316) 684-6565,9415 E Harry St Ste 407,Farmers Insurance - Deborah Miller,KS,"Wichita, ",67207
"Homeowners Insurance,Life Insurance",(316) 722-0450,9422 W Central Ave,Farmers Insurance - Phillip Leahy,KS,"Wichita, ",67212
Insurance,(316) 636-2001,2020 N. Webb Rd Suite 203,Farm Bureau Financial Services,KS,"Wichita, ",67206
"Homeowners Insurance,Auto Insurance",(316) 682-2300,11330 E Central Ave,Ernie Ruelas-State Farm Insurance,KS,"Wichita, ",67206
"Insurance,Financial Services",(316) 683-1600,10939 E Harry St Ste 101,Farmers Insurance - Lisa Millikan,KS,"Wichita, ",67207
"Homeowners Insurance,Life Insurance",(316) 652-7228,10939 E Harry St Ste 101,Farmers Insurance - Steven Pickard,KS,"Wichita, ",67207
"Homeowners Insurance,Life Insurance",(316) 262-7000,2548 N Maize Ct Ste 106,Farmers Insurance - Ryan Barber,KS,"Wichita, ",67205
"Insurance,Auto Insurance",(316) 729-9600,7325 W Taft St,American Family Insurance,KS,"Wichita, ",67209
"Homeowners Insurance,Life Insurance",(316) 733-2800,12950 E 13th St N Ste 5,Robert Bunting,KS,"Wichita, ",67230
Insurance,(316) 721-5769,13303 W Maple St,Jim Morgan-State Farm Insurance Agnt,KS,"Wichita, ",67235
"Homeowners Insurance,Life Insurance",(316) 733-4111,450 N County Line Rd,Farmers Insurance - Jon Dunbar,KS,"Wichita, ",67230
"Insurance,Auto Insurance",(316) 440-2767,608 N Broadway St,Farmers Insurance,KS,"Wichita, ",67214
Insurance,(316) 263-7546,200O E 1st St N,Prudential Agents,KS,"Wichita, ",67202
"Insurance,Agriculture Insurance",(316) 263-7546,200 E 1st St N,"Bean, James W",KS,"Wichita, ",67202
Insurance,(316) 352-5700,245 N Waco St # 330,Zalaznik Bernie,KS,"Wichita, ",67202
Insurance,(316) 263-3211,245 N Waco St # 300,Daves Paty,KS,"Wichita, ",67202
,(888) 444-0603,,,,,
,(877) 331-8261,,,,,
,(877) 294-7187,,,,,
,(888) 431-3748,,,,,
,,,,,,
"Insurance,Agriculture Insurance",(316) 945-0090,4800 W Maple St,Bill Mull-Allstate Agent,KS,"Wichita, ",67209
"Insurance,Auto Insurance",(316) 522-4889,2811 S Hydraulic St,Shelter Insurance,KS,"Wichita, ",67216
"Insurance,Agriculture Insurance",(316) 522-4889,2811 S Hydraulic St,Rogers John,KS,"Wichita, ",67216
"Insurance,Auto Insurance",(316) 684-7100,515 N Edgemoor St,Farmers Insurance,KS,"Wichita, ",67208
Insurance,(316) 684-7100,515 N Edgemoor St,Buoy David,KS,"Wichita, ",67208
"Insurance,Life Insurance,Auto Insurance",(316) 522-7757,1307 W 31st St S,Farmers Insurance - Michael Hyde,KS,"Wichita, ",67217
"Insurance,Agriculture Insurance",(316) 773-7777,2959 S Hillside St,Health Insurance Specialist,KS,"Wichita, ",67216
"Insurance,Agriculture Insurance",(316) 943-3222,6128 W Central Ave,Jones William D,KS,"Wichita, ",67212
"Insurance,Agriculture Insurance",(316) 943-3222,6128 W Central Ave,"Daray, Ronald J",KS,"Wichita, ",67212
"Homeowners Insurance,Life Insurance",(316) 347-8750,519 S Woodlawn Blvd,American Family Insurance,KS,"Wichita, ",67218
Insurance,(316) 682-2200,2528 S Oliver St,Warren Allen G,KS,"Wichita, ",67210
"Insurance,Homeowners Insurance",(316) 682-5500,935 S Woodlawn Blvd,Farmers Insurance - Anthony Cope,KS,"Wichita, ",67218
"Insurance,Agriculture Insurance",(316) 686-2110,6701 E 13th St N,Kimminau Dennis B Ins Agency Inc,KS,"Wichita, ",67206
Insurance,(316) 687-4211,6160 E 21st St N # 170,Burk Brenda,KS,"Wichita, ",67208
Insurance,(316) 691-2110,6160 E 21st St N # 170,Shelter Insurance,KS,"Wichita, ",67208
Insurance,(316) 681-2120,2020 N Woodlawn St,Allstate Insurance Agency,KS,"Wichita, ",67208
"Insurance,Flood Insurance",(316) 721-4746,6700 W Central Ave,Pore Steven,KS,"Wichita, ",67212
"Insurance,Auto Insurance",(316) 686-6553,2400 N Woodlawn Blvd,Regional Insurance Service Company,KS,"Wichita, ",67220
Insurance,(316) 689-4245,111 S Whittier St # 145,Conger Jim,KS,"Wichita, ",67207
Insurance,(316) 941-9735,6803 W Taft Ave,Allstate Insurance,KS,"Wichita, ",67209
"Insurance,Agriculture Insurance",(316) 942-5210,6730 W Kellogg Dr,Walters Chris,KS,"Wichita, ",67209
Insurance,(316) 942-5210,6730 W Kellogg Dr,Shelter Insurance,KS,"Wichita, ",67209
Insurance,(316) 721-7655,601 N Ridge Rd,Shelter Insurance,KS,"Wichita, ",67212
"Insurance,Agriculture Insurance",(316) 773-1773,515 N Ridge Rd Ste 101&,"Thiessen, Paul",KS,"Wichita, ",67212
"Insurance,Agriculture Insurance",(316) 773-1773,515 N Ridge Rd,"Axline, Josh J",KS,"Wichita, ",67212
Insurance,(316) 943-8400,534 N Ridge Rd Ste A,Desbien Doug,KS,"Wichita, ",67212
"Insurance,Agriculture Insurance",(316) 722-9009,530 N Ridge Rd,"Benway, Todd M",KS,"Wichita, ",67212
Insurance,(316) 721-1800,7200 W 13th St N # 6,Hensley Brad,KS,"Wichita, ",67212
Insurance,(316) 685-5241,7724 E Central Ave # 100,Knipp Laurie,KS,"Wichita, ",67206
Insurance,(316) 201-6065,7230 W 13th St N # 4,Pierson Alan,KS,"Wichita, ",67212
,(888) 444-0603,,,,,
,(877) 331-8261,,,,,
,(888) 431-3748,,,,,
,(877) 294-7187,,,,,
,,,,,,
"Insurance,Auto Insurance",(316) 269-2300,330 E Harry St,Farmers Insurance,KS,"Wichita, ",67211
Insurance,(316) 612-2352,1451 S McLean Blvd,Aflac District Offcie,KS,"Wichita, ",67213
"Insurance,Agriculture Insurance",(316) 945-2020,2604 W 9th St N,"Wray, Bob",KS,"Wichita, ",67203
Insurance,(316) 265-3188,1724 S Seneca St,Graham Scott,KS,"Wichita, ",67213
"Insurance,Agriculture Insurance",(316) 440-4229,200 S Hillside St # A,Rogers Mike,KS,"Wichita, ",67211
"Insurance,Agriculture Insurance",(316) 262-7000,200 S Hillside St,"Barber, Ryan",KS,"Wichita, ",67211
"Insurance,Financial Services",(316) 721-5433,251 S Hillside St,Beat Dan,KS,"Wichita, ",67211
"Insurance,Homeowners Insurance",(316) 683-2929,257 S Hillside St,American Family Insurance - Cy Wiggans Agency Inc.,KS,"Wichita, ",67211
Insurance,(316) 941-4545,2803 W 13th St N,Long Tammy,KS,"Wichita, ",67203
Insurance,(316) 267-1800,1999 N Amidon Ave,New York Life,KS,"Wichita, ",67203
Insurance,(316) 943-1166,2969 W 13th St N,Midland Insurance Group,KS,"Wichita, ",67203
"Insurance,Agriculture Insurance",(316) 264-1833,2046 S Seneca St,Gary R Huntsperger Agency Inc,KS,"Wichita, ",67213
Insurance,(316) 945-9500,3510 W Central Ave # 500,Jason Blevins-Allstate Agent,KS,"Wichita, ",67203
"Insurance,Auto Insurance",(316) 683-6200,3014 E Harry St,Latoriea Farmers Insurance,KS,"Wichita, ",67211
Insurance,(316) 247-6979,961 N West St,Chris Pore Insurance,KS,"Wichita, ",67203
"Insurance,Auto Insurance",(316) 269-2112,125 S West St,Farmers Insurance,KS,"Wichita, ",67213
Insurance,(316) 269-2112,125 S West St # 109,Russell Michael,KS,"Wichita, ",67213
"Insurance,Agriculture Insurance",(316) 721-3300,1301 N West St,Peace Of Mind Agency,KS,"Wichita, ",67203
Insurance,(316) 721-3300,1301 N West St # 5,Joseph Asher,KS,"Wichita, ",67203
"Insurance,Agriculture Insurance",(316) 945-7900,616 S West St,Shelter Insurance,KS,"Wichita, ",67213
Insurance,(316) 522-4443,2701 S Seneca St,Payne Don,KS,"Wichita, ",67217
"Insurance,Agriculture Insurance",(316) 265-3188,2610 S Seneca St,Shelter Insurance,KS,"Wichita, ",67217
"Insurance,Agriculture Insurance",(316) 687-2530,120 N Oliver Ave,New York Life,KS,"Wichita, ",67208
"Insurance,Agriculture Insurance",(316) 687-2530,120 N Oliver Ave,Dale K Allen & Associates,KS,"Wichita, ",67208
"Insurance,Agriculture Insurance",(316) 554-7144,2312 S Meridian Ave,Joe F Novacek Insurance,KS,"Wichita, ",67213
"Insurance,Agriculture Insurance",(316) 945-3221,2400 W Pawnee St,"Rogers, Mike",KS,"Wichita, ",67213
"Insurance,Agriculture Insurance",(316) 945-3221,2400 W Pawnee St,Rogers Mike Insurance Agency,KS,"Wichita, ",67213
"Insurance,Homeowners Insurance",(316) 263-5800,827 S Oliver St,Texas Farm Bureau Insurance,KS,"Wichita, ",67218
Insurance,(316) 684-2800,5231 E Central Ave # C,Bennett Dave,KS,"Wichita, ",67208
"Insurance,Auto Insurance",(316) 684-2800,5231 E Central Ave,Farmers Insurance,KS,"Wichita, ",67208
,(877) 294-7187,,,,,
,(888) 444-0603,,,,,
,(877) 331-8261,,,,,
,(888) 431-3748,,,,,
,,,,,,
"Insurance,Auto Insurance",(316) 682-7667,7701 E Kellogg Dr # 730,"Davis, Robert",KS,"Wichita, ",67207
Insurance,(316) 682-7771,250 N Rock Rd Ste 375,Spurgeon Eugene,KS,"Wichita, ",67206
"Insurance,Agriculture Insurance",(316) 260-3337,240 N Rock Rd,"Lee, Ross",KS,"Wichita, ",67206
"Insurance,Life Insurance,Auto Insurance",(316) 634-1155,8020 E Central Ave,Holt Kathy,KS,"Wichita, ",67206
"Insurance,Auto Insurance",(316) 686-1020,8020 E Central Ave,"Long, Sara",KS,"Wichita, ",67206
"Insurance,Agriculture Insurance",(316) 681-2823,214 S Rock Rd Ste 107,Mitts Norm,KS,"Wichita, ",67207
"Insurance,Agriculture Insurance",(316) 634-1303,8080 E Central Ave,Zaleski Bernard F,KS,"Wichita, ",67206
"Insurance,Auto Insurance",(316) 267-8989,1251 S Longfellow St,Wolf David A Insurance Agency,KS,"Wichita, ",67207
"Insurance,Auto Insurance",(316) 612-9853,1251 S Longfellow St,"Wolf, Katie",KS,"Wichita, ",67207
"Auto Insurance,Insurance",(316) 448-0471,1833 N Rock Road Ct,Farmers Insurance,KS,"Wichita, ",67206
Insurance,(316) 686-1900,1133 S Rock Rd # 7,American Family Ins Agents,KS,"Wichita, ",67207
Insurance,(316) 686-7427,1125 S Rock Rd Ste 11,Warren Vernon,KS,"Wichita, ",67207
"Insurance,Agriculture Insurance",(316) 682-0202,1861 N Rock Rd,Peace of Mind Agency,KS,"Wichita, ",67206
Insurance,(316) 682-0202,1861 N Rock Rd Ste 212,Hutchins Kevin,KS,"Wichita, ",67206
"Insurance,Agriculture Insurance",(316) 686-1900,1133 S Rock Rd,"Tomlinson, Jerry",KS,"Wichita, ",67207
Insurance,(316) 684-0100,7421 W 21st St N,Hollowell Jack,KS,"Wichita, ",67205
"Insurance,Agriculture Insurance",(316) 943-9331,1995 Midfield Rd,Aon Risk Services Inc Of Kansas,KS,"Wichita, ",67209
Insurance,(316) 942-2223,1995 Midfield Rd,Jennings Brenda,KS,"Wichita, ",67209
Insurance,(316) 943-9331,1995 Midfield Rd,Dressen Phil,KS,"Wichita, ",67209
"Insurance,Agriculture Insurance",(316) 942-2223,1995 Midfield Rd,AOPA Insurance Agency,KS,"Wichita, ",67209
Insurance,(316) 942-0699,2120 S Airport Rd Ste 2,Bonnell Sr Tim,KS,"Wichita, ",67209
"Insurance,Agriculture Insurance",(316) 942-0699,2120 S Airport Rd,PIM Aviation Insurance Inc,KS,"Wichita, ",67209
Insurance,(316) 682-1116,7570 W 21st St N,Aflac,KS,"Wichita, ",67205
"Insurance,Agriculture Insurance",(316) 721-4849,7570 W 21st St N,Kemp Bill,KS,"Wichita, ",67205
"Insurance,Agriculture Insurance",(316) 721-7557,7570 W 21st St N # 1046B,Schuette Ken,KS,"Wichita, ",67205
"Insurance,Agriculture Insurance",(316) 685-0440,1819 S Rock Rd Ste 101,Johnsen Gerald,KS,"Wichita, ",67207
"Insurance,Agriculture Insurance",(316) 682-4500,1819 S Rock Rd Ste 105,"Desmarteau, Duane",KS,"Wichita, ",67207
"Insurance,Homeowners Insurance",(316) 618-0526,6432 E 34th St N # 110,Hutfles Richard,KS,"Wichita, ",67226
"Insurance,Agriculture Insurance",(316) 683-7548,3700 N Woodlawn Blvd,Gary Thompson Agency,KS,"Wichita, ",67220
"Insurance,Agriculture Insurance",(316) 448-4626,8415 E 21st St N # 250,"Begnoche, Mike",KS,"Wichita, ",67206
,(877) 331-8261,,,,,
,(888) 431-3748,,,,,
,(888) 444-0603,,,,,
,(877) 294-7187,,,,,
,,,,,,
"Insurance,Agriculture Insurance",(316) 721-5363,8404 W 13th St N,Rick Bloomquist Insurance,KS,"Wichita, ",67212
"Insurance,Agriculture Insurance",(316) 927-2753,8428 W 13th St N # 130,Gutierrez Jose,KS,"Wichita, ",67212
"Insurance,Agriculture Insurance",(316) 267-3225,920 N Tyler Rd,"Hansen, Duane",KS,"Wichita, ",67212
Insurance,(316) 721-5600,940 N Tyler Rd,Sill Rob Insurance,KS,"Wichita, ",67212
"Insurance,Pension & Profit Sharing Plans",(316) 721-5600,940 N Tyler Rd,Metlife Auto & Home Ins,KS,"Wichita, ",67212
"Insurance,Agriculture Insurance",(316) 712-4169,3876 N Woodlawn Blvd,"Olivier, Brett",KS,"Wichita, ",67220
Insurance,(316) 687-4211,3876 N Woodlawn Blvd,Shelter Insurance,KS,"Wichita, ",67220
Insurance,(316) 691-2110,3876 N Woodlawn Blvd,Shelter Insurance Agents McDowell Adam,KS,"Wichita, ",67220
"Insurance,Agriculture Insurance",(316) 687-4211,3876 N Woodlawn Blvd,"Casey, Rikki",KS,"Wichita, ",67220
Insurance,(316) 721-7655,211 S Tyler Rd,Shelter Insurance,KS,"Wichita, ",67209
"Insurance,Agriculture Insurance",(316) 721-7655,211 S Tyler Rd,Tim Davis Agency,KS,"Wichita, ",67209
"Insurance,Auto Insurance",(316) 729-7057,8911 W Maple St,Farmers Insurance,KS,"Wichita, ",67209
"Insurance,Auto Insurance",(316) 729-7057,8911 W Maple St,"Watson, Bob",KS,"Wichita, ",67209
"Insurance,Agriculture Insurance",(316) 722-3222,8815 W 13th St N,Kirtley Pam,KS,"Wichita, ",67212
Insurance,(316) 685-0394,9431 E Central Ave,John Schultz Agency,KS,"Wichita, ",67206
Insurance,(316) 682-7770,9435 E Central Ave # 100,Chapple Charles,KS,"Wichita, ",67206
Insurance,(316) 682-7770,9435 E Central Ave,Commercial Insurance Group,KS,"Wichita, ",67206
"Insurance,Homeowners Insurance",(316) 425-5995,1660 N Tyler Rd,Texas Farm Bureau Insurance,KS,"Wichita, ",67212
Insurance,(316) 491-2600,7331 W 33rd St N # 100,Isley Mark,KS,"Wichita, ",67205
"Insurance,Agriculture Insurance",(316) 491-2600,7331 W 33rd St N,Group Benefits Specialist,KS,"Wichita, ",67205
Insurance,(316) 684-0282,1660 N Tyler Rd,Mc Elroy Shane,KS,"Wichita, ",67212
"Insurance,Agriculture Insurance",(316) 633-7760,3236 N Rock Rd,G E I C O Local Office,KS,"Wichita, ",67226
"Insurance,Agriculture Insurance",(316) 453-9575,3326 N Rock Rd Ste 100,Lapierre Jay,KS,"Wichita, ",67226
Insurance,(316) 773-4800,2020 N Tyler Rd Ste 128,Woodward Andy,KS,"Wichita, ",67212
"Insurance,Investment Securities",(316) 267-9221,8200 E 32nd St N,IMA Of Kansas Inc,KS,"Wichita, ",67226
Insurance,(316) 722-9595,2121 N Tyler Rd Ste 117,Adams Douglas,KS,"Wichita, ",67212
"Insurance,Auto Insurance",(316) 722-8867,9225 W Central Ave,Farmers Insurance,KS,"Wichita, ",67212
Insurance,(316) 729-5572,9235 W Central Ave,Ott Richard,KS,"Wichita, ",67212
Insurance,(316) 685-0101,9323 E Harry St,"Schamle, Katie",KS,"Wichita, ",67207
"Insurance,Auto Insurance",(316) 425-7877,3450 N Rock Rd,Rusty Lane Insurance Agency,KS,"Wichita, ",67226
,(877) 294-7187,,,,,
,(888) 444-0603,,,,,
,(877) 331-8261,,,,,
,(888) 431-3748,,,,,
,,,,,,
"Insurance,Agriculture Insurance",(316) 308-0569,13514 Rolling Hills Dr,Sentry Insurance Co,KS,"Wichita, ",67235
Insurance,(316) 308-0569,13514 Rolling Hills Dr,Freeberg Steve,KS,"Wichita, ",67235
"Insurance,Agriculture Insurance",(316) 721-6635,1719 N Decker St,"Martinez, Vanessa",KS,"Wichita, ",67235
"Insurance,Agriculture Insurance",(316) 524-2400,12000 W K 42 Hwy,"Drouhard, Sharon L",KS,"Wichita, ",67227
"Insurance,Agriculture Insurance",(316) 733-1244,550 N 159th St E,Herren Insurance Service,KS,"Wichita, ",67230
"Insurance,Agriculture Insurance",(316) 858-1999,125 E 2nd St N,Air Capital Insurance,KS,"Wichita, ",67202
Insurance,(316) 267-1325,301 N Main St # 1450,White Clint,KS,"Wichita, ",67202
Insurance,(316) 267-6207,301 N Main St,Financial Planning Concepts Inc,KS,"Wichita, ",67202
"Insurance,Agriculture Insurance",(316) 260-6111,310 W Central Ave,Caleb Gilmore Agency,KS,"Wichita, ",67202
Insurance,(316) 261-5433,510 N Topeka St # 302,Liberty Benefit Plan,KS,"Wichita, ",67214
Insurance,(316) 612-2352,510 N Topeka St,Aflac,KS,"Wichita, ",67214
"Insurance,Agriculture Insurance",(316) 440-5960,608 N Broadway St,Americol Enteprises,KS,"Wichita, ",67214
Insurance,(316) 262-3590,609 N Broadway St # 200,Mc Fall Sam,KS,"Wichita, ",67214
"Insurance,Surety & Fidelity Bonds",(316) 265-4451,255 N Water St,Wichita Insurance,KS,"Wichita, ",67202
Insurance,(316) 265-4451,255 N Water St,Goers Ronald,KS,"Wichita, ",67202
"Insurance,Agriculture Insurance",(316) 262-1400,155 N Market St # 420,"Wise, Michael C",KS,"Wichita, ",67202
Insurance,(316) 262-1400,155 N Market St,Wise & Associates Inc,KS,"Wichita, ",67202
"Insurance,Agriculture Insurance",(316) 265-8139,727 N Waco Ave,"Gerber, Terry L",KS,"Wichita, ",67203
Insurance,(316) 265-8139,727 N Waco Ave,Northwestern Mutual Life Insurance,KS,"Wichita, ",67203
"Insurance,Agriculture Insurance",(316) 265-8139,727 N Waco Ave,"Fisher, Gene",KS,"Wichita, ",67203
"Insurance,Employee Benefits Insurance",(316) 263-3211,245 N Waco St,Willis HRH,KS,"Wichita, ",67202
"Insurance,Agriculture Insurance",(316) 263-1072,245 N Waco St,Aon,KS,"Wichita, ",67202
"Insurance,Agriculture Insurance",(800) 232-5700,245 N Waco St,EMC National Life,KS,"Wichita, ",67202
Insurance,(316) 352-5700,245 N Waco St Ste 330,Employers Mutual Casualty Co,KS,"Wichita, ",67202
Insurance,(316) 262-1338,150 N Main St,Lashey & Associates,KS,"Wichita, ",67202
"Insurance,Agriculture Insurance",(316) 729-2833,301 N Saint Francis St,Cretcher Heartland Inc,KS,"Wichita, ",67202
Insurance,(316) 267-7370,216 N Waco St,Community Insurance Inc,KS,"Wichita, ",67202
Insurance,(316) 262-2929,216 N Waco St,Ohio National Financial Svc,KS,"Wichita, ",67202
Insurance,(316) 264-6212,216 N Waco St,Sanders-Myrtle Insurance Agency,KS,"Wichita, ",67202
"Insurance,Agriculture Insurance",(316) 264-6212,214 N Waco St,Sanders-Myrtle Insurance,KS,"Wichita, ",67202
,(877) 294-7187,,,,,
,(888) 444-0603,,,,,
,(877) 331-8261,,,,,
,(888) 431-3748,,,,,
,,,,,,
"Insurance,Agriculture Insurance",(316) 683-7539,9415 E Harry St # 701,Lyons Valeta,KS,"Wichita, ",67207
"Insurance,Retirement Planning Services",(316) 655-8113,9415 E Harry St,"Donley, Mark",KS,"Wichita, ",67207
Insurance,(316) 636-2001,2020 N Webb Rd Ste 103,Bridwell Ed,KS,"Wichita, ",67206
Insurance,(316) 630-9338,8200 E Thorn Dr # 150,Johnson Cole,KS,"Wichita, ",67226
"Insurance,Agriculture Insurance",(316) 630-9338,8200 E Thorn Dr,Ftcs Equant Axa Wichita Ks,KS,"Wichita, ",67226
"Insurance,Agriculture Insurance",(316) 636-1490,8300 E Thorn Dr # 200,Bowersox Curtis R,KS,"Wichita, ",67226
Insurance,(316) 636-9921,"8300 Thorn Dr Suite 200,",Prudential Insurance Brokerage Inc,KS,"Wichita, ",67226
"Insurance,Agriculture Insurance",(316) 636-1490,8300 E Thorn Dr,"Singleton, David",KS,"Wichita, ",67226
Insurance,(316) 263-6484,9715 W 18th St N,Aflac Regional Office,KS,"Wichita, ",67212
"Homeowners Insurance,Life Insurance",(316) 636-2650,10333 E 21st St N # 204,American Family Insurance,KS,"Wichita, ",67206
"Insurance,Pension & Profit Sharing Plans",(316) 269-9580,2518 N Fox Run Ct,Met Life,KS,"Wichita, ",67226
Insurance,(316) 721-0551,10209 W Central Ave # 2,Gregory Laurie,KS,"Wichita, ",67212
Insurance,(316) 729-6400,10209 W Central Ave,Shelter Insurance,KS,"Wichita, ",67212
Insurance,(316) 729-6400,10209 W Central Ave # 3A,Thimesch Doug,KS,"Wichita, ",67212
"Insurance,Agriculture Insurance",(316) 729-6400,10209 W Central Ave,"Chanminaraj, Nicholas",KS,"Wichita, ",67212
"Insurance,Homeowners Insurance",(316) 721-0551,10209 W Central Ave,American Family Insurance,KS,"Wichita, ",67212
"Insurance,Agriculture Insurance",(316) 686-1117,10333 E 21st St N,Ross Viner-Allstate Agent,KS,"Wichita, ",67206
Insurance,(316) 655-8113,10333 E 21st St N # 201,Allstate Financial Svc,KS,"Wichita, ",67206
"Insurance,Agriculture Insurance",(316) 636-2650,10333 E 21st St N,"Christensen, Vicky",KS,"Wichita, ",67206
Insurance,(316) 721-6635,889 N Maize Rd Ste 109,Hutchins Kevin,KS,"Wichita, ",67212
Insurance,(316) 729-8300,889 N Maize Rd Ste 201,May Shirley,KS,"Wichita, ",67212
Insurance,(316) 729-8304,889 N Maize Rd Ste 109,Allstate Peace of Mind Agency,KS,"Wichita, ",67212
"Insurance,Financial Planning Consultants",(316) 773-9864,10011 W 21st St N,Bill Mull-Allstate Agent,KS,"Wichita, ",67205
"Insurance,Financial Planning Consultants",(316) 722-7700,1930 N Maize Rd,"Clark, Steve M",KS,"Wichita, ",67212
"Insurance,Agriculture Insurance",(316) 722-7068,2552 N Maize Ct,Otis Netta Agency,KS,"Wichita, ",67205
Insurance,(316) 722-7068,2552 N Maize Ct,Shelter Insurance,KS,"Wichita, ",67205
"Insurance,Agriculture Insurance",(316) 773-0600,2552 N Maize Ct,Williams Shari,KS,"Wichita, ",67205
"Insurance,Agriculture Insurance",(316) 722-9001,2552 N Maize Ct,"Poell, Sasha",KS,"Wichita, ",67205
"Insurance,Auto Insurance",(316) 722-9001,2552 N Maize Ct # 600,Valentine Angie,KS,"Wichita, ",67205
Insurance,(316) 721-1418,11931 W Central Ave,Allstate,KS,"Wichita, ",67212
,(877) 294-7187,,,,,
,(888) 431-3748,,,,,
,(888) 444-0603,,,,,
,(877) 331-8261,,,,,
,,,,,,
"Auto Insurance,Insurance",(620) 953-2033,1200 S Broadway St,Farmers Insurance - Thomas Rogers,KS,"Wichita, ",67211
"Insurance,Auto Insurance",(316) 440-3252,2330 E Douglas Ave,Amy Serna Insurance Services,KS,"Wichita, ",67214
"Insurance,Agriculture Insurance",(316) 944-2253,2012 W 13th St N,Harris Insurance,KS,"Wichita, ",67203
Insurance,(316) 613-2553,550 S George Washington Blvd,Asset Insurance Consultants,KS,"Wichita, ",67211
"Auto Insurance,Insurance",(316) 945-2020,2604 W 9th St N Ste 208,Farmers Insurance - Bob Wray,KS,"Wichita, ",67203
"Insurance,Agriculture Insurance",(316) 652-1327,550 N Lorraine Ave,Health Partners of Kansas,KS,"Wichita, ",67214
Insurance,(316) 652-1327,550 N Lorraine Ave,Dolloff Gaylee,KS,"Wichita, ",67214
Insurance,(316) 265-3188,1724 S Seneca St,Shelter Insurance,KS,"Wichita, ",67213
Insurance,(316) 613-2553,901 S George Washington Blvd,Asset Insurance Consultants,KS,"Wichita, ",67211
Insurance,(316) 260-1704,1786 S Seneca St # 6,Cross Renee,KS,"Wichita, ",67213
"Insurance,Agriculture Insurance",(316) 927-3800,2960 W Central Ave,Insurance Guys-Wichita Office,KS,"Wichita, ",67203
"Insurance,Agriculture Insurance",(316) 440-4300,200 S Hillside St,YES Agency,KS,"Wichita, ",67211
Insurance,(501) 683-3751,251 S Hillside St,Wiggans Cy Insurance Agency,KS,"Wichita, ",67211
"Insurance,Agriculture Insurance",(316) 201-4996,257 S Hillside St,"Wiggins, Cy",KS,"Wichita, ",67211
"Insurance,Agriculture Insurance",(316) 531-6158,2325 N Arkansas Ave,21st Century Auto Insurance,KS,"Wichita, ",67204
Insurance,(316) 681-0023,2721 E Boulevard Plz,American Insurance Inc,KS,"Wichita, ",67211
"Auto Insurance,Insurance",(316) 440-2883,1520 W 21st St N,Farmers Insurance,KS,"Wichita, ",67203
Insurance,(316) 686-4618,115 S Rutan St,Short Mary,KS,"Wichita, ",67218
"Insurance Adjusters,Insurance",(316) 821-0200,1999 N Amidon Ave # 222,Berkley Risk Administrators Co,KS,"Wichita, ",67203
"Insurance,Agriculture Insurance",(316) 201-4207,1999 N Amidon Ave,Kansas Life Insurance Agency,KS,"Wichita, ",67203
Insurance,(316) 260-2595,1999 N Amidon Ave # 242,Tajchman Scott,KS,"Wichita, ",67203
"Insurance,Agriculture Insurance",(316) 832-1182,1999 N Amidon Ave,Trinity Insurance & Financial Service,KS,"Wichita, ",67203
Insurance,(316) 838-7660,1999 N Amidon Ave,C Ray Tyler Agency,KS,"Wichita, ",67203
Insurance,(316) 943-1166,2969 W 13th St N,Sommerhauser Elizabeth,KS,"Wichita, ",67203
"Insurance,Agriculture Insurance",(316) 943-1166,2969 W 13th St N,"Iseman, Paul V",KS,"Wichita, ",67203
"Insurance,Agriculture Insurance",(316) 686-5433,714 S Hillside St,Liberty Benefit Plans,KS,"Wichita, ",67211
"Insurance,Agriculture Insurance",(316) 681-3100,3700 E Douglas Ave,"Bhandari, Sanjeev",KS,"Wichita, ",67208
Insurance,(316) 942-2534,3447 W Central Ave,Bryan Hazen Insurance,KS,"Wichita, ",67203
"Homeowners Insurance,Life Insurance",(316) 440-2767,808 W 25th St N,Farmers Insurance Group,KS,"Wichita, ",67204
Insurance,(316) 260-4570,808 W 25th St N,Sulma Arias Agency,KS,"Wichita, ",67204
,(877) 331-8261,,,,,
,(888) 444-0603,,,,,
,(888) 431-3748,,,,,
,(877) 294-7187,,,,,
,,,,,,
Insurance,(316) 264-6212,214 N Waco St,Myrtle James,KS,"Wichita, ",67202
Insurance,(316) 685-2662,PO Box 8054,Hiesterman Kieth,KS,"Wichita, ",67208
Insurance,(316) 262-4911,PO Box 3028,American United Life,KS,"Wichita, ",67201
"Insurance,Agriculture Insurance",(316) 773-2036,125 N Market St,"Browning, Johnnie V",KS,"Wichita, ",67202
Insurance,(316) 260-2595,200 W Douglas Ave Ste 101,Kansas Life Insurance Agency,KS,"Wichita, ",67202
"Insurance,Agriculture Insurance",(316) 261-5431,105 S Broadway St,Affordable Health Insurance,KS,"Wichita, ",67202
"Insurance,Agriculture Insurance",(316) 264-5411,300 W Douglas Ave,Stan Kirby & Associates,KS,"Wichita, ",67202
Insurance,(316) 267-3495,906 N Main St,Noyes Robert,KS,"Wichita, ",67203
Insurance,(316) 612-3522,229 E William St,Kathy Wiedemann,KS,"Wichita, ",67202
"Insurance,Auto Insurance",(316) 634-6005,212 S Market St,American Family Insurance,KS,"Wichita, ",67202
Insurance,(316) 265-6241,221 S Broadway St # 800,Stone Mark,KS,"Wichita, ",67202
Insurance,(316) 264-1100,800 E 1st St N Ste 200,Cassell Insurance,KS,"Wichita, ",67202
"Insurance,Pension & Profit Sharing Plans",(316) 264-9969,800 E 1st St N Ste 340,MetLife,KS,"Wichita, ",67202
Insurance,(316) 264-1100,800 E 1st St N # 200,Signature Select,KS,"Wichita, ",67202
"Insurance,Agriculture Insurance",(316) 267-1914,333 E English St,Midwest Indemnity,KS,"Wichita, ",67202
Insurance,(316) 269-1115,400 S Broadway St # 101,Liebau Fred,KS,"Wichita, ",67202
"Insurance,Agriculture Insurance",(316) 973-4581,412 S Main St,Employee Benefits & Insurance Management,KS,"Wichita, ",67202
Insurance,(316) 267-2220,1030 E 1st St N,Bachelor Dan Ins,KS,"Wichita, ",67214
Insurance,(316) 265-3181,616 W Douglas Ave,Wright J Alan,KS,"Wichita, ",67203
"Insurance,Auto Insurance",(316) 265-3181,616 W Douglas Ave,Wayne Wright Insurance,KS,"Wichita, ",67203
Insurance,(316) 267-4301,505 S Broadway St,Lipe Jack Insurance Service,KS,"Wichita, ",67202
"Insurance,Agriculture Insurance",(316) 262-5948,1220 E 1st St N,Insurance Professionals,KS,"Wichita, ",67214
"Insurance,Agriculture Insurance",(316) 303-1905,540 S Broadway St,Eck Agency,KS,"Wichita, ",67202
Insurance,(316) 303-1490,319 S Oak St,Young Life,KS,"Wichita, ",67213
Insurance,(316) 267-7878,1101 W Douglas Ave,Ted Shannon Ins,KS,"Wichita, ",67213
Insurance,(316) 269-5900,221 E 13th St N,Sanders Brian,KS,"Wichita, ",67214
Insurance,(316) 269-5900,221 E 13th St N,Auto Acceptance Insurance Agency Inc,KS,"Wichita, ",67214
Insurance,(316) 773-1187,400 S Martinson St # 211,Evans Victor,KS,"Wichita, ",67213
Insurance,(316) 303-1918,402 S Martinson St,Ayers Stanley,KS,"Wichita, ",67213
Insurance,(316) 253-6365,1200 S Broadway St,Dan Mize Agency,KS,"Wichita, ",67211
,(877) 294-7187,,,,,
,(888) 431-3748,,,,,
,(877) 331-8261,,,,,
,(888) 444-0603,,,,,
,,,,,,
"Insurance,Agriculture Insurance",(316) 685-9296,5940 E Central Ave,Bolan Joshua S,KS,"Wichita, ",67208
"Insurance,Financial Planning Consultants",(316) 685-9296,5940 E Central Ave # 101,O'Mara Shawn,KS,"Wichita, ",67208
"Insurance,Agriculture Insurance",(316) 685-9296,5940 E Central Ave,"Buck, Dan K",KS,"Wichita, ",67208
"Insurance,Agriculture Insurance",(316) 942-9916,3128 S Saint Clair St,A A A Fortune Protection Insurance,KS,"Wichita, ",67217
Insurance,(316) 683-7808,400 N Woodlawn St,Outdoor Insurance Group,KS,"Wichita, ",67208
Insurance,(316) 945-2100,3901 N Broadway St,Steven Tommy,KS,"Wichita, ",67219
"Insurance,Agriculture Insurance",(316) 747-4162,6297 E 13th St N,21st Century Auto Insurance,KS,"Wichita, ",67208
"Insurance,Agriculture Insurance",(316) 683-2222,4900 E Pawnee St # 102,Holdeman Insurance,KS,"Wichita, ",67218
"Insurance,Agriculture Insurance",(316) 684-4570,1809 N Homestead St,Terry L Gerber Insurance,KS,"Wichita, ",67208
Insurance,(316) 685-5585,4912 E 29th St N # 100,Hardman Gary D,KS,"Wichita, ",67220
"Insurance,Agriculture Insurance",(316) 651-5936,1033 N Stratford Ln,Insurance Planning Center Inc,KS,"Wichita, ",67206
"Insurance,Agriculture Insurance",(316) 691-2110,6160 E 21st St N,"Cox, Dave",KS,"Wichita, ",67208
"Insurance,Agriculture Insurance",(316) 681-8119,1938 N Woodlawn St,Kammco,KS,"Wichita, ",67208
"Insurance,Agriculture Insurance",(316) 681-8119,1938 N Woodlawn St,Kansas Medical Mutual Insurance,KS,"Wichita, ",67208
Insurance,(316) 440-7880,6606 W Central Ave,Insurance Professionals Inc,KS,"Wichita, ",67212
"Insurance,Agriculture Insurance",(316) 265-6241,6606 W Central Ave,"Jeter, Dave",KS,"Wichita, ",67212
Insurance,(316) 721-1665,6606 W Central Ave,Henning Fritz CPS Insurance Service,KS,"Wichita, ",67212
Insurance,(316) 684-6070,1050 N Gretchen Ln,Homer Cook Insurance,KS,"Wichita, ",67206
"Insurance,Agriculture Insurance",(316) 361-3380,6500 E 21st St N,Michael Moore Agency,KS,"Wichita, ",67206
"Insurance,Agriculture Insurance",,151 S Whittier St,Gary D Lofstead Insurance,KS,"Wichita, ",67207
Insurance,(316) 689-4291,111 S Whittier St,Burkhart Tom,KS,"Wichita, ",67207
"Insurance,Health Insurance",(316) 689-4245,111 S Whittier St,Great-West Healthcare,KS,"Wichita, ",67207
"Insurance,Agriculture Insurance",(316) 689-4291,111 S Whittier St,Federated Insurance Co,KS,"Wichita, ",67207
Insurance,(316) 686-6553,2400 N Woodlawn Blvd # 110,Shields Charles,KS,"Wichita, ",67220
Insurance,(316) 684-3070,7015 E Harry St # A,Curt Kiser Agency,KS,"Wichita, ",67207
"Insurance,Agriculture Insurance",(316) 685-2465,109 N Post Oak Rd,Bob Jones Insurance,KS,"Wichita, ",67206
"Insurance,Agriculture Insurance",(316) 773-7859,1118 N Acadia St,S S & G Inc,KS,"Wichita, ",67212
Insurance,(316) 685-5241,7724 E Central Ave,Aaam Travel & Insurance Services,KS,"Wichita, ",67206
Insurance,(316) 201-6065,7230 W 13th St N,Farm Bureau Financial Service,KS,"Wichita, ",67212
"Insurance,Surety & Fidelity Bonds",(316) 681-3000,7701 E Kellogg Dr,Insurance Planning Center Inc.,KS,"Wichita, ",67207
,(877) 331-8261,,,,,
,(888) 431-3748,,,,,
,(888) 444-0603,,,,,
,(877) 294-7187,,,,,
,,,,,,
Insurance,(316) 942-1231,3202 W 13th St N # 1,Dunkelberger Carrie,KS,"Wichita, ",67203
Insurance,(316) 942-3227,3202 W 13th St N,Shaun McGovern,KS,"Wichita, ",67203
"Insurance,Agriculture Insurance",(316) 941-9712,3900 W Central Ave,Esu,KS,"Wichita, ",67203
"Insurance,Agriculture Insurance",(316) 685-2662,145 N Belmont St,"Hiesterman, Kieth",KS,"Wichita, ",67208
Insurance,(316) 945-4722,303 N West St # 275,United American,KS,"Wichita, ",67203
"Insurance,Homeowners Insurance",(316) 262-6477,303 N West St,Noll Insurance,KS,"Wichita, ",67203
"Insurance,Agriculture Insurance",(316) 264-5777,2420 S Seneca St,Enslinger Agency Inc,KS,"Wichita, ",67217
"Insurance,Agriculture Insurance",(316) 409-4442,2420 S Seneca St,Buckley Jennifer,KS,"Wichita, ",67217
"Insurance,Agriculture Insurance",(316) 262-1550,446 N Dellrose St,Plan Life Wise,KS,"Wichita, ",67208
Insurance,(316) 946-0310,2243 S Meridian Ave # 109,Spencer Alfonso,KS,"Wichita, ",67213
"Insurance,Life Insurance",(316) 946-0310,2243 S Meridian Ave Ste 109,Western-Southern Life Insurance Co,KS,"Wichita, ",67213
"Insurance,Financial Planning Consultants",(316) 686-4946,201 S Oliver St,Norby Galen O,KS,"Wichita, ",67218
"Insurance,Agriculture Insurance",(316) 554-7144,2312 S Meridian Ave,Jensen Insurance Group,KS,"Wichita, ",67213
Insurance,(316) 771-7250,4031 E Harry St,Atherton Dale,KS,"Wichita, ",67218
"Insurance,Agriculture Insurance",(316) 612-4830,5050 E Central Ave,Brooks Insurance Services,KS,"Wichita, ",67208
"Insurance,Agriculture Insurance",(316) 687-1174,5112 E Central Ave,Insurance Exchange,KS,"Wichita, ",67208
Insurance,(316) 247-6098,5112 E Central Ave,Leonard Jim,KS,"Wichita, ",67208
Insurance,(316) 522-9336,1302 W Regal St,Prange Insurance Agency,KS,"Wichita, ",67217
"Insurance,Agriculture Insurance",(316) 683-5081,1650 S Georgetown St,"Conner, Allen",KS,"Wichita, ",67218
"Insurance,Homeowners Insurance",(316) 869-0289,2061 N West St,Affiliated Agents,KS,"Wichita, ",67203
Insurance,(316) 942-8805,4700 W 13th St N # 9-1,Roland Smith Insurance Svc,KS,"Wichita, ",67212
"Insurance,Agriculture Insurance",(316) 522-4880,2811 S Hydraulic St,Rogers Insurance,KS,"Wichita, ",67216
"Insurance,Agriculture Insurance",(316) 440-8999,606 W 33rd St N,Helvin,KS,"Wichita, ",67204
"Insurance,Agriculture Insurance",(316) 616-0205,603 N Edgemoor St,Bill Bliss Insurance,KS,"Wichita, ",67208
Insurance,(316) 688-4454,1644 S Oliver St # 3,Deacon James,KS,"Wichita, ",67218
"Insurance,Auto Insurance",(316) 529-3132,3132 S Seneca St,All Family Insurance Agency,KS,"Wichita, ",67217
"Insurance,Employee Benefits Insurance",(316) 684-0217,4910 E 21st St N,Thomas L Nelson Agency,KS,"Wichita, ",67208
"Auto Insurance,Insurance",(316) 684-0217,4960 E 21st St N Ste 106,Farmers Insurance - Thomas Nelson,KS,"Wichita, ",67208
Insurance,(316) 685-2388,5745 E Central Ave,Blythe Buford,KS,"Wichita, ",67208
Insurance,(316) 219-8150,5654 Polo Dr,Transamerica Accidental Life Insurance Co,KS,"Wichita, ",67208
,(877) 331-8261,,,,,
,(877) 294-7187,,,,,
,(888) 444-0603,,,,,
,(888) 431-3748,,,,,
,,,,,,
"Insurance,Financial Services",(316) 631-1218,1861 N Rock Rd,Stahl Financial Services,KS,"Wichita, ",67206
"Insurance,Agriculture Insurance",(316) 681-2001,1861 N Rock Rd,Kemper National Insurance Companies,KS,"Wichita, ",67206
Insurance,(316) 631-1218,1861 N Rock Rd Ste 211,Stahl Devin,KS,"Wichita, ",67206
Insurance,(316) 681-0891,1861 N Rock Rd Ste 203,Caskey Sam,KS,"Wichita, ",67206
Insurance,(316) 440-1790,654 N Woodchuck St,Z Insurance Group,KS,"Wichita, ",67212
"Insurance,Agriculture Insurance",(316) 729-7676,7570 W 21st St N,Design Benefits,KS,"Wichita, ",67205
Insurance,(316) 722-7023,7570 W 21st St N # 1038B,Jonskosky Jim,KS,"Wichita, ",67205
Insurance,(316) 440-3361,8131 E Harry St Apt E,Behee Ins,KS,"Wichita, ",67207
Insurance,(316) 773-5955,7603 W 21st St N Ste 105,Prahm Rita,KS,"Wichita, ",67205
"Insurance,Financial Services",(316) 685-5311,8100 E 22nd St N Bldg 100,Lincoln Financial Advisors,KS,"Wichita, ",67226
"Insurance,Agriculture Insurance",(316) 683-4900,8100 E 22nd St N,"Scafer, Greg",KS,"Wichita, ",67226
Insurance,(316) 613-3340,8100 E 22nd St N # 100-6,Combined Insurance Company,KS,"Wichita, ",67226
"Insurance,Agriculture Insurance",(316) 269-1115,8100 E 22nd St N,Prosperity Financial Group Inc,KS,"Wichita, ",67226
Insurance,(316) 269-1115,8100 E 22nd St N,Minnesota Life Insurance Company,KS,"Wichita, ",67226
"Insurance,Agriculture Insurance",(316) 269-2151,2551 N Rock Road Ct,Brace Michael E,KS,"Wichita, ",67226
Insurance,(316) 689-3189,8301 E 21st St N,Crenshaw Sue,KS,"Wichita, ",67206
Insurance,(316) 634-1222,8301 E 21st St N,Coventry Health Care Of Kansas Inc,KS,"Wichita, ",67206
"Insurance,Agriculture Insurance",(316) 869-0636,8301 E 21st St N,Fee Insurance Group,KS,"Wichita, ",67206
Insurance,(316) 409-4442,4486 S Saint Paul Ct,American National Insurance Co,KS,"Wichita, ",67217
Insurance,(316) 409-4442,4486 S Saint Paul Ct,Buckley Jennifer,KS,"Wichita, ",67217
Insurance,(316) 440-4240,8415 E 21st St N,Insurance Specialists Group,KS,"Wichita, ",67206
"Insurance,Agriculture Insurance",(316) 440-4240,8415 E 21st St N # 210,Dodds Jeff,KS,"Wichita, ",67206
"Insurance,Agriculture Insurance",(316) 440-4240,8415 E 21st St N # 210,Masterson Paul,KS,"Wichita, ",67206
Insurance,(316) 684-5544,8621 E 21st St N,Dahlke & Associates Inc,KS,"Wichita, ",67206
"Insurance,Insurance Adjusters",(316) 554-7144,4732 S Madison Ave,Joe F Novacek Insurance,KS,"Wichita, ",67216
Insurance,(316) 685-3919,8311 E Oxford Cir,Dolloff Terry R,KS,"Wichita, ",67226
Insurance,(316) 721-8700,920 N Tyler Rd Ste 102,Holmes Verl,KS,"Wichita, ",67212
Insurance,(316) 729-4266,920 N Tyler Rd,Advantage Insurance Svc Inc,KS,"Wichita, ",67212
Insurance,(316) 425-7755,123 N Tyler Rd Ste 100,Walker Dale,KS,"Wichita, ",67212
Insurance,(316) 262-7000,8911 W Maple St,Ryan Barber Insurance Agency,KS,"Wichita, ",67209
,(888) 431-3748,,,,,
,(877) 294-7187,,,,,
,(888) 444-0603,,,,,
,(877) 331-8261,,,,,
,,,,,,
"Insurance,Agriculture Insurance",(316) 681-3000,7701 E Kellogg Dr,"Winfrey, Rob",KS,"Wichita, ",67207
Insurance,(316) 612-3522,7701 E Kellogg Dr Apt E,Aflac,KS,"Wichita, ",67207
"Insurance,Agriculture Insurance",(316) 682-5757,7701 E Kellogg Dr # 435,"Wilson, Ed",KS,"Wichita, ",67207
Insurance,(316) 685-8000,7701 E Kellogg Dr # 540,Dixon Doug,KS,"Wichita, ",67207
"Insurance,Agriculture Insurance",(316) 681-3000,7701 E Kellogg Dr,"Chrisman, Mike",KS,"Wichita, ",67207
"Insurance,Financial Services",(316) 683-0900,7701 E Kellogg Dr,Robinson Financial Group,KS,"Wichita, ",67207
"Insurance,Agriculture Insurance",(316) 685-8000,7701 E Kellogg Dr,Insurance Resources,KS,"Wichita, ",67207
Insurance,(316) 634-2852,7700 E 13th St N,Jimmy Carter Insurance,KS,"Wichita, ",67206
Insurance,(316) 945-6733,7016 W Harry St,Hardy Randy,KS,"Wichita, ",67209
Insurance,(316) 945-6733,7016 W Harry St,Hardy Aviation Insurance,KS,"Wichita, ",67209
"Insurance,Health Insurance",(316) 686-7778,250 N Rock Rd,Aviva Life & Annuity Co,KS,"Wichita, ",67206
"Insurance,Agriculture Insurance",(316) 260-3337,240 N Rock Rd Suite 333,Asset Insurance Management,KS,"Wichita, ",67206
Insurance,(316) 260-3337,240 N Rock Rd Ste 333,AIM Inc,KS,"Wichita, ",67206
"Insurance,Agriculture Insurance",(316) 613-2288,240 N Rock Rd,Nguyen Insurance,KS,"Wichita, ",67206
"Insurance,Agriculture Insurance",(316) 686-7778,250 N Rock Rd,Coordinated Planning Services,KS,"Wichita, ",67206
Insurance,(316) 440-4240,8020 E Central Ave # 140,Masterson Paul,KS,"Wichita, ",67206
"Insurance,Agriculture Insurance",(316) 440-4240,8020 E Central Ave,Insurance Specialist Group,KS,"Wichita, ",67206
"Insurance,Financial Planning Consultants",(316) 636-1811,8020 E Central Ave,Aldrup Rick,KS,"Wichita, ",67206
Insurance,(316) 685-4795,7309 E 21st St N,Haglund-Strella Insurance,KS,"Wichita, ",67206
"Insurance,Auto Insurance",(316) 260-1577,4347 S Broadway St,Farmers Insurance,KS,"Wichita, ",67216
Insurance,(316) 524-3548,4354 S Broadway St,Lindsey Craig,KS,"Wichita, ",67216
Insurance,(316) 630-0066,1445 N Rock Rd,Primerica Financial Svc,KS,"Wichita, ",67206
Insurance,(316) 685-0111,7829 E Rockhill St # 305,Harmon L C,KS,"Wichita, ",67206
"Insurance,Agriculture Insurance",(316) 201-6799,1833 N Rock Road Ct,D B Wilkins Insurance,KS,"Wichita, ",67206
"Insurance,Auto Insurance",(316) 729-6452,520 S Holland St,Farmers Union Insurance,KS,"Wichita, ",67209
"Insurance,Homeowners Insurance",(316) 687-1244,7777 E Osie St,Guideone,KS,"Wichita, ",67207
Insurance,(316) 687-9667,1133 S Rock Rd,Frontier Benefits Group,KS,"Wichita, ",67207
"Insurance,Agriculture Insurance",(316) 686-7427,1125 S Rock Rd,Mceachern Ins & Fin Service Inc,KS,"Wichita, ",67207
Insurance,(316) 448-5107,7340 W 21st St N,Hays Co,KS,"Wichita, ",67205
"Insurance,Insurance Adjusters",(316) 681-2001,1861 N Rock Rd,Broadspire Services,KS,"Wichita, ",67206
,(877) 294-7187,,,,,
,(888) 431-3748,,,,,
,(877) 331-8261,,,,,
,(888) 444-0603,,,,,
,,,,,,
Insurance,(316) 773-7300,8935 W Central Ave,Allstate Financial Svc,KS,"Wichita, ",67212
Insurance,(316) 613-3553,9330 E Central Ave,Ffg,KS,"Wichita, ",67206
"Insurance,Agriculture Insurance",(316) 686-9149,33 N Laurel Dr,Crites & Associates,KS,"Wichita, ",67206
"Insurance,Escrow Service",(316) 630-8338,3606 N Governeour Cir,Fidelity National Title,KS,"Wichita, ",67226
Insurance,(316) 721-4200,8925 W Maple St,Cliff Cross & Associates,KS,"Wichita, ",67209
Insurance,(316) 682-7770,9435 E Central Ave,Cig Insurance,KS,"Wichita, ",67206
Insurance,(316) 682-7770,9435 E Central Ave # 100,Spence Lance,KS,"Wichita, ",67206
"Insurance,Agriculture Insurance",(316) 201-6488,1660 N Tyler Rd,Madrigal & Welch Insurance,KS,"Wichita, ",67212
"Insurance,Agriculture Insurance",(316) 685-5585,8110 E 32nd St N,Hardman Benefit Plans,KS,"Wichita, ",67226
Insurance,(316) 687-9667,2800 S Rock Rd,Simpson Troy,KS,"Wichita, ",67210
Insurance,(316) 729-1965,8558 W 21st St N # 200,Miles Mark,KS,"Wichita, ",67205
"Insurance,Agriculture Insurance",(316) 832-1558,2020 N Tyler Rd,Insurance Innovation Group,KS,"Wichita, ",67212
"Insurance,Agriculture Insurance",(316) 266-6341,8200 E 32nd St N,"Thornton, Dyan M",KS,"Wichita, ",67226
"Insurance,Agriculture Insurance",(316) 266-6335,8200 E 32nd St N,Kilian Lori A,KS,"Wichita, ",67226
"Insurance,Agriculture Insurance",(316) 266-6321,8200 E 32nd St N,Hawkins David P,KS,"Wichita, ",67226
"Insurance,Agriculture Insurance",(316) 266-6230,8200 E 32nd St N,"Broadstreet, Sandra K - Ima Of Kansas Inc",KS,"Wichita, ",67226
"Insurance,Agriculture Insurance",(316) 266-6349,8200 E 32nd St N,"Burton, Bret S Ima of Kansas INC",KS,"Wichita, ",67226
"Insurance,Agriculture Insurance",(316) 729-0301,2118 N Tyler Rd,Federal Deposit Insurance Corp,KS,"Wichita, ",67212
"Insurance,Agriculture Insurance",(316) 722-9595,2121 N Tyler Rd,"Horn, Gaye",KS,"Wichita, ",67212
Insurance,(316) 612-6820,1313 N Webb Rd Ste 130,Dixon Timothy,KS,"Wichita, ",67206
Insurance,(316) 722-1420,9225 W Central Ave,Voss Joe Ins,KS,"Wichita, ",67212
"Insurance,Agriculture Insurance",(316) 854-9465,8441 E 32nd St N,Richey Health Benefits,KS,"Wichita, ",67226
"Insurance,Auto Insurance",(316) 686-6303,9415 E Harry St # 800,"Barrett, Kathleen",KS,"Wichita, ",67207
Insurance,(316) 866-2628,9415 E Harry St # 407,Miller Bob,KS,"Wichita, ",67207
"Insurance,Agriculture Insurance",(316) 315-0617,3500 N Rock Rd,Keating & Associates Inc,KS,"Wichita, ",67226
Insurance,(316) 315-0617,3500 N Rock Rd Ste 200,Baier Joann,KS,"Wichita, ",67226
Insurance,(316) 315-0617,3500 N Rock Rd,Assurity Life Insurance Co,KS,"Wichita, ",67226
Insurance,(316) 722-7821,655 N Caddy Ln,PW Aviation,KS,"Wichita, ",67212
Insurance,(316) 722-7821,655 N Caddy Ln,Brown Marty,KS,"Wichita, ",67212
"Insurance,Agriculture Insurance",(316) 267-4464,8200 E Thorn Dr,Bachelder Jeff,KS,"Wichita, ",67226
,(877) 331-8261,,,,,
,(877) 294-7187,,,,,
,(888) 431-3748,,,,,
,(888) 444-0603,,,,,
,,,,,,
"Insurance,Agriculture Insurance",(316) 691-8900,8200 E Thorn Dr,Mastio Financial Resources,KS,"Wichita, ",67226
"Insurance,Agriculture Insurance",(316) 263-5174,8200 E Thorn Dr,Equitable Life Assurance,KS,"Wichita, ",67226
"Insurance,Agriculture Insurance",(316) 722-7162,1395 N Valleyview St,Harrison Insurance Service LL,KS,"Wichita, ",67212
Insurance,(316) 773-6622,10209 W Central Ave,Arias Sulma,KS,"Wichita, ",67212
"Insurance,Financial Services",(316) 685-9600,10333 E 21st St N # 203,Paulseen Financial Group,KS,"Wichita, ",67206
Insurance,(316) 689-6898,10333 E 21st St N # 403,Dingwall Kenneth Insurance,KS,"Wichita, ",67206
Insurance,(316) 993-4747,10300 W Central Ave,Insurance In Wichita,KS,"Wichita, ",67212
"Insurance,Pension & Profit Sharing Plans",(316) 729-0009,10300 W Central Ave,Met Life Home Loans,KS,"Wichita, ",67212
"Insurance,Agriculture Insurance",(316) 676-1600,10511 E Central Ave,Travel Air Insurance Co,KS,"Wichita, ",67206
Insurance,(316) 729-8304,889 N Maize Rd Ste 201,Cameron Alicia,KS,"Wichita, ",67212
Insurance,(316) 263-6800,2003 S Cranbrook St,Michalski Le Ann,KS,"Wichita, ",67207
"Insurance,Financial Services",(316) 683-6254,10011 W 21st St N,Warnke Financial Services Inc,KS,"Wichita, ",67205
"Insurance,Agriculture Insurance",(316) 260-9977,10417 W Maple St,Kathy Eck-Farmers Insurance,KS,"Wichita, ",67209
Insurance,(316) 942-0008,2110 N Maize Rd,Aaam Travel & Insurance Services,KS,"Wichita, ",67212
"Insurance,Auto Insurance",(316) 267-0400,9310 E 37th St N,Long Steven Insurance Agency,KS,"Wichita, ",67226
"Insurance,Agriculture Insurance",(316) 729-5647,2519 Glacier Dr,"Watson, Robert",KS,"Wichita, ",67215
Insurance,(316) 612-6820,601 S Greenwich Rd Ste 111,Quickly Kelly,KS,"Wichita, ",67207
"Insurance,Agriculture Insurance",(316) 722-9003,2552 N Maize Ct,Dan Erwin Agency,KS,"Wichita, ",67205
Insurance,(316) 260-5385,1503 N Fieldcrest Cir,Brooke Insurance & Financial Service,KS,"Wichita, ",67212
Insurance,(316) 687-6877,8509 E 44th Cir N,Warnick Insurance Consultants,KS,"Wichita, ",67226
"Insurance,Agriculture Insurance",(316) 722-2237,2501 S Denene St,Insurance,KS,"Wichita, ",67215
"Insurance,Agriculture Insurance",(316) 722-2237,2501 S Denene St,Senior Market Sales,KS,"Wichita, ",67215
"Insurance,Agriculture Insurance",(316) 262-5263,545 S Circle Lake Rd,Jerry Kunkle Insurance,KS,"Wichita, ",67209
Insurance,(316) 262-5261,545 S Circle Lake Rd,Assurity Life Insurance Co,KS,"Wichita, ",67209
"Insurance,Agriculture Insurance",(316) 425-7070,11603 W Texas St,PIB Insurance Brokerage Inc,KS,"Wichita, ",67209
Insurance,(316) 687-3658,2043 N Founders Cir # 103,Schuster Roger,KS,"Wichita, ",67206
Insurance,(316) 558-8556,12105 W Ridgepoint Ct,Sentry Insurance,KS,"Wichita, ",67235
Insurance,(316) 218-1111,12828 E 13th St N,Steve Olivier & Associates,KS,"Wichita, ",67230
"Insurance,Agriculture Insurance",(316) 733-8250,12828 E 13th St N,Lincoln National Life,KS,"Wichita, ",67230
Insurance,(316) 722-9070,1252 N Hickory Creek Ct,JD Thompson Insurance,KS,"Wichita, ",67235
,(877) 294-7187,,,,,
,(888) 444-0603,,,,,
,(888) 431-3748,,,,,
,(877) 331-8261,,,,,
,,,,,,
Insurance,(316) 685-1244,13413 E Windham St,Elmore Carolyn,KS,"Wichita, ",67230
"Insurance,Agriculture Insurance",(316) 733-8153,551 N Birkdale Ct,Gene Fisher Insurance,KS,"Wichita, ",67230
Insurance,(316) 425-6090,13605 W Maple St # 107,Britt Whealy Farm Bur Fnncl,KS,"Wichita, ",67235
"Insurance,Agriculture Insurance",(316) 558-5181,14921 E Sport Of Kings St,Specialty Insurance Consultants,KS,"Wichita, ",67230
"Insurance,Agriculture Insurance",(316) 733-6410,550 N 159th St E,Hagedorn & Associates,KS,"Wichita, ",67230
Insurance,(316) 733-6141,4601 N 143rd St E,Johnson Greg & Associates,KS,"Wichita, ",67228
"Insurance,Agriculture Insurance",(316) 633-7388,,GEICO Insurance,KS,"Wichita, ",67203
Insurance,(316) 208-4402,,Sentry Insurance,KS,"Wichita, ",67275
"Insurance,Auto Insurance",(316) 686-6020,,American Family Insurance,KS,"Wichita, ",67218
Insurance,(316) 685-5234,,Shelter Insurance,KS,"Wichita, ",67207
Insurance,(316) 267-2467,,Insurance Center Inc,KS,"Wichita, ",67202
Insurance,(316) 250-4214,,Rickey Health Benefits,KS,"Wichita, ",67201
Insurance,(888) 262-6412,,Northwestern Mutual Life Insurance,KS,"Wichita, ",67201
"Insurance,Agriculture Insurance",(316) 722-9070,,J D Thompson Insurance,KS,"Wichita, ",67201
"Insurance,Auto Insurance",(316) 550-6100,10939 E Harry St,Farmers Insurance,KS,"Wichita, ",67207
"Insurance,Financial Services",(316) 425-0048,140 N Hydraulic St Ste 300,Farmers Insurance - Steven Rogers,KS,"Wichita, ",67214
"Homeowners Insurance,Life Insurance",(316) 838-1486,1900 N Amidon Ave Ste 216,Farmers Insurance - Willi Richert,KS,"Wichita, ",67203
"Homeowners Insurance,Life Insurance",(316) 262-7660,961 N West St,Farmers Insurance - Christopher Pore,KS,"Wichita, ",67203
Business & Commercial Insurance,(316) 265-7777,2726 N Amidon Ave Ste 200,Cody Nelson Agency Farmers Insurance,KS,"Wichita, ",67204
"Mortgages,Insurance",(316) 252-1355,11333 E. Kellogg Ave. #300,Foundation Financial Group,KS,"Wichita, ",67207
"Auto Insurance,Insurance",(877) 888-7903,514 S Broadway St,Payday Loans Wichita,KS,"Wichita, ",67202
Financial Services,(316) 214-1677,300 W Douglas Ave Ste 120,Farm Bureau Financial Services - Matthew Steventon Agency,KS,"Wichita, ",67202
Auto Insurance,(316) 688-4454,1644 S Oliver St,Auto Acceptance Insurance,KS,"Wichita, ",67218
"Auto Insurance,Insurance,Truck Insurance",(316) 260-1704,564 S. Oliver,Auto Insurance Express,KS,"Wichita, ",67218
Health Plans-Information & Referral...,(316) 609-2345,8535 E 21st St N,Preferred Health Systems,KS,"Wichita, ",67206
Pension & Profit Sharing Plans,(316) 262-0671,125 N Market St,New York Life,KS,"Wichita, ",67202
Financial Planning Consultants,(316) 685-7557,1425 E Douglas Ave,Primerica,KS,"Wichita, ",67211
Homeowners Insurance,(316) 267-7878,1101 W Douglas Ave,Farmers Insurance - Theodore Shannon,KS,"Wichita, ",67213
Homeowners Insurance,(316) 773-2000,1107 W Douglas Ave,Farmers Insurance - Thomas Hieger,KS,"Wichita, ",67213
Auto Insurance,(316) 267-2323,1107 W Douglas Ave,Farmers Insurance - Kristie Nedbalek,KS,"Wichita, ",67213
,(888) 431-3748,,,,,
,(877) 294-7187,,,,,
,(877) 331-8261,,,,,
,(888) 444-0603,,,,,
,,,,,,
"Insurance,Financial Planning Consultants",(316) 262-1899,1999 N Amidon Ave,Primerica,KS,"Wichita, ",67203
Financial Planning Consultants,(316) 267-4141,3510 W Central Ave,Primerica,KS,"Wichita, ",67203
Auto Insurance,(316) 945-5775,3610 W Central Ave,David Lawrence-State Farm Insurance,KS,"Wichita, ",67203
Insurance Agents Resumes,(316) 618-0000,3228 E Pawnee St,Farmers Insurance Group,KS,"Wichita, ",67218
Auto Insurance,(316) 558-8015,1959 S Oliver St,Farmers Insurance - Cory Asmann,KS,"Wichita, ",67218
"Agriculture Insurance,Insurance",(316) 686-6878,5635 E Harry St,"Looney, Jose",KS,"Wichita, ",67218
Auto Insurance,(316) 685-0682,240 N Rock Rd Ste 210,Farmers Insurance - Kenneth Hipp,KS,"Wichita, ",67206
Auto Insurance,(316) 267-8989,1251 S Longfellow St,Farmers Insurance - Dave Wolf,KS,"Wichita, ",67207
Auto Insurance,(316) 946-0900,8406 W Maple St,Farmers Insurance - Doug Desbien,KS,"Wichita, ",67209
"Agriculture Insurance,Insurance",(316) 683-7548,3700 N Woodlawn Blvd,Gary Thompson  State Farm Insurance Agent,KS,"Wichita, ",67220
Auto Insurance,(316) 729-4044,8606 W 13th St N Ste 180,Farmers Insurance - Michael Edwards,KS,"Wichita, ",67212
"Agriculture Insurance,Insurance",(316) 685-0394,9431 E Central Ave,John Schultz-State Farm Insurance,KS,"Wichita, ",67206
"Escrow Service,Arbitration Services",(316) 773-3333,3531 N Ridge Rd,Security 1st Title,KS,"Wichita, ",67205
Insurance Consultants & Analysts,(316) 773-4800,2020 N Tyler Rd Ste 128,Farmers Insurance - Andy Woodward,KS,"Wichita, ",67212
"Homeowners Insurance,Insurance",(316) 315-0552,3450 N Rock Rd Ste 605,Johnson Mark,KS,"Wichita, ",67226
Boat & Marine Insurance,(316) 260-9977,10417 W Maple St,Kathy Eck - Farmers Insurance Group,KS,"Wichita, ",67209
"Agriculture Insurance,Insurance",(316) 722-7700,1930 N Maize Rd,Steve Clark-State Farm Insurance,KS,"Wichita, ",67212
"Agriculture Insurance,Insurance",(316) 685-2156,1459 S Greenwich Rd,Scott Forester-State Farm Insurance,KS,"Wichita, ",67207
Homeowners Insurance,(316) 721-1418,11931 W Central Ave Ste 300,Allstate Insurance - Krystal Muci,KS,"Wichita, ",67212
Life Insurance,(316) 267-3225,250 N Water St,Mass Mutual Financial Group,KS,"Wichita, ",67202
"Agriculture Insurance,Insurance",(316) 217-4544,151 N Main St,"Sutton, Charles",KS,"Wichita, ",67202
"Agriculture Insurance,Insurance",(316) 303-9837,125 N Market St,Rivera Charles,KS,"Wichita, ",67202
"Agriculture Insurance,Insurance",(316) 261-3757,125 N Market St,"Heimann, Bill",KS,"Wichita, ",67202
"Health Insurance,Insurance",(316) 269-1666,220 W Douglas Ave,Blue Cross & Blue Shield,KS,"Wichita, ",67202
Stock & Bond Brokers,(316) 267-0300,300 S Main St,Dear David,KS,"Wichita, ",67202
"Agriculture Insurance,Insurance",(316) 268-7273,100 E English St,Farm Bureau Insurance,KS,"Wichita, ",67202
"Agriculture Insurance,Insurance",(316) 425-7747,505 S Broadway St,Brad Mendenhall Agency Fax,KS,"Wichita, ",67202
"Financial Services,Financing Services",(316) 425-6090,505 S Broadway St,Farm Bureau Financial Services,KS,"Wichita, ",67202
"Financial Planning Consultants,Insurance",(316) 263-7305,117 W Dewey St,Primerica,KS,"Wichita, ",67202
"Auto Insurance,Insurance",(316) 267-7878,1101 W Douglas Ave,"Shannon, Theodore",KS,"Wichita, ",67213
,(888) 444-0603,,,,,
,(877) 294-7187,,,,,
,(888) 431-3748,,,,,
,(877) 331-8261,,,,,
,,,,,,
Insurance Consultants & Analysts,(316) 263-4927,1111 W Douglas Ave,Bird Floyd Insurance Agency,KS,"Wichita, ",67213
Financial Planning Consultants,(316) 263-5800,1556 N Broadway St,Farm Bureau Financial Service,KS,"Wichita, ",67214
"Agriculture Insurance,Insurance",(316) 771-5003,1200 S Broadway St,Farm Bureau Financial Svc,KS,"Wichita, ",67211
"Agriculture Insurance,Insurance",(316) 831-9787,402 W 21st St N,"Johnson, Jerry",KS,"Wichita, ",67203
Financial Services,(316) 425-0918,1786 S Seneca St,Farm Bureau Financial Servies- Cooks Brooks & Edgerle Agency,KS,"Wichita, ",67213
"Agriculture Insurance,Insurance",(316) 425-0918,1786 S Seneca St # 9,Tennessee Farm Bureau,KS,"Wichita, ",67213
"Agriculture Insurance,Insurance",(316) 440-6443,1786 S Seneca St,"Bui, Tony",KS,"Wichita, ",67213
"Agriculture Insurance,Insurance",(316) 425-0032,200 S Hillside St,Farmers Insurance,KS,"Wichita, ",67211
"Agriculture Insurance,Insurance",(316) 214-4080,200 S Hillside St # A,"Nelson, Cody",KS,"Wichita, ",67211
"Agriculture Insurance,Insurance",(316) 838-4204,2307 N Amidon Ave,"Everett, Victor",KS,"Wichita, ",67204
"Agriculture Insurance,Insurance",(316) 440-2767,808 W 25th St N,Calderon Mauricio,KS,"Wichita, ",67204
"Agriculture Insurance,Insurance",(316) 946-5662,4011 W Saint Louis Ave,Cigna,KS,"Wichita, ",67212
Auto Insurance,(316) 652-7100,4520 E Central Ave,"Green, Jon",KS,"Wichita, ",67208
"Agriculture Insurance,Insurance",(316) 721-3300,1301 N West St,"Scooby Hutchin, Kevin",KS,"Wichita, ",67203
"Agriculture Insurance,Insurance",(316) 262-1550,4707 E Central Ave,"Fortune, Cindy Luke",KS,"Wichita, ",67208
"Agriculture Insurance,Insurance",(316) 945-7911,616 S West St,"Renner, Mike",KS,"Wichita, ",67213
"Agriculture Insurance,Insurance",(316) 265-3188,2610 S Seneca St,"Graham, Scott",KS,"Wichita, ",67217
"Agriculture Insurance,Insurance",(316) 687-2530,120 N Oliver Ave,"Allen, Arthur W",KS,"Wichita, ",67208
"Financial Planning Consultants,Insurance",(316) 686-4946,201 S Oliver St,Woodbury Financial Service,KS,"Wichita, ",67218
"Agriculture Insurance,Insurance",(316) 263-5800,827 S Oliver St,"Garcia, Melissa",KS,"Wichita, ",67218
"Agriculture Insurance,Insurance",(316) 684-2800,5231 E Central Ave,"Villatoro, Melvin",KS,"Wichita, ",67208
"Agriculture Insurance,Insurance",(316) 682-2200,1650 S Georgetown St # 190,"Warren, Allen G",KS,"Wichita, ",67218
"Agriculture Insurance,Insurance",(316) 744-6363,3511 E Bellaire St,"Lazell, David",KS,"Wichita, ",67218
"Agriculture Insurance,Insurance",(316) 440-5950,2935 S Seneca St,Farm Bureau Financial Services,KS,"Wichita, ",67217
Health Plans-Information & Referral...,(316) 945-2011,2837 N Edwards St,Lt. Care Solutions,KS,"Wichita, ",67204
"Auto Insurance,Life Insurance,Insurance",(316) 522-0032,1307 W 31st St S,Farmers Insurance - Bryan Hyde,KS,"Wichita, ",67217
Insurance Consultants & Analysts,(316) 685-9296,5940 E Central Ave,Schreck Financial Group,KS,"Wichita, ",67208
"Agriculture Insurance,Insurance",(316) 684-0509,6121 E Central Ave,"Blackford, Gerald",KS,"Wichita, ",67208
"Auto Insurance,Insurance Adjusters",(316) 350-8187,6611 E Central Ave # A,Michael Light-Allstate Agent,KS,"Wichita, ",67206
Insurance Consultants & Analysts,(316) 265-6241,6606 W Central Ave,"WEJ & Stone Insurance, Inc",KS,"Wichita, ",67212
,(888) 431-3748,,,,,
,(888) 444-0603,,,,,
,(877) 294-7187,,,,,
,(877) 331-8261,,,,,
,,,,,,
"Agriculture Insurance,Insurance",(316) 689-4245,111 S Whittier St,Cigna,KS,"Wichita, ",67207
"Financial Planning Consultants,Insurance",(316) 773-1773,515 N Ridge Rd Ste 101,Farm Bureau Financial Services,KS,"Wichita, ",67212
"Automobile Clubs,Insurance",(316) 685-5241,7724 E Central Ave,AAA Insurance,KS,"Wichita, ",67206
"Agriculture Insurance,Insurance",(316) 866-2611,7701 E Kellogg Dr,Farm Bureau Financial Services,KS,"Wichita, ",67207
"Agriculture Insurance,Insurance",(316) 634-2125,316 N Rock Rd,"Curry, David",KS,"Wichita, ",67206
"Agriculture Insurance,Insurance",(316) 682-7771,250 N Rock Rd,Mass Mutual Financial Group,KS,"Wichita, ",67206
"Homeowners Insurance,Insurance",(316) 681-2823,214 S Rock Rd,American Family Insurance,KS,"Wichita, ",67207
"Agriculture Insurance,Insurance",(316) 652-1800,7421 E 21st St N,Farm Bureau Financial,KS,"Wichita, ",67206
"Agriculture Insurance,Insurance",(316) 681-2641,8118 E Douglas Ave,"Jones, Bob",KS,"Wichita, ",67206
"Agriculture Insurance,Insurance",(316) 682-0202,1861 N Rock Rd,"Scooby, Kevin",KS,"Wichita, ",67206
Financial Planning Consultants,(316) 201-6065,7570 W 21st St N,Farm Bureau Financial Service,KS,"Wichita, ",67205
"Homeowners Insurance,Insurance",(316) 683-7971,1819 S Rock Rd,Hamilton Insurance,KS,"Wichita, ",67207
"Agriculture Insurance,Insurance",(316) 682-4500,1819 S Rock Rd Ste 101,Morgan Christopher,KS,"Wichita, ",67207
"Agriculture Insurance,Insurance",(316) 685-0440,1819 S Rock Rd,P James Erickson,KS,"Wichita, ",67207
"Agriculture Insurance,Insurance",(316) 927-2753,8428 W 13th St N,"Agard, Matthew",KS,"Wichita, ",67212
"Health Insurance,Insurance",(316) 634-1222,8535 E 21st St N,Coventry Health Care Of Kansas Inc,KS,"Wichita, ",67206
Insurance,(316) 267-3225,920 N Tyler Rd,Mass Mutual Financial Group,KS,"Wichita, ",67212
"Agriculture Insurance,Insurance",(316) 636-1020,2929 N Rock Rd,"Withrow, Les",KS,"Wichita, ",67226
"Real Estate Loans,Loans,Insurance",(316) 729-5400,1660 N Tyler Rd,Inland Home Mortgage,KS,"Wichita, ",67212
"Mortgages,Insurance,Loans",(316) 729-5400,1660 N Tyler Rd Ste A,Rathbun Jeff,KS,"Wichita, ",67212
Financial Planning Consultants,(316) 722-9595,2121 N Tyler Rd,Farm Bureau Financial Services,KS,"Wichita, ",67212
"Agriculture Insurance,Insurance",(316) 721-8181,2121 N Tyler Rd,Paul Brucks Insurance Inc,KS,"Wichita, ",67212
"Agriculture Insurance,Insurance",(316) 744-7700,8343 E 32nd St N,American Family Hospital,KS,"Wichita, ",67226
Agriculture Insurance,(316) 683-7537,9415 E Harry St,Meckfessel Donald Lee,KS,"Wichita, ",67207
Agriculture Insurance,(316) 683-7537,9415 E Harry St,Hashbarger Jim,KS,"Wichita, ",67207
"Agriculture Insurance,Insurance",(316) 683-7539,9415 E Harry St,James Hashbarger Financial Conslnt,KS,"Wichita, ",67207
"Agriculture Insurance,Insurance",(316) 264-1099,1619 N Waterfront Pkwy,"Brantner, Linda",KS,"Wichita, ",67206
Accountants-Certified Public,(316) 265-2811,1551 N Waterfront Pkwy,Bkd Llp,KS,"Wichita, ",67206
Retirement Planning Services,(316) 263-5761,"8200 E Thorn Drive, Suite 150",AXA Advisors,KS,"Wichita, ",67226
"Agriculture Insurance,Insurance",(316) 729-0078,10300 W Central Ave,Farm Bureau Financial Service,KS,"Wichita, ",67212
,(877) 331-8261,,,,,
,(888) 444-0603,,,,,
,(888) 431-3748,,,,,
,(877) 294-7187,,,,,
,,,,,,
"Agriculture Insurance,Insurance",(316) 721-6635,889 N Maize Rd,Allstate,KS,"Wichita, ",67212
"Agriculture Insurance,Insurance",(316) 729-4600,10254 W 13th St N,Jones Dean,KS,"Wichita, ",67212
"Insurance,Automobile Clubs",(316) 942-0008,2110 N Maize Rd,AAA Insurance,KS,"Wichita, ",67212
"Agriculture Insurance,Insurance",(316) 682-2300,11330 E Central Ave,"Ruelas, Ernest T",KS,"Wichita, ",67206
Insurance Adjusters,(316) 425-6090,13605 W Maple St # 107,Gossen Matt,KS,"Wichita, ",67235
Auto Insurance,(316) 524-2400,12000 W K 42 Hwy,"Luckner, Robin",KS,"Wichita, ",67227
"Auto Insurance,Insurance",(316) 524-2400,12000 W K 42 Hwy,Farmers & Merchants State Bank,KS,"Wichita, ",67227
Auto Insurance,(316) 721-4324,1000 N Tyler Suite 300,Marquez Insurance Agency - Deb Marquez,KS,"Wichita, ",67212
"Abstracters,Title Companies",(316) 267-8371,434 N Main St,First American Title,KS,"Wichita, ",67202
"Agriculture Insurance,Insurance",(316) 858-1999,125 E 2nd St N,"Humphrey, Mary",KS,"Wichita, ",67202
"Health Insurance,Insurance",(316) 261-9600,301 N Main St,United States Aviation Underwriters Inc,KS,"Wichita, ",67202
"Agriculture Insurance,Insurance",(316) 260-3373,201 N Main St,"Branum, Scott W",KS,"Wichita, ",67202
"Accountants-Certified Public,Attorneys",(316) 265-4877,201 N Main St,White-Soward & Claassen,KS,"Wichita, ",67202
"Auto Insurance,Health Insurance",(316) 854-5140,586 E 3rd St N,Wichita Insurance Center,KS,"Wichita, ",67202
"Homeowners Insurance,Fire Insurance",(316) 686-6666,707 N Waco Ave # 101,Johnsen Eric,KS,"Wichita, ",67203
"Auto Insurance,Insurance",(316) 260-6000,707 N Waco Ave Ste 101,Insurance Partners of Kansas,KS,"Wichita, ",67203
"Financial Services,Insurance",(316) 263-7305,727 N Waco Ave,Primerica,KS,"Wichita, ",67203
"Agriculture Insurance,Insurance",(316) 266-5083,727 N Waco Ave,"Miller, Sean",KS,"Wichita, ",67203
"Agriculture Insurance,Insurance",(316) 265-8139,727 N Waco Ave,"Lester, Brian",KS,"Wichita, ",67203
"Agriculture Insurance,Insurance",(316) 265-8139,727 N Waco Ave,"Kaiser, Timothy",KS,"Wichita, ",67203
"Agriculture Insurance,Insurance",(316) 266-5084,727 N Waco Ave,"Stalker, Geoffrey",KS,"Wichita, ",67203
"Agriculture Insurance,Insurance",(316) 941-1519,245 N Waco St # 420,"Turner, Cheryl",KS,"Wichita, ",67202
"Agriculture Insurance,Insurance",(316) 494-6177,245 N Waco St # 300,"Nichols, Trent",KS,"Wichita, ",67202
"Agriculture Insurance,Insurance",(316) 263-3211,245 N Waco St,"Loudon, John L",KS,"Wichita, ",67202
"Agriculture Insurance,Insurance",(316) 263-3211,245 N Waco St,"Shank, Christopher",KS,"Wichita, ",67202
"Agriculture Insurance,Insurance",(316) 263-3211,245 N Waco St,"Graham, Jack",KS,"Wichita, ",67202
Health Plans-Information & Referral...,(316) 616-6160,345 N Riverview St,Lifestyles Health Plan,KS,"Wichita, ",67203
"Pension & Profit Sharing Plans,Insurance",(316) 616-6160,345 N Riverview St,Medova Healthcare Financial Group,KS,"Wichita, ",67203
"Health Insurance,Insurance",(316) 616-6180,345 N Riverview St # 600,Whitney Dan,KS,"Wichita, ",67203
Health Insurance,(316) 616-6180,345 N Riverview St,Direct Health,KS,"Wichita, ",67203
,(877) 331-8261,,,,,
,(888) 444-0603,,,,,
,(877) 294-7187,,,,,
,(888) 431-3748,,,,,
,,,,,,
"Investments,Insurance",(316) 263-3618,216 N Waco St,Powers & Associates,KS,"Wichita, ",67202
"Agriculture Insurance,Insurance",(316) 264-5311,PO Box 2697,"Langhofer, Robert",KS,"Wichita, ",67201
"Agriculture Insurance,Insurance",(316) 266-6581,PO Box 2992,"Jamison, Jeffrey",KS,"Wichita, ",67201
"Agriculture Insurance,Insurance",(316) 266-6598,PO Box 2992,"Maley, Kathie",KS,"Wichita, ",67201
"Agriculture Insurance,Insurance",(316) 268-4728,PO Box 2697,Ewen Richard,KS,"Wichita, ",67201
"Agriculture Insurance,Insurance",(316) 266-6217,PO Box 2992,"Mckinney, David",KS,"Wichita, ",67201
"Agriculture Insurance,Insurance",(316) 266-6217,PO Box 2992,"Nyberg, Glenn",KS,"Wichita, ",67201
"Agriculture Insurance,Insurance",(316) 266-6217,PO Box 2992,"Grace, Jeffrey",KS,"Wichita, ",67201
Financial Planning Consultants,(316) 265-8400,820 N Main St # 101,Ad Astra Financial Group,KS,"Wichita, ",67203
"Agriculture Insurance,Insurance",(316) 262-1338,125 N Market St,"Atencio, Ato",KS,"Wichita, ",67202
"Agriculture Insurance,Insurance",(316) 262-1338,125 N Market St,"Fisher, Garvin J",KS,"Wichita, ",67202
"Agriculture Insurance,Insurance",(316) 261-5431,105 S Broadway St # 440,Henry Steve,KS,"Wichita, ",67202
Health Insurance,(316) 264-5311,300 W Douglas Ave,Harrington Health,KS,"Wichita, ",67202
Financial Planning Consultants,(316) 425-7526,300 W Douglas Ave,Langhofer Financial Group,KS,"Wichita, ",67202
"Agriculture Insurance,Insurance",(316) 268-4745,300 W Douglas Ave,"Tipton, Kathryn",KS,"Wichita, ",67202
"Agriculture Insurance,Insurance",(316) 264-5311,300 W Douglas Ave,"Ewen, Rich",KS,"Wichita, ",67202
"Agriculture Insurance,Insurance",(316) 268-4777,300 W Douglas Ave,"Libel, Paul",KS,"Wichita, ",67202
"Agriculture Insurance,Insurance",(316) 267-3495,906 N Main St,J & R Associates,KS,"Wichita, ",67203
"Agriculture Insurance,Insurance",(316) 269-2151,221 S Broadway St,Premier Financial Group,KS,"Wichita, ",67202
Health Maintenance Organizations,(316) 262-3590,221 S Broadway St Ste 210,Advantage Benefits,KS,"Wichita, ",67202
"Agriculture Insurance,Insurance",(316) 691-8900,624 E Douglas Ave,Mastio John H,KS,"Wichita, ",67202
Insurance Consultants & Analysts,(316) 264-9400,151 N Rock Island St # 3B,Cole Consultants,KS,"Wichita, ",67202
"Agriculture Insurance,Insurance",(316) 269-5027,915 N Nims St,Kansas Long-Term Care Specialists,KS,"Wichita, ",67203
Insurance Adjusters,(316) 266-4040,121 S Lulu St,SG Adjusting,KS,"Wichita, ",67211
"Financial Planning Consultants,Insurance",(316) 264-9317,1700 E Douglas Ave,M & M Finance Co Inc,KS,"Wichita, ",67214
"Financial Services,Insurance",(316) 685-7557,1902 W Douglas Ave,Primerica,KS,"Wichita, ",67203
Insurance Consultants & Analysts,(316) 262-6377,1616 S Broadway St,Auto Acceptance Ins,KS,"Wichita, ",67211
"Auto Insurance,Insurance",(316) 260-1704,1786 S Seneca St,Affordasurance,KS,"Wichita, ",67213
"Agriculture Insurance,Insurance",(316) 267-5586,1837 S Saint Francis St,"Slocum, Bernie",KS,"Wichita, ",67211
"Agriculture Insurance,Insurance",(316) 440-4300,200 S Hillside St,Young Donnie,KS,"Wichita, ",67211
,(877) 331-8261,,,,,
,(888) 444-0603,,,,,
,(888) 431-3748,,,,,
,(877) 294-7187,,,,,
,,,,,,
"Homeowners Insurance,Auto Insurance",(316) 721-5433,251 S Hillside St,Beat Dan Insurance Agency,KS,"Wichita, ",67211
"Billing Service,Bookkeeping,Insurance",(316) 832-0833,2021 N Amidon Ave,Insurance Reimbursement,KS,"Wichita, ",67203
"Financial Planning Consultants,Insurance",(316) 945-7283,3165 W Maple St,Lifetime Wealth Group,KS,"Wichita, ",67213
"Agriculture Insurance,Insurance",(316) 838-4217,2605 W Bobwhite Ln,Don L Graber Insurance,KS,"Wichita, ",67204
Financial Planning Consultants,(316) 777-0903,3000 W Kellogg Dr,Deborah John & Associates,KS,"Wichita, ",67213
Insurance Consultants & Analysts,(316) 854-2139,125 S West St,Auto Acceptance Insurance Inc,KS,"Wichita, ",67213
"Agriculture Insurance,Insurance",(316) 992-1459,2312 S Meridian Ave,"Kuwahara, Sherrie",KS,"Wichita, ",67213
"Agriculture Insurance,Insurance",(316) 771-7250,4031 E Harry St,Benefits By Design Inc,KS,"Wichita, ",67218
Homeowners Insurance,(316) 682-9200,5112 E Central Ave,Bounous-Whitehead & Assoc,KS,"Wichita, ",67208
"Financial Planning Consultants,Insurance",(316) 687-9907,1018 N Battin St,Kemp Financial Service,KS,"Wichita, ",67208
Financial Planning Consultants,(316) 687-9907,1018 N Battin St,Kemp Financial Service,KS,"Wichita, ",67208
"Life Insurance,Insurance",(316) 685-9296,5940 E Central Ave,Monarch Life Insurance,KS,"Wichita, ",67208
"Dental Insurance,Insurance",(316) 529-3330,2730 N Fountain St,Pitts Robert,KS,"Wichita, ",67220
Business & Commercial Insurance,(316) 681-2865,555 N Woodlawn St,Eades William R,KS,"Wichita, ",67208
"Title Companies,Escrow Service",(316) 652-1401,6530 E 13th St N,First American Title Insurance Company,KS,"Wichita, ",67206
"Agriculture Insurance,Insurance",(316) 651-5936,1033 N Stratford Ln,Chrisman Mike,KS,"Wichita, ",67206
"Agriculture Insurance,Insurance",(316) 691-2110,6160 E 21st St N,McDowell,KS,"Wichita, ",67208
"Investment Securities,Insurance",(316) 943-9333,5846 W 21st St N # 300,Jernigan Financial Group,KS,"Wichita, ",67205
"Agriculture Insurance,Insurance",(316) 265-6241,6606 W Central Ave,"Stone, Mark",KS,"Wichita, ",67212
Insurance Consultants & Analysts,(316) 946-0721,6700 W Central Ave,Royalty Insurance,KS,"Wichita, ",67212
"Investment Securities,Insurance",(316) 681-4444,151 S Whittier St,Everson Tax & Financial Services Inc,KS,"Wichita, ",67207
"Agriculture Insurance,Insurance",(316) 612-6500,121 S Whittier St,"Decker, Gary",KS,"Wichita, ",67207
"Agriculture Insurance,Insurance",(316) 612-6500,121 S Whittier St,"Nichols, Kevin",KS,"Wichita, ",67207
"Agriculture Insurance,Insurance",(316) 612-6500,121 S Whittier St,"Catlin, Matthew",KS,"Wichita, ",67207
"Agriculture Insurance,Insurance",(316) 612-6570,121 S Whittier St,"Jenkins, John",KS,"Wichita, ",67207
"Agriculture Insurance,Insurance",(316) 612-6500,121 S Whittier St,"Neal, David",KS,"Wichita, ",67207
"Agriculture Insurance,Insurance",(316) 612-6500,121 S Whittier St,"Horton, Michele",KS,"Wichita, ",67207
"Agriculture Insurance,Insurance",(316) 681-9460,7236 E Harry Ct,"Cabrales, Wendy",KS,"Wichita, ",67207
Property & Casualty Insurance,(316) 201-6065,7230 West 13th Street North,Alan Pierson - Farm Bureau Insurance Agency,KS,"Wichita, ",67212
Stock & Bond Brokers,(316) 685-5777,7701 E Kellogg Dr,Cooper Malone McClain Inc,KS,"Wichita, ",67207
,(888) 444-0603,,,,,
,(888) 431-3748,,,,,
,(877) 331-8261,,,,,
,(877) 294-7187,,,,,
,,,,,,
"Agriculture Insurance,Insurance",(316) 269-1115,8100 E 22nd St N,Associated Insurance Group Inc,KS,"Wichita, ",67226
"Investments,Financial Planners",(316) 687-2143,8100 E 22nd St N # 800-101,Redstone Advisors,KS,"Wichita, ",67226
"Homeowners Insurance,Auto Insurance",(316) 618-0526,6432 E 34th St N Ste 110,American Family Insurance - Rich Hutfles Agency Inc.,KS,"Wichita, ",67226
Title Companies,(316) 722-2463,2872 N Ridge Rd,First American Title Insurance Company,KS,"Wichita, ",67205
"Financial Planning Consultants,Insurance",(316) 269-2151,2551 N Rock Road Ct,Premier Financial Group,KS,"Wichita, ",67226
"Agriculture Insurance,Insurance",(316) 634-6690,8301 E 21st St N,"Wilbert, Daniel",KS,"Wichita, ",67206
"Commercial & Savings Banks,Banks",(316) 689-0200,8301 E 21st St N,Capitol Federal Savings Bank,KS,"Wichita, ",67206
Title Companies,(316) 854-0070,7926 W 21st St N,First American Title Insurance Company,KS,"Wichita, ",67205
"Agriculture Insurance,Insurance",(316) 265-4605,8415 E 21st St N,"Johnson, Marti",KS,"Wichita, ",67206
Homeowners Insurance,(316) 721-5363,8404 W 13th St N Ste 190,American Family Insurance - Gladys Choate,KS,"Wichita, ",67212
"Agriculture Insurance,Insurance",(316) 685-0111,1145 S Longford St,L C Harmon & Associates Inc,KS,"Wichita, ",67207
"Investments,Retirement Planning Services",(316) 722-6634,1820 N Socora St,Principal Financial Group,KS,"Wichita, ",67212
Title & Mortgage Insurance,(316) 634-6300,8621 E 21st St N # 150,First American Title Insurance Company,KS,"Wichita, ",67206
"Agriculture Insurance,Insurance",(316) 684-5544,8621 E 21st St N,Dahlke & Associates Inc,KS,"Wichita, ",67206
Insurance Adjusters,(316) 315-0088,9340 E Central Ave,Paynet Inc,KS,"Wichita, ",67206
"Agriculture Insurance,Insurance",(316) 721-8700,920 N Tyler Rd,Holmes Consulting Inc,KS,"Wichita, ",67212
"Agriculture Insurance,Insurance",(316) 631-3516,2959 N Rock Rd Ste 200,"Haag, Brandon",KS,"Wichita, ",67226
"Long Term Care Insurance,Insurance",(316) 721-6767,8925 W Maple St # 15,Bergkamp Duane,KS,"Wichita, ",67209
Retirement Planning Services,(316) 721-6767,8925 W Maple St,Waddell & Reed,KS,"Wichita, ",67209
"Agriculture Insurance,Insurance",(316) 652-7223,8311 E Greenbriar St,"Griffith, Edward",KS,"Wichita, ",67226
"Agriculture Insurance,Insurance",(316) 722-3974,856 N Waddington Ave,Handley & Associates,KS,"Wichita, ",67212
Health Plans-Information & Referral...,(316) 729-1965,8558 W 21st St N,Miles Benefits Plans,KS,"Wichita, ",67205
"Agriculture Insurance,Insurance",(316) 687-9667,2800 S Rock Rd,Frontier Benefits Group,KS,"Wichita, ",67210
"Agriculture Insurance,Insurance",(316) 684-0494,550 N Webb Rd,Alstate Ins,KS,"Wichita, ",67206
"Agriculture Insurance,Insurance",(316) 266-6203,8200 E 32nd St N,Signature Select,KS,"Wichita, ",67226
"Agriculture Insurance,Insurance",(316) 266-6574,8200 E 32nd St N # 100,Strohm David,KS,"Wichita, ",67226
"Loans,Insurance",(316) 267-9221,8200 E 32nd St N # 2992,"Grace, Jeffrey",KS,"Wichita, ",67226
"Agriculture Insurance,Insurance",(316) 266-6338,8200 E 32nd St N,"Terhune, Emily",KS,"Wichita, ",67226
"Agriculture Insurance,Insurance",(316) 683-5900,7701 E Kellogg Dr,Ruane & Associates,KS,"Wichita, ",67207
"Agriculture Insurance,Insurance",(316) 266-6529,8200 E 32nd St N,"Proctor, Luke",KS,"Wichita, ",67226
"Agriculture Insurance,Insurance",(316) 267-9221,8200 E 32nd St N,Towerstone Inc,KS,"Wichita, ",67226
,(888) 444-0603,,,,,
,(877) 294-7187,,,,,
,(877) 331-8261,,,,,
,(888) 431-3748,,,,,
,,,,,,
"Financial Planning Consultants,Insurance",(316) 651-5433,250 N Rock Rd,Brant Westbrook Financial Service,KS,"Wichita, ",67206
"Agriculture Insurance,Insurance",(316) 686-7778,250 N Rock Rd,"Hill, Patrick",KS,"Wichita, ",67206
"Life Insurance,Auto Insurance,Insurance",(316) 201-6633,240 N Rock Rd,Franklin Insurance,KS,"Wichita, ",67206
"Stock & Bond Brokers,Financial Services",(316) 682-1515,250 N Rock Rd,Cunningham & Associates Insurance,KS,"Wichita, ",67206
"Homeowners Insurance,Auto Insurance",(316) 686-1020,8020 E Central Ave,Sara Long Agency,KS,"Wichita, ",67206
"Agriculture Insurance,Insurance",(316) 682-7771,8080 E Central Ave,Eugene Spurgeon's Office,KS,"Wichita, ",67206
"Agriculture Insurance,Insurance",(316) 636-2223,1223 N Rock Rd Ste H300,Garwood Vance,KS,"Wichita, ",67206
"Agriculture Insurance,Insurance",(316) 685-4795,8150 E Douglas Ave,"Haglund II, David E",KS,"Wichita, ",67206
"Financial Planners,Financing Consultants",(316) 618-6175,7829 E Rockhill St,Yoder Financial Group,KS,"Wichita, ",67206
Financial Planning Consultants,(316) 685-0111,7829 E Rockhill St,Lincoln Financial Group,KS,"Wichita, ",67206
"Agriculture Insurance,Insurance",(316) 265-9341,1841 N Rock Road Ct,"Jansen, Janis",KS,"Wichita, ",67206
Business & Commercial Insurance,(316) 729-7676,404 S. Holland St. Ste 2,Design Benefits LLC,KS,"Wichita, ",67209
"Insurance Adjusters,Insurance",(316) 686-4650,1861 N Rock Rd,Crawford & Co Disability Mgmt,KS,"Wichita, ",67206
"Retirement Planning Services,Insurance",(316) 558-3373,7348 W 21st St N,Retirements Solutions,KS,"Wichita, ",67205
Investment Advisory Service,(316) 685-0111,7804 E Funston St # 212,Lincoln Financial Group,KS,"Wichita, ",67207
"Agriculture Insurance,Insurance",(316) 685-0111,7804 E Funston St,"Kahmeyer, Brenda",KS,"Wichita, ",67207
Business & Commercial Insurance,(316) 685-0111,7804 E Funston St Ste 212,Harmon L C & Associates Inc,KS,"Wichita, ",67207
"Agriculture Insurance,Insurance",(316) 942-2223,1995 Midfield Rd,"Clare, Cheryln",KS,"Wichita, ",67209
"Agriculture Insurance,Insurance",(316) 942-2223,1995 Midfield Rd,"Cannaby, Julie",KS,"Wichita, ",67209
"Agriculture Insurance,Insurance",(316) 942-2223,1995 Midfield Rd,"Oliphant, James",KS,"Wichita, ",67209
"Agriculture Insurance,Insurance",(316) 942-2223,1995 Midfield Rd,"Thompson, Carol",KS,"Wichita, ",67209
"Agriculture Insurance,Insurance",(316) 942-2223,1995 Midfield Rd,"Phelps, Rachel",KS,"Wichita, ",67209
"Insurance,Life Insurance",(316) 685-9238,2827 W Driftwood Cir,Standard Life & Accident Ins,KS,"Wichita, ",67204
Health Plans-Information & Referral...,(316) 685-9238,2827 W Driftwood Cir,John Banta Agency,KS,"Wichita, ",67204
Business & Commercial Insurance,(316) 729-2833,7570 W 21st St N,Cretcher Heartland Inc,KS,"Wichita, ",67205
"Agriculture Insurance,Insurance",(316) 722-7023,7570 W 21st St N,Tele-Help Inc,KS,"Wichita, ",67205
"Loans,Real Estate Loans,Banks",(316) 721-1100,7940 W Kellogg Dr,American AgCredit,KS,"Wichita, ",67209
"Agriculture Insurance,Insurance",(316) 685-5311,8100 E 22nd St N # 100-3,Sauer Fred L,KS,"Wichita, ",67226
Investment Advisory Service,(316) 687-2425,8100 E 22nd St N,Planned Professional Services,KS,"Wichita, ",67226
,(877) 294-7187,,,,,
,(877) 331-8261,,,,,
,(888) 444-0603,,,,,
,(888) 431-3748,,,,,
,,,,,,
"Medical Clinics,Health & Welfare Clinics",(316) 293-3429,9300 E 29th St N # 209,K U Wichita Health Care,KS,"Wichita, ",67226
"Real Estate Title Service,Insurance",(316) 554-2872,10100 W Maple St,First American,KS,"Wichita, ",67209
"Agriculture Insurance,Insurance",(316) 676-1600,10511 E Central Ave,Herbst Cheryl,KS,"Wichita, ",67206
Financial Services,(316) 729-2631,9706 W Sterling St,Thrivent Financial for Lutherans,KS,"Wichita, ",67205
"Agriculture Insurance,Insurance",(316) 729-2631,9706 W Sterling St,Carlson Justin,KS,"Wichita, ",67205
"Escrow Service,Insurance",(316) 682-9665,10616 W Maple St Ste 500,Lawyers Title,KS,"Wichita, ",67209
"Auto Insurance,Fire Insurance",(316) 838-7660,10320 W Esthner Ave,Talbott Larry,KS,"Wichita, ",67209
Health Plans-Information & Referral...,(316) 612-6820,601 S Greenwich Rd,Humana,KS,"Wichita, ",67207
Insurance Consultants & Analysts,(316) 636-4445,3595 N Webb Rd,Elrick & Associates,KS,"Wichita, ",67226
"Agriculture Insurance,Insurance",(316) 722-7159,2360 N Maize Rd,"Otis, Netta",KS,"Wichita, ",67205
"Agriculture Insurance,Insurance",(316) 722-2237,2501 S Denene St,Royer Lonnie,KS,"Wichita, ",67215
"Title Companies,Insurance",(316) 634-8333,11120 E 26th St N # 900,Stewart Title Co,KS,"Wichita, ",67226
"Retirement Planning Services,Insurance",(316) 682-7526,12102 E Laguna St,Senior Estate Solutions,KS,"Wichita, ",67207
Insurance,(316) 687-3658,2043 N Founders Cir,Reserve National Insurance,KS,"Wichita, ",67206
Insured Property Replacement Service,(316) 682-4380,1814 S Tara Falls Ct,Ozark Claim Service,KS,"Wichita, ",67207
"Agriculture Insurance,Insurance",(316) 722-3388,12215 W Briarwood Cir,"Pearson, Bruce",KS,"Wichita, ",67235
"Agriculture Insurance,Insurance",(316) 722-9070,1252 N Hickory Creek Ct,"Thompson, J D",KS,"Wichita, ",67235
"Agriculture Insurance,Insurance",(316) 630-0670,13111 E 21st St N,"Chronister, Ronald",KS,"Wichita, ",67230
"Agriculture Insurance,Insurance",(316) 644-2721,14223 E North Point Dr,Affordable Health & Benefits,KS,"Wichita, ",67230
Insurance Consultants & Analysts,(316) 613-2553,550 N 159th St E # 214,Asset Insurance Conslnt,KS,"Wichita, ",67230
Financial Services,(316) 630-0066,550 N 159th St E # 1000,Primerica,KS,"Wichita, ",67230
"Warranty Contracts,Insurance",(316) 687-6776,550 N 159th St E,Pro Home Intl,KS,"Wichita, ",67230
"Agriculture Insurance,Insurance",(316) 733-6141,4601 N 143rd St E,Federal Employee Benefits,KS,"Wichita, ",67228
"Insurance Adjusters,Debt Adjusters",(316) 265-2611,1405 -A S Hydraulic,Custard Insurance Adjusters,KS,"Wichita, ",67211
"Wall Coatings,Drywall Contractors",(316) 409-8723,,Belveal Drywall Company,KS,"Wichita, ",67216
"Agriculture Insurance,Insurance",(316) 722-6034,1118 W Kellogg Dr,"Doonan, Brent",KS,"Wichita, ",67209
"Agriculture Insurance,Insurance",(316) 448-0290,,Insurance.Com,KS,"Wichita, ",67203
"Health Insurance,Insurance",(316) 304-3727,,"Elliott, Steven J",KS,"Wichita, ",67203
Insurance Medical Examinations,(316) 682-1641,,Kansas Medical Insurance Services,KS,"Wichita, ",67218
"Homeowners Insurance,Life Insurance",(316) 788-9229,220 N Baltimore Ave,Farmers Insurance - Ronald Wells,KS,"Derby, ",67037
,(888) 444-0603,,,,,
,(877) 331-8261,,,,,
,(888) 431-3748,,,,,
,(877) 294-7187,,,,,
,,,,,,
"Agriculture Insurance,Insurance",(316) 266-6255,8200 E 32nd St N,Insurance Women of Wichita,KS,"Wichita, ",67226
Insurance Consultants & Analysts,(316) 266-6280,8200 E 32nd St N,Cornerstone Risk Solutions,KS,"Wichita, ",67226
"Agriculture Insurance,Insurance",(316) 267-9221,8200 E 32nd St N,"Davis, Paul",KS,"Wichita, ",67226
"Agriculture Insurance,Insurance",(316) 266-6205,8200 E 32nd St N # 2992,"Jamison, Jeffrey",KS,"Wichita, ",67226
"Agriculture Insurance,Insurance",(316) 266-6205,8200 E 32nd St N,"Smith, Timothy",KS,"Wichita, ",67226
"Agriculture Insurance,Insurance",(316) 266-6217,8200 E 32nd St N,"Beer, Arlin W",KS,"Wichita, ",67226
"Agriculture Insurance,Insurance",(316) 266-6290,8200 E 32nd St N,"Mckinney, David",KS,"Wichita, ",67226
"Agriculture Insurance,Insurance",(316) 266-6317,8200 E 32nd St N # 2992,"Winn, Russell K",KS,"Wichita, ",67226
"Agriculture Insurance,Insurance",(316) 264-2949,8200 E 32nd St N # 210,"Cassell, Jack",KS,"Wichita, ",67226
"Agriculture Insurance,Insurance",(316) 267-9221,8200 E 32nd St N # 2992,"Forrest, Jana",KS,"Wichita, ",67226
"Agriculture Insurance,Insurance",(316) 267-9221,8200 E 32nd St N # 2992,"Nyberg, Glenn",KS,"Wichita, ",67226
"Insurance Adjusters,Insurance",(316) 681-3434,453 S Webb Rd Ste 150,GAB Robins,KS,"Wichita, ",67207
"Agriculture Insurance,Insurance",(316) 729-0301,2118 N Tyler Rd Ste 100D,Cooper Carol,KS,"Wichita, ",67212
"Agriculture Insurance,Insurance",(316) 612-6820,1313 N Webb Rd,Humana Inc,KS,"Wichita, ",67206
"Homeowners Insurance,Auto Insurance",(316) 722-1101,2290 N Tyler Rd Ste 200,Loren Eisen Insurance,KS,"Wichita, ",67205
"Investment Advisory Service,Insurance",(316) 260-6642,8441 E 32nd St N # 210,World Financial Group,KS,"Wichita, ",67226
Business & Commercial Insurance,(316) 688-0060,9415 E Harry St Ste 206,Daley Insurance & Financial Services,KS,"Wichita, ",67207
"Agriculture Insurance,Insurance",(316) 683-8400,9415 E Harry St # 602,Stahl Greg,KS,"Wichita, ",67207
"Agriculture Insurance,Insurance",(316) 267-8383,3500 N Rock Rd,"Mills, Adam",KS,"Wichita, ",67226
"Agriculture Insurance,Insurance",(316) 722-7821,655 N Caddy Ln,Howe Associates,KS,"Wichita, ",67212
Investment Securities,(316) 265-4605,1635 N Waterfront Pkwy,New England Financial,KS,"Wichita, ",67206
"Agriculture Insurance,Insurance",(316) 265-4605,1635 N Waterfront Pkwy,"Colby, Scott D",KS,"Wichita, ",67206
"Agriculture Insurance,Insurance",(316) 265-4605,1635 N Waterfront Pkwy,"David, Jerry",KS,"Wichita, ",67206
"Dental Insurance,Health Insurance",(316) 264-1099,1619 N Waterfront Pkwy,Delta Dental Of Kansas,KS,"Wichita, ",67206
"Agriculture Insurance,Insurance",(316) 682-8344,1605 N Waterfront Pkwy,"Allen, Blake",KS,"Wichita, ",67206
"Agriculture Insurance,Insurance",(316) 682-8344,1605 N Waterfront Pkwy,"Basore, Dari",KS,"Wichita, ",67206
"Agriculture Insurance,Insurance",(316) 262-7453,8200 E Thorn Dr,MONY Group,KS,"Wichita, ",67226
Annuities & Retirement Insurance Plans,(316) 263-5761,8200 E Thorn Dr,"Keener, Jay",KS,"Wichita, ",67226
Business & Commercial Insurance,(316) 773-1187,8914 W Ryan Cir,Evans & Associates,KS,"Wichita, ",67205
"Agriculture Insurance,Insurance",(316) 681-8119,3020 N Cypress St,Anderson Cristy,KS,"Wichita, ",67226
,(888) 444-0603,,,,,
,(877) 294-7187,,,,,
,(888) 431-3748,,,,,
,(877) 331-8261,,,,,
,,,,,,
"Homeowners Insurance,Life Insurance",(316) 351-9900,101 N Baltimore Ave,Farmers Insurance - Linsey Cutsinger,KS,"Derby, ",67037
Insurance,(316) 788-8806,218 S Baltimore Ave,Tracy Rutledge - Allstate Insurance Company,KS,"Derby, ",67037
"Homeowners Insurance,Life Insurance",(316) 665-6511,311 W Central Ave,Farmers Insurance - Matthew Agard,KS,"Andover, ",67002
"Homeowners Insurance,Life Insurance",(316) 733-1999,121 W Central Ave,Farmers Insurance - Gregory Mason,KS,"Andover, ",67002
"Homeowners Insurance,Life Insurance",(316) 618-0527,3959 N Woodlawn Ct # 1,American Family Insurance,KS,"Bel Aire, ",67220
Insurance,(316) 260-4100,4600 Farmstead CT,Aflac,KS,"Bel Aire, ",67220
Insurance,(316) 260-4100,4600 Farmstead Ct,Coe Gail,KS,"Bel Aire, ",67220
"Insurance,Agriculture Insurance",(316) 721-7779,4041 N Maize Rd Ste 240,Scott Bob,KS,"Maize, ",67101
"Auto Insurance,Insurance",(316) 522-5005,260 N Main St,Shelter Insurance,KS,"Haysville, ",67060
"Insurance,Agriculture Insurance",(316) 522-5005,260 N Main St,Dana Haislett Agency Inc,KS,"Haysville, ",67060
"Insurance,Auto Insurance",(316) 722-9977,4621 N Maize Rd,Sims Insurance Services,KS,"Maize, ",67101
"Insurance,Auto Insurance",(316) 529-1853,920 E Grand Ave,Farmers Insurance,KS,"Haysville, ",67060
"Insurance,Agriculture Insurance",(316) 522-9027,101 Campbell Dr,"Grow, Jim",KS,"Haysville, ",67060
Insurance,(316) 522-9027,101 Campbell Dr,Claphan Amy,KS,"Haysville, ",67060
"Insurance,Auto Insurance",(316) 524-4770,301 W Grand Ave # 200,Ladd Dean,KS,"Haysville, ",67060
"Insurance,Financial Services",(316) 755-2717,111 S Abilene Ave,Farm Bureau Insurance,KS,"Valley Center, ",67147
Insurance,(316) 755-2335,200 E Main St,Allstate Insurance Agency,KS,"Valley Center, ",67147
Insurance,(316) 773-0111,889 N Maize Rd Ste 109,Allstate Peace of Mind Agency,KS,"Maize, ",67101
Insurance,(316) 788-9191,215 E Madison Ave,Bivens Dustin,KS,"Derby, ",67037
Insurance,(316) 788-9191,215 E Madison Ave,Smith Chris,KS,"Derby, ",67037
Business & Commercial Insurance,(316) 788-9191,215 E Madison Ave,Shelter Insurance,KS,"Derby, ",67037
"Auto Insurance,Insurance",(316) 788-9990,1121 N College Park St Ste 300,Farmers Insurance,KS,"Derby, ",67037
Insurance,(316) 788-9990,1121 N College Park St # 300,Ward Kristin,KS,"Derby, ",67037
"Insurance,Agriculture Insurance",(316) 788-2885,325 N Baltimore Ave,White Curt,KS,"Derby, ",67037
"Insurance,Life Insurance,Auto Insurance",(316) 788-6890,220 N Baltimore Ave,Farmers Insurance,KS,"Derby, ",67037
"Insurance,Agriculture Insurance",(316) 788-4271,124 S Baltimore Ave,"Hansen, Cregg",KS,"Derby, ",67037
"Insurance,Agriculture Insurance",(316) 788-4271,124 S Baltimore Ave # B,Hicks Tim,KS,"Derby, ",67037
Insurance,(316) 788-4271,124 S Baltimore Ave Ste B,Shelter Insurance,KS,"Derby, ",67037
Insurance,(316) 788-8806,218 S Baltimore Ave,Rutledge Tracy,KS,"Derby, ",67037
"Insurance,Homeowners Insurance",(316) 315-6906,311 W Central Ave,Agard Agency,KS,"Andover, ",67002
,(877) 294-7187,,,,,
,(888) 431-3748,,,,,
,(877) 331-8261,,,,,
,(888) 444-0603,,,,,
,,,,,,
"Insurance,Auto Insurance",(316) 788-2853,421 N Baltimore Ave,Coffey Insurance Service,KS,"Derby, ",67037
"Insurance,Agriculture Insurance",(316) 788-9191,613 N Rock Rd,Shelter Insurance,KS,"Derby, ",67037
"Insurance,Auto Insurance",(316) 733-8182,324 W Central Ave # E,American Family Insurance,KS,"Andover, ",67002
Insurance,(316) 733-5039,135 S Andover Rd Ste B,Garman Mike,KS,"Andover, ",67002
Insurance,(316) 733-8457,742 N Andover Rd,Shelter Insurance,KS,"Andover, ",67002
"Insurance,Agriculture Insurance",(316) 733-8457,742 N Andover Rd,"Ocadiz, Jodi",KS,"Andover, ",67002
Insurance,(316) 733-8457,742 N Andover Rd # 5,Shelter Insurance,KS,"Andover, ",67002
"Insurance,Agriculture Insurance",(316) 831-9485,4926 N Wyndham Ct,"Jones, Dean",KS,"Park City, ",67219
"Insurance,Agriculture Insurance",(316) 831-0377,270 W 53rd St N,Wichita Insurance Pool Inc,KS,"Park City, ",67204
Insurance,(316) 831-0377,270 W 53rd St N,Gerety Charlie,KS,"Park City, ",67204
Insurance,(316) 744-7700,1548 E 61st St N,Fenske Rachel Ins,KS,"Park City, ",67219
Insurance,(316) 522-4440,6803 S Broadway St,Hoepner Insurance,KS,"Haysville, ",67060
"Insurance,Agriculture Insurance",(316) 721-1665,6606 W Central St,Fritz Henning Cps Insurance Service,KS,"Maize, ",67101
Insurance,(316) 755-1410,236 S Colby Ave,Vogt Michael,KS,"Valley Center, ",67147
"Insurance,Agriculture Insurance",(316) 755-2335,200 E Main St,Kellet Bob Insurance,KS,"Valley Center, ",67147
"Insurance,Agriculture Insurance",(316) 267-2467,120 W Central St,Insurance,KS,"Greenwich, ",67055
"Insurance,Agriculture Insurance",(316) 788-6303,1033 N Buckner St,Eagle Financial Services Inc,KS,"Derby, ",67037
Insurance,(316) 788-6303,1033 N Buckner St # 210,Lichlyter O J,KS,"Derby, ",67037
Insurance,(316) 788-9200,1033 N Buckner St,Insurance Center Inc,KS,"Derby, ",67037
Insurance,(316) 788-9200,1033 N Buckner St # 202,Engelmann Micahel,KS,"Derby, ",67037
"Insurance,Agriculture Insurance",(620) 603-6071,632 E Rolling View Ct,Fritz Insurance,KS,"Park City, ",67147
Insurance,(316) 733-9588,1400 Terradyne Dr # 208,Ledgerwood David,KS,"Andover, ",67002
Insurance,(316) 425-0463,330 E Madison Ave # 207,Madrigal & Welch,KS,"Derby, ",67037
Insurance,(316) 788-2894,121 W Emma St,Horace Mann Insurance Co,KS,"Derby, ",67037
Insurance,(316) 992-1459,1009 W US Highway 54,Copeland Insurance Agency,KS,"Andover, ",67002
Insurance,(316) 992-1459,1009 W US Highway 54,Kuwahara Sherrie,KS,"Andover, ",67002
"Insurance,Agriculture Insurance",(316) 788-7884,1006 N Wisteria Dr,Professional Benefit Conslnts,KS,"Derby, ",67037
Insurance,(316) 260-6111,310 W Central Ave,Caleb Gilmore Agency,KS,"Andover, ",67002
"Insurance,Agriculture Insurance",(316) 425-0463,1701 E Madison Ave,Madrigal & & Welch,KS,"Derby, ",67037
"Insurance,Agriculture Insurance",(316) 789-9191,413 N Osage Rd,Orand Insurance Service,KS,"Derby, ",67037
,(888) 431-3748,,,,,
,(877) 294-7187,,,,,
,(877) 331-8261,,,,,
,(888) 444-0603,,,,,
,,,,,,
"Insurance,Agriculture Insurance",(316) 683-4900,1424 E Deer Trl,Knights Of Columbus Insurance,KS,"Derby, ",67037
Insurance,(316) 733-4882,742 N Andover Rd Ste 4,Sawyer Wes Ins,KS,"Andover, ",67002
"Homeowners Insurance,Life Insurance",(316) 733-1017,321 S Andover Rd,American Family Insurance,KS,"Andover, ",67002
"Insurance,Agriculture Insurance",(316) 260-1736,1951 N Andover Rd,KBA Insurance Hodge & Prtr,KS,"Andover, ",67002
"Insurance,Agriculture Insurance",(316) 794-2200,1035 S 183rd St W,American Underwriters Life Ins,KS,"Goddard, ",67052
Insurance,(316) 794-2200,1035 S 183rd St W,Inter-Americas Insurance Corp Inc,KS,"Goddard, ",67052
"Insurance,Agriculture Insurance",(316) 794-2200,1035 S 183rd St W,Great Fidelity Life Insurance Co,KS,"Goddard, ",67052
Insurance,(316) 794-2200,1035 S 183rd St W,Hawkins R Kell,KS,"Goddard, ",67052
Insurance,(316) 789-1919,7911 S Greenwich Rd,Vawter Bill Insurance Services,KS,"Derby, ",67037
Insurance,(316) 796-1055,212 W Wichita Ave,Farmers Alliance Mutual Insurance Company,KS,"Colwich, ",67030
"Insurance,Agriculture Insurance",(316) 776-0558,1311 N Rose Hill Rd,D R Ewert Insurance Inc,KS,"Rose Hill, ",67133
"Insurance,Agriculture Insurance",(316) 440-4490,209 N Main St # M,Alverson Insurance,KS,"Rose Hill, ",67133
Insurance,(316) 440-4490,209 S Main St # M,Alverson Insurance,KS,"Rose Hill, ",67133
"Insurance,Life Insurance,Auto Insurance",(620) 488-2949,,Farmers Insurance,KS,"Belle Plaine, ",67013
Insurance,(316) 661-8995,,First Insurance Agency,KS,"Mount Hope, ",67108
"Insurance,Agriculture Insurance",(316) 733-7600,,Bunting Insurance & Financial,KS,"Andover, ",67002
"Insurance,Agriculture Insurance",(316) 755-2337,,Bob Kellet Insurance,KS,"Valley Center, ",67147
"Homeowners Insurance,Life Insurance",(316) 265-7881,,Farmers Insurance - Larry Hughes,,,
Insurance,(316) 788-2212,,Aflac,,,
"Insurance,Homeowners Insurance",(316) 283-0800,,Fuqua Insurance,,,
"Insurance,Agriculture Insurance",(316) 263-6800,,Shaffer Insurance Training,,,
"Insurance,Agriculture Insurance",(316) 263-2900,,Benefits By Design Inc,,,
"Insurance,Surety & Fidelity Bonds",(316) 733-9588,,Direct-Link Insurance,,,
Insurance,(785) 392-9100,,Dick Johnson Insurance Agency,,,
Insurance,(785) 472-4700,,Dick Johnson Insurance,,,
Insurance,(918) 749-0444,,Prange Insurance Agency,,,
"Insurance,Agriculture Insurance",(316) 733-2800,,Bunting Insurance and Financial Group,,,
"Insurance,Agriculture Insurance",(316) 686-4618,,The Enterprise Agency,,,
Insurance,(816) 364-3800,,Gerald Shope Agency,,,
"Insurance,Agriculture Insurance",(316) 729-9525,,P & B Insurance Agency,,,
,(877) 294-7187,,,,,
,(888) 444-0603,,,,,
,(888) 431-3748,,,,,
,(877) 331-8261,,,,,
,,,,,,
Insurance,(316) 425-7730,,Farm Bureau Financial Services,,,
Business & Commercial Insurance,(316) 755-9999,306 S Meridian Ave,Keith Hodges State Farm Insurance,KS,"Valley Center, ",67147
"Agriculture Insurance,Insurance",(316) 744-7500,1548 E 61st St N,Cindy Waggoner-State Farm Insurance,KS,"Park City, ",67219
"Agriculture Insurance,Insurance",(316) 744-6363,1710 E 61st St N,Farm Bureau Financial Service,KS,"Kechi, ",67067
"Agriculture Insurance,Insurance",(316) 755-9999,306 S Meridian Ave,Hodges Keith,KS,"Valley Center, ",67147
Insurance Adjusters,(316) 755-2717,111 S Abilene Ave,Maples Teresa,KS,"Valley Center, ",67147
"Agriculture Insurance,Insurance",(316) 788-1300,124 S Baltimore Ave,Farm Bureau Financial Services,KS,"Derby, ",67037
"Auto Insurance,Insurance",(316) 788-6777,421 N Baltimore Ave,Garinger Jean,KS,"Derby, ",67037
"Auto Insurance,Insurance",(316) 788-6777,421 N Baltimore Ave,"Coffey, James",KS,"Derby, ",67037
"Agriculture Insurance,Insurance",(316) 788-9191,613 N Rock Rd,"Smith, Chris",KS,"Derby, ",67037
Financial Planning Consultants,(316) 788-5257,1721 E Osage Rd,Farm Bureau Financial Services,KS,"Derby, ",67037
"Financial Planning Consultants,Insurance",(316) 788-5257,1721 E Osage Rd Ste 100,"Sharp, James",KS,"Derby, ",67037
"Mortgages,Insurance",(316) 440-4141,105 S Andover Rd,"Blevins, Jason",KS,"Andover, ",67002
"Financial Planning Consultants,Insurance",(316) 733-5039,135 S Andover Rd Ste B,Farm Bureau Financial Services,KS,"Andover, ",67002
Insurance Adjusters,(316) 260-4212,325 W Wichita Ave,Mc Gee Brett,KS,"Colwich, ",67030
Financial Planning Consultants,(316) 260-4212,325 W Wichita Ave,Farm Bureau Financial Services,KS,"Colwich, ",67030
"Automobile Auctions,Used Car Dealers",(316) 832-1101,270 W 53rd St N,Insurance Auto Auctions Inc,KS,"Park City, ",67204
Agriculture Insurance,(316) 744-3317,2804 E 69th St N,Crop Insurance,KS,"Valley Center, ",67147
"Financial Planning Consultants,Insurance",(316) 522-9027,101 Campbell Dr,Farm Bureau Financial Service,KS,"Haysville, ",67060
"Insurance Adjusters,Debt Adjusters",(316) 755-3639,226 S Dexter Ave,Frontier Adjusters Inc,KS,"Valley Center, ",67147
"Insurance Adjusters,Insurance",(316) 755-1410,236 S Colby Ave,Premier Claim Solutions,KS,"Valley Center, ",67147
"Agriculture Insurance,Insurance",(316) 267-2467,120 W Central St,Murry Tom,KS,"Greenwich, ",67055
"Commercial & Savings Banks,Banks",(316) 777-1171,122 W Main St,Carson Bank,KS,"Valley Center, ",67147
Business & Commercial Insurance,(316) 264-5777,10720 E 63rd St S,American National Insurance,KS,"Derby, ",67037
Insured Property Replacement Service,(316) 788-2385,907 E Bodine Dr,Advanced Medical Claims Support,KS,"Derby, ",67037
"Financial Planning Consultants,Insurance",(316) 789-0440,102 S Oak Forest Rd,Principal Financial Group,KS,"Derby, ",67037
Financial Planning Consultants,(316) 755-0721,1421 Sunnydale Lakes Est,Primerica,KS,"Valley Center, ",67147
"Agriculture Insurance,Insurance",(316) 927-4294,125 S 1st St,Ethanol Risk Management Spc Limited,KS,"Colwich, ",67030
"Agriculture Insurance,Insurance",(316) 927-4294,125 S 1st St,Vandergriend Nathan,KS,"Colwich, ",67030
Business & Commercial Insurance,(316) 686-6666,,Insurance Partners of Kansas,,,
,(877) 331-8261,,,,,
,(877) 294-7187,,,,,
,(888) 444-0603,,,,,
,(888) 431-3748,,,,,
,,,,,,
"Auto Insurance,Insurance",(316) 776-2026,1002 N Rose Hill Rd,Potter Tamara,KS,"Rose Hill, ",67133
"Agriculture Insurance,Insurance",(316) 776-0777,103 N Rose Hill Rd,Farm Bureau Financial Service,KS,"Rose Hill, ",67133
"Agriculture Insurance,Insurance",(785) 587-6000,PO Box 907,Farm Bureau Financial Svc,KS,"Andover, ",67002
"Insurance Adjusters,Insurance",(316) 755-1410,,Premier Claim Solutions,KS,"Valley Center, ",67147
"Insurance Adjusters,Insurance",(316) 755-3054,,GAB Robins,KS,"Valley Center, ",67147
"Abstracters,Escrow Service,Insurance",(316) 554-2872,,Security 1st Title,,,
Business & Commercial Insurance,(316) 522-0032,,Bryan Hyde Agency,,,
"Health Insurance,Insurance",(316) 640-7321,,UPSURANCE,,,
Financial Planning Consultants,(316) 630-0066,,Primerica,,,
"Life Insurance,Insurance",(316) 613-2511,,American Income Life Ins Co,,,
"Dental Insurance,Insurance",(316) 529-3330,,Alpha Christian Dental Plan,,,
"Financial Planning Consultants,Insurance",(316) 722-6634,,Principal Financial Group,,,
,(888) 431-3748,,,,,
,(888) 444-0603,,,,,
,(877) 294-7187,,,,,
,(877) 331-8261,,,,,
,,,,,,
