category,phone,streetAddress,name,addressState,addressCity,addressZip
,,,,,,
Business & Personal Coaches,(316) 776-2317,,Erikson Jeanne PhD PCC,KS,"Wichita, ",67201
Financial Planners,(316) 636-5511,9342 E Central Ave Ste H,Ameriprise Financial,KS,"Wichita, ",67206
Business & Commercial Insurance,(316) 264-9317,1700 E Douglas Ave,M & M Insurance,KS,"Wichita, ",67214
Business & Personal Coaches,(316) 558-3706,4601 E Douglas Ave,Wallace Associates,KS,"Wichita, ",67218
Financial Planning Consultants,(316) 858-1501,1841 N Rock Road Ct Ste. 300,"Ameriprise Financial Services Inc., Deborah L. Gdisis, CRPC , AAMS , Financial Advisor",KS,"Wichita, ",67206
Water Damage Emergency Service,(316) 684-6700,3255 S Oliver St,Servpro,KS,"Wichita, ",67210
"Funeral Directors,Funeral Planning",(316) 524-1122,2850 S Seneca St,Affinity All Faiths Mortuary,KS,"Wichita, ",67217
Financial Services,(316) 264-2247,1901 W 13th St N,Edward Jones - Financial Advisor: Brendan C Lee,KS,"Wichita, ",67203
Financial Services,(316) 831-9818,1999 N Amidon Suite 208 Marina Point,Edward Jones - Financial Advisor: Leann E Smith,KS,"Wichita, ",67203
Financial Services,(316) 612-6903,4825 E Douglas Ave Suite 200,Edward Jones - Financial Advisor: Chris Hernandez,KS,"Wichita, ",67218
Financial Services,(316) 942-0466,4425 W Zoo Blvd Suite 2,Edward Jones - Financial Advisor: Ron Wilson,KS,"Wichita, ",67212
Financial Services,(316) 942-0466,4425 W Zoo Blvd Suite 2,Edward Jones - Financial Advisor: Christian Spurlock,KS,"Wichita, ",67212
Financial Services,(316) 687-9582,2120 N Woodlawn St Suite 410,Edward Jones - Financial Advisor: Mark A Richards,KS,"Wichita, ",67208
Financial Services,(316) 832-2878,7130 W Maple St Suite 160,Edward Jones - Financial Advisor: Donovan H Leighton,KS,"Wichita, ",67209
Financial Services,(316) 681-3311,8127 E Central Ave,Edward Jones - Financial Advisor: Randy Hale,KS,"Wichita, ",67206
Financial Services,(316) 721-2432,8000 W Central Ave Suite 300,Edward Jones - Financial Advisor: Frank D Meacham,KS,"Wichita, ",67212
Financial Services,(316) 722-5946,8526 W 13th St N Ste 100,Edward Jones - Financial Advisor: Tony J Thomas,KS,"Wichita, ",67212
Financial Services,(316) 636-2035,2929 N Rock Rd Ste 135,Edward Jones - Financial Advisor: Mark A Sloan,KS,"Wichita, ",67226
Financial Services,(316) 681-1338,3876 N Woodlawn Blvd Ste 200,Edward Jones - Financial Advisor: Daniel C Blaha,KS,"Wichita, ",67220
Financial Services,(316) 773-7882,1212 S Tyler Rd Suite 104,Edward Jones - Financial Advisor: Kelli L Barton,KS,"Wichita, ",67209
Financial Services,(316) 681-8001,9415 E Harry St Ste 104,Edward Jones - Financial Advisor: Jim Post,KS,"Wichita, ",67207
Financial Services,(316) 681-8001,9415 E Harry St Ste 104,Edward Jones - Financial Advisor: Harry E Post,KS,"Wichita, ",67207
Financial Services,(316) 630-8105,9747 E 21st St N Suite 127,Edward Jones - Financial Advisor: Dwayne E Green,KS,"Wichita, ",67206
Financial Services,(316) 729-0793,737 N Maize Rd Suite 500,Edward Jones - Financial Advisor: Steve Freeberg,KS,"Wichita, ",67212
Financial Services,(316) 773-5220,2110 N Maize Rd Suite 300,Edward Jones - Financial Advisor: Jeff Christensen,KS,"Wichita, ",67212
Financial Services,(316) 729-9844,12111 W Maple St Suite 113,Edward Jones - Financial Advisor: Matthew J Chase,KS,"Wichita, ",67235
Financial Services,(316) 733-7426,12627 E Central Ave Suite 306,Edward Jones - Financial Advisor: James F Nelson,KS,"Wichita, ",67206
Financial Services,(316) 631-1216,13011 E 21st St N Suite 105,Edward Jones - Financial Advisor: Christi Berry,KS,"Wichita, ",67230
Financial Services,(316) 773-9880,13303 W Maple St Ste 135,Edward Jones - Financial Advisor: Robert A Nicklaus,KS,"Wichita, ",67235
Financial Services,(316) 733-4653,550 N 159th St E 153,Edward Jones - Financial Advisor: Michael D Young,KS,"Wichita, ",67230
,(877) 206-8692,,,,,
,(316) 636-5511,9342 E Central Ave Ste H,,KS,"Wichita, ",67206
,(316) 267-3220,301 N Main St Suite 1700,,KS,"Wichita, ",67202
,(501) 753-0202,,,,,
,(316) 858-1501,1841 N Rock Road Ct Ste. 300,,KS,"Wichita, ",67206
,(316) 267-7231,301 N Main St Ste. 1700,,KS,"Wichita, ",67202
,(316) 652-0101,2103 N Collective Ln,,KS,"Wichita, ",67206
,(316) 265-5151,300 N Main St,,KS,"Wichita, ",67202
,,,,,,
,(316) 500-7522,2929 N Rock Rd Ste 135,,KS,"Wichita, ",67226
"Financial Services,Investment Securities",(316) 681-1338,3876 N Woodlawn Blvd # 200,Edward Jones,KS,"Wichita, ",67220
Business Coaches & Consultants,(316) 265-3229,6600 W Kellogg Dr,iSold It,KS,"Wichita, ",67209
Electrical Engineers,(316) 684-9600,411 N Webb Rd,MKEC Engineering Consultants Inc,KS,"Wichita, ",67206
Management Consultants,(316) 522-7175,225 E 31st St S,Steven Motor Corporate Office,KS,"Wichita, ",67216
Computer Network Design & Systems,(316) 684-5026,2111 N Rock Rd Ste 121,Geek Squad,KS,"Wichita, ",67206
Business Coaches & Consultants,(316) 267-2447,266 N Main St,Adelphia Business Solutions,KS,"Wichita, ",67202
Organizing Services-Household &...,(316) 708-2310,4111 W 16th St N,Clutter Cutter,KS,"Wichita, ",67212
Computer Network Design & Systems,(316) 239-7819,2250 N. Rock Road #118-224,ICT Technical Services,KS,"Wichita, ",67226
Financial Planning Consultants,(316) 685-7557,1425 E Douglas Ave,Primerica,KS,"Wichita, ",67211
"Insurance,Financial Planning Consultants",(316) 262-1899,1999 N Amidon Ave,Primerica,KS,"Wichita, ",67203
Financial Planning Consultants,(316) 267-4141,3510 W Central Ave,Primerica,KS,"Wichita, ",67203
Records Management Consulting & Service,(316) 630-0440,7222 W. Northwind,Imaging Office Systems Inc,KS,"Wichita, ",67205
Business Coaches & Consultants,(316) 264-9505,2020 W Harry St,Diamond J Inc,KS,"Wichita, ",67213
Business Coaches & Consultants,(316) 425-7200,"200 N Broadway, Suite 100",Insights Career Consulting,KS,"Wichita, ",67202
Computers & Computer Equipment-Service...,(316) 201-1221,300 N Main St,Computer Troubleshooters,KS,"Wichita, ",67202
Data Systems-Consultants & Designers,(316) 448-4500,727 N Waco Ave,Tek Systems,KS,"Wichita, ",67203
Direct Mail Advertising,(316) 265-1201,344 N Saint Francis St,Printing Inc,KS,"Wichita, ",67202
Electricians,(316) 265-1616,840 N Main St,Linder & Associates,KS,"Wichita, ",67203
Computer System Designers & Consultants,(316) 265-9555,125 N Emporia St # 100,SKT Business Comm Solutions,KS,"Wichita, ",67202
Advertising Agencies,(316) 683-4691,330 N Mead St Suite 200,Associated Advertising,KS,"Wichita, ",67202
Advertising Agencies,(316) 262-0111,"221 S Broadway, Ste 400",KC Creative Advertising,KS,"Wichita, ",67202
Marketing Consultants,(316) 263-0124,255 N Mead St,Sullivan Higdon & Sink,KS,"Wichita, ",67202
Computer Software Publishers &...,(316) 269-4264,800 E 1st St N,Professional Software Inc,KS,"Wichita, ",67202
Electricians,(316) 263-1264,1638 E 1st St N,Southwestern Electrical Co Inc,KS,"Wichita, ",67214
Computer System Designers & Consultants,(316) 269-9090,1400 E Waterman St,Css Group,KS,"Wichita, ",67211
Computer Network Design & Systems,(316) 260-2500,437 S Hydraulic St,Tkfast,KS,"Wichita, ",67211
"Stock & Bond Brokers,Investments",(316) 631-3500,2959 N Rock Rd,Johnson Ann,KS,"Wichita, ",67226
Internet Service Providers (ISP),(316) 267-5016,2007 S Hydraulic St,CTA Inc,KS,"Wichita, ",67211
Marketing Programs & Services,(316) 689-8555,555 N Woodlawn St,Results Direct Marketing,KS,"Wichita, ",67208
Management Consultants,(316) 942-0107,2148 S Hoover Rd,Belles Management,KS,"Wichita, ",67209
Marketing Programs & Services,(316) 831-4021,5800 E Pawnee St,Mc Cauley Propeller Systems,KS,"Wichita, ",67218
,,,,,,
Consulting Engineers,(316) 684-9600,411 N Webb Rd,Bengtson Kenneth,KS,"Wichita, ",67206
"Bookkeeping,Payroll Service",(316) 530-2255,"2118 N Tyler, B-120",Fellows CPA,KS,"Wichita, ",67212
Financial Planning Consultants,(316) 722-9595,2121 N Tyler Rd,Farm Bureau Financial Services,KS,"Wichita, ",67212
"Insurance,Retirement Planning Services",(316) 655-8113,9415 E Harry St,"Donley, Mark",KS,"Wichita, ",67207
Accountants-Certified Public,(316) 265-2811,1551 N Waterfront Pkwy,Bkd Llp,KS,"Wichita, ",67206
Retirement Planning Services,(316) 263-5761,"8200 E Thorn Drive, Suite 150",AXA Advisors,KS,"Wichita, ",67226
Insurance,(316) 636-9921,"8300 Thorn Dr Suite 200,",Prudential Insurance Brokerage Inc,KS,"Wichita, ",67226
"Insurance,Financial Planning Consultants",(316) 773-9864,10011 W 21st St N,Bill Mull-Allstate Agent,KS,"Wichita, ",67205
"Insurance,Financial Planning Consultants",(316) 722-7700,1930 N Maize Rd,"Clark, Steve M",KS,"Wichita, ",67212
Insurance Adjusters,(316) 425-6090,13605 W Maple St # 107,Gossen Matt,KS,"Wichita, ",67235
Business Coaches & Consultants,(316) 262-9566,200 W Douglas Ave,Aarcher Consulting,KS,"Wichita, ",67202
Business Coaches & Consultants,(316) 262-8857,221 S Broadway St,Consulting Services,KS,"Wichita, ",67202
Management Consultants,(316) 946-0480,1011 N Verda St,Hit Consulting,KS,"Wichita, ",67203
Management Consultants,(316) 944-8770,650 S Westdale Dr,The Marsh Consulting Group,KS,"Wichita, ",67209
Management Consultants,(316) 821-9141,2911 W Keywest Ct,Parexel Consulting,KS,"Wichita, ",67204
Financial Planning Consultants,(316) 773-0831,610 S Eastridge St,Security Plus Consulting Inc,KS,"Wichita, ",67207
Management Consultants,(316) 838-1741,3226 W Keywest St,Soice Consulting,KS,"Wichita, ",67204
Computer System Designers & Consultants,(316) 729-7900,233 S Cardington St,Stukey Consulting Inc,KS,"Wichita, ",67209
Consulting Engineers,(316) 771-7147,212 N Market St,A L L Consulting,KS,"Wichita, ",67202
Business Coaches & Consultants,(316) 265-0770,155 N Market St,Hudson Consulting,KS,"Wichita, ",67202
Business Coaches & Consultants,(316) 263-8138,333 E English St,Ham Bill D Consulting Geophysicist,KS,"Wichita, ",67202
Business Coaches & Consultants,(316) 618-9318,322 S Laura St,Advanced Consulting Solutions Inc,KS,"Wichita, ",67211
Business Coaches & Consultants,(316) 264-7600,1809 N Broadway St,Reyes-Alcala Hispanic Consulting Service,KS,"Wichita, ",67214
Business Coaches & Consultants,(316) 315-0432,225 S Old Manor Rd,Huff Osher Consulting Inc,KS,"Wichita, ",67218
Consulting Engineers,(316) 943-8882,1611 S Eisenhower St Ste B,Airwich Avionics Inc,KS,"Wichita, ",67209
Business Coaches & Consultants,(316) 942-7471,5927 W Harry St,Bowers Consulting,KS,"Wichita, ",67209
Business Coaches & Consultants,(316) 681-2120,2020 N Woodlawn St,Modern Consulting Inc,KS,"Wichita, ",67208
Business Coaches & Consultants,(316) 684-1475,2024 N Woodlawn St Ste 419,Everest Consulting,KS,"Wichita, ",67208
Business Coaches & Consultants,(316) 681-2120,2120 N Woodlawn St Ste 333,Modern Consulting Inc,KS,"Wichita, ",67208
,,,,,,
Medical Business Administration,(316) 685-6091,8200 E 34th Cir N,Management Services Network,KS,"Wichita, ",67226
Computer Network Design & Systems,(316) 383-9950,3020 N Cypress St,Choice Solutions,KS,"Wichita, ",67226
Advertising Agencies,(316) 634-8400,3819 N Toben St,Valassis,KS,"Wichita, ",67226
"Advertising Agencies,Interactive Media",(316) 425-7065,322 South Mosley Street,Copp Media Services,KS,"Wichita, ",67202
Investments,(316) 291-4055,301 N Main St,Insight Wealth Strategies,KS,"Wichita, ",67202
"Consulting Engineers,Civil Engineers",(316) 303-3000,245 N Waco St # 222,"Latkowski, Brett",KS,"Wichita, ",67202
Stock & Bond Brokers,(316) 267-0300,300 S Main St,Dear David,KS,"Wichita, ",67202
Financial Planning Consultants,(316) 267-0300,300 S Main St,Wells Fargo Advisors,KS,"Wichita, ",67202
"Consulting Engineers,Civil Engineers",(316) 262-2691,303 S Topeka St,Professional Engineering Consultants,KS,"Wichita, ",67202
Consulting Engineers,(316) 262-2691,303 S Topeka St,"Young, Rodney",KS,"Wichita, ",67202
"Financial Services,Financing Services",(316) 425-6090,505 S Broadway St,Farm Bureau Financial Services,KS,"Wichita, ",67202
"Financial Planning Consultants,Insurance",(316) 263-7305,117 W Dewey St,Primerica,KS,"Wichita, ",67202
Financial Planning Consultants,(316) 263-5800,1556 N Broadway St,Farm Bureau Financial Service,KS,"Wichita, ",67214
"Civil Engineers,Consulting Engineers",(316) 262-8808,1935 W Maple St,Certified Engineering Design PA,KS,"Wichita, ",67213
Financial Services,(316) 425-0918,1786 S Seneca St,Farm Bureau Financial Servies- Cooks Brooks & Edgerle Agency,KS,"Wichita, ",67213
"Financial Planning Consultants,Insurance",(316) 686-4946,201 S Oliver St,Woodbury Financial Service,KS,"Wichita, ",67218
Business & Personal Coaches,(316) 409-5125,4000 E. 21st St. N. (Mail Only),McNeal Consulting,KS,"Wichita, ",67208
Insurance Consultants & Analysts,(316) 685-9296,5940 E Central Ave,Schreck Financial Group,KS,"Wichita, ",67208
"Investment Securities,Financial Services",(316) 612-6500,121 S Whittier St,UBS Financial Services Inc,KS,"Wichita, ",67207
Investment Securities,(316) 612-6500,121 S Whittier St,Brown Britt,KS,"Wichita, ",67207
"Financial Planning Consultants,Insurance",(316) 773-1773,515 N Ridge Rd Ste 101,Farm Bureau Financial Services,KS,"Wichita, ",67212
"Banks,Loans,Mortgages",(316) 612-6000,7701 E Kellogg Dr,Equity Bank NA,KS,"Wichita, ",67207
Business Coaches & Consultants,(316) 651-5900,7829 E Rockhill St,Wichita Technology Corp,KS,"Wichita, ",67206
Structural Engineers,(316) 722-6880,7570 W 21st St N,Cook Flatt & Strobel,KS,"Wichita, ",67205
Consulting Engineers,(316) 722-6880,7570 W 21st St N # 1026C,Lindebak Mike PE,KS,"Wichita, ",67205
Financial Planning Consultants,(316) 201-6065,7570 W 21st St N,Farm Bureau Financial Service,KS,"Wichita, ",67205
Financing Services,(316) 660-1200,6330 Southwest Blvd,Cessna Finance Corp,KS,"Wichita, ",67215
Business Coaches & Consultants,(316) 685-9225,8100 E 22nd St N,Fitzgerald Schoen C,KS,"Wichita, ",67226
Investment Securities,(316) 630-4400,8301 E 21st St N,Morgan Stanley Wealth Management,KS,"Wichita, ",67206
Financial Planning Consultants,(316) 383-8300,8521 E 21st St N # 322,Morgan Stanley Wealth Management,KS,"Wichita, ",67206
,,,,,,
"Appraisers,Real Estate Appraisers",(316) 264-3922,953 N Faulkner St,Freitag Appraisals & Consulting,KS,"Wichita, ",67203
Document Destruction Service,(316) 838-2121,3333B N Mead St,Underground Vaults & Storage Inc,KS,"Wichita, ",67219
"Debt Adjusters,Investments",(316) 267-1233,7701 E Kellogg Dr,Primerica/Jeannie Roberts,KS,"Wichita, ",67207
Financial Services,(316) 832-2878,7130 W Maple St Suite 160,Edward Jones - Financial Advisor: Rune Larneng,KS,"Wichita, ",67209
Computers & Computer Equipment-Service...,(316) 265-0899,266 N Main St,The Bill Guy Technology,KS,"Wichita, ",67202
Financial Planning Consultants,(316) 267-3220,301 N Main St Suite 1700,AGH Wealth Advisors LLC,KS,"Wichita, ",67202
Investment Advisory Service,(316) 652-0101,2103 N Collective Ln,Baxter & Associates,KS,"Wichita, ",67206
Computer Network Design & Systems,(316) 267-7231,301 N Main St Ste. 1700,Allen Gibbs & Houlik LC,KS,"Wichita, ",67202
Investment Securities,(316) 265-5151,300 N Main St,Dreamcatcher Wealth Management,KS,"Wichita, ",67202
Computer & Equipment Dealers,(316) 612-1500,921 E Douglas Ave,Ribbit Computers,KS,"Wichita, ",67202
Computer & Equipment Renting & Leasing,(316) 209-0811,,Affordable Computer Repair,KS,"Wichita, ",67211
Computer & Technology Schools,(316) 267-4000,727 N Waco Ave Suite 180,Executrain,KS,"Wichita, ",67203
Mold Testing & Consulting,(316) 942-6323,2713 W Esthner Ave,American Metro Environmental,KS,"Wichita, ",67213
Stucco & Exterior Coating Contractors,(888) 272-9074,,RC Construction,KS,"Wichita, ",67119
Computer Network Design & Systems,(316) 267-5016,2007 S Hydraulic St,Communications Technology Associates Inc,KS,"Wichita, ",67211
Accountants-Certified Public,(316) 943-0286,3580 W 13th St N,Koch Siedhoff Hand & Dunn LLP,KS,"Wichita, ",67203
"Civil Engineers,Consulting Engineers",(316) 262-7271,315 S Ellis St,Baughman Company,KS,"Wichita, ",67211
Mold Remediation,(316) 944-2445,5909 W Harry St,Eagle Environmental,KS,"Wichita, ",67209
Water Damage Restoration,(316) 448-8726,1719 N Rock Rd Ste 103,Rhoden Restoration,KS,"Wichita, ",67206
Computer Network Design & Systems,(316) 264-6116,1609 E 2nd St N,C E M Systems Inc.,KS,"Wichita, ",67214
"Investments,Mutual Funds",(316) 500-7522,2929 N Rock Rd Ste 135,Edward Jones - Financial Advisor: Jonathan A Hoskins,KS,"Wichita, ",67226
"Life Insurance,Boat & Marine Insurance",(316) 462-9320,3900 E Harry #100,"Allstate Insurance Company - Anthony Newry, Premier Agency",KS,"Wichita, ",67218
Computers & Computer Equipment-Service...,(316) 305-7722,6235 W Kellogg Dr,Pandora Computer,KS,"Wichita, ",67209
Mold Remediation,(855) 867-0887,250 N Pennsylvania Ave,Givens Restoration Inc,KS,"Wichita, ",67214
Employee Benefit Consulting Services,(800) 794-6098,530 S Topeka St,The Arnold Group,KS,"Wichita, ",67202
Business Management,(316) 425-1922,800 E 1st St N # 230,Alexis Management Group Inc,KS,"Wichita, ",67202
"Investment Securities,Banks",(316) 383-1111,105 N Main St,Intrust,KS,"Wichita, ",67202
Financial Services,(316) 214-1677,300 W Douglas Ave Ste 120,Farm Bureau Financial Services - Matthew Steventon Agency,KS,"Wichita, ",67202
Swimming Pool Designing & Consulting,(316) 312-7004,2714 S Mead St,Autocover RX,KS,"Wichita, ",67216
"Consulting Engineers,General Contractors",(316) 651-0389,2102 E 21st St N,Transtecs Corporation,KS,"Wichita, ",67214
,,,,,,
Business Coaches & Consultants,(316) 612-8879,7108 E Douglas Ave,Randall C Duncan Consulting,KS,"Wichita, ",67206
Business Coaches & Consultants,(316) 681-4417,151 S Whittier St,D K Consulting,KS,"Wichita, ",67207
Business Coaches & Consultants,(316) 682-0500,7532 E 10th Cir N,West Consulting Group,KS,"Wichita, ",67206
Business Coaches & Consultants,(316) 682-0500,7829 E Rockhill St Ste 306,West Consulting Group,KS,"Wichita, ",67206
Business Coaches & Consultants,(316) 721-1421,7340 W 21st St N,Kirk Rundle Consulting,KS,"Wichita, ",67205
Business Coaches & Consultants,(316) 681-5102,8100 E 22nd St N,Wichita Consulting Co,KS,"Wichita, ",67226
Business Coaches & Consultants,(316) 634-1736,1136 N Linden Cir,Catalyst Consulting Partners,KS,"Wichita, ",67206
Nutritionists,(316) 630-8243,9342 E Central Ave,Marstall Nutritional Consulting,KS,"Wichita, ",67206
Business Coaches & Consultants,(316) 721-2443,9404 W Wyncroft St,Schmucker Training & Consulting,KS,"Wichita, ",67205
Business Coaches & Consultants,(316) 729-6867,889 N Maize Rd,Edwards Consulting,KS,"Wichita, ",67212
Business Coaches & Consultants,(316) 201-6944,10616 W Maple St,Betts Consulting,KS,"Wichita, ",67209
Business Coaches & Consultants,(316) 262-5565,815 N Waco Ave,Wingate Sales Solutions,KS,"Wichita, ",67203
Business Coaches & Consultants,(316) 681-1527,2014 W 13th St N,Marketing & Consultant Services,KS,"Wichita, ",67203
Management Consultants,(316) 945-3043,2208 W 13th St N,Central Medical Consultant,KS,"Wichita, ",67203
Marketing Consultants,(316) 944-7500,6730 W Kellogg Dr # 5,Market World,KS,"Wichita, ",67209
Computer Network Design & Systems,(316) 201-4240,920 N Tyler Rd Ste 300,Network Consultants,KS,"Wichita, ",67212
Management Consultants,(316) 729-0732,940 N Tyler Rd,Maximus,KS,"Wichita, ",67212
Marketing Consultants,(316) 733-1984,30 E Via Verde St,Moyers Sam,KS,"Wichita, ",67230
Internet Marketing & Advertising,(888) 425-1211,P O Box 75254,iLevelmarketing,KS,"Wichita, ",67275
Financing Consultants,(316) 264-3400,200 W Douglas Ave # 600,Ranson Financial Consultants,KS,"Wichita, ",67202
Accountants-Certified Public,(316) 265-5600,220 W Douglas Ave,C B I Z Wichita,KS,"Wichita, ",67202
Accountants-Certified Public,(316) 265-5600,220 W Douglas Ave,CBIZ Accounting Tax & Advisory,KS,"Wichita, ",67202
Business Coaches & Consultants,(316) 688-0101,2525 N Pershing St,Multi Business Service Corporation,KS,"Wichita, ",67220
Business Coaches & Consultants,(316) 295-2335,1303 N Sandplum Ln,Webb PHD Associates,KS,"Wichita, ",67212
"Accountants-Certified Public,Bookkeeping",(316) 685-0222,1605 N Waterfront Pkwy # 200,Kennedy & Coe,KS,"Wichita, ",67206
Computer System Designers & Consultants,(316) 269-1400,301 N Main St,Alexander Open Systems,KS,"Wichita, ",67202
Marketing Consultants,(316) 266-8800,727 N Waco Ave,I Bm Corp,KS,"Wichita, ",67203
Computer Network Design & Systems,(316) 613-4747,"245 N Waco St,  Suite 230",Concergent,KS,"Wichita, ",67202
Computer System Designers & Consultants,(316) 264-4766,245 N Waco St # 501,Choice Solutions,KS,"Wichita, ",67202
Computer System Designers & Consultants,(316) 262-2350,345 N Riverview St,Alexander Open Systems Inc,KS,"Wichita, ",67203
,,,,,,
Advertising Agencies,(316) 681-8628,PO Box 20049,TriAd Marketing Resources,KS,"Wichita, ",67208
Management Consultants,(316) 771-7114,125 N Market St,Weigland Omega Management Inc,KS,"Wichita, ",67202
Management Consultants,(316) 201-1062,300 W Douglas Ave,Dream Catchers Case Management,KS,"Wichita, ",67202
"Interactive Media,Advertising Agencies",(316) 613-9686,401 E. Douglas Ave Suite #302,Brite Chair Media Group,KS,"Wichita, ",67202
Computer Technical Assistance &...,(316) 262-2300,209 E William St,NetVision Technologies Inc,KS,"Wichita, ",67202
Web Site Design & Services,(316) 265-8311,800 E 1st St N,G W Investments,KS,"Wichita, ",67202
Marketing Programs & Services,(316) 262-2373,1029 N Wichita St,Mix Market,KS,"Wichita, ",67203
Internet Consultants,(316) 841-4238,216 N. Mosley St.,Ascential Digital Marketing,KS,"Wichita, ",67202
Management Consultants,(316) 262-2720,151 N Rock Island St # 1C,J Van Sickle,KS,"Wichita, ",67202
Marketing Consultants,(316) 262-6066,535 W Douglas Ave,Cohlmia Marketing,KS,"Wichita, ",67213
Computer System Designers & Consultants,(316) 267-1216,1042 N Waco Ave,Quest Research & Development,KS,"Wichita, ",67203
Computer System Designers & Consultants,(316) 264-5599,532 S Market St Ste 205,Ameriit,KS,"Wichita, ",67202
Publicity Service,(316) 425-8333,1300 E Central Ave,Integrated Media Group,KS,"Wichita, ",67214
Marketing Consultants,(316) 262-5030,322 S Mosley St,Quillen Elsea Inc,KS,"Wichita, ",67202
Advertising Agencies,(316) 262-4413,322 S Mosley St,Shout Marketing,KS,"Wichita, ",67202
Printing Services,(316) 264-1612,1325 E Douglas Ave,Total Printing Solutions,KS,"Wichita, ",67211
Computer Network Design & Systems,(316) 260-6605,1200 E Waterman St,Tech Triage,KS,"Wichita, ",67211
Marketing Consultants,(316) 267-5303,905 W 12th St N,Invision Productions,KS,"Wichita, ",67203
Marketing Programs & Services,(316) 267-1350,1722 E 2nd St N,Certified Folder Display Service Inc,KS,"Wichita, ",67214
Management Consultants,(316) 265-3737,932 E 13th St N,Bell Management,KS,"Wichita, ",67214
Electricians,(316) 858-1560,1607 N Wabash Ave,Atlas Electric,KS,"Wichita, ",67214
Computer Software & Services,(316) 219-8500,301 N. St Francis,Pixius Advantage Outsourcing,KS,"Wichita, ",67214
Electricians,(316) 721-5655,2514 W Douglas Ave,Prime Electric Inc,KS,"Wichita, ",67203
Management Consultants,(316) 260-1007,2604 W 9th St N # 202,Valentine & Associates,KS,"Wichita, ",67203
Management Consultants,(316) 263-2767,1122 E Osie St,Mirada Management,KS,"Wichita, ",67211
Computer System Designers & Consultants,(316) 260-4144,1522 E Harry St,Ugoweb,KS,"Wichita, ",67211
Marketing Consultants,(316) 768-0615,1754 N Madison Ave,Marketing One Group,KS,"Wichita, ",67214
Marketing Consultants,(316) 683-5303,3241 E Douglas Ave,Marketing Resources,KS,"Wichita, ",67218
Management Consultants,(316) 942-5444,3033 W 2nd St N # 104,South Central Kansas Assistive,KS,"Wichita, ",67203
Computer Rooms-Installation & Equipment,(316) 263-2484,1815 S Pattie St,Southern & Associates Inc,KS,"Wichita, ",67211
,,,,,,
Business & Personal Coaches,(316) 776-2317,,Erikson Jeanne PhD PCC,KS,"Wichita, ",67201
Financial Planners,(316) 636-5511,9342 E Central Ave Ste H,Ameriprise Financial,KS,"Wichita, ",67206
Business & Commercial Insurance,(316) 264-9317,1700 E Douglas Ave,M & M Insurance,KS,"Wichita, ",67214
Business & Personal Coaches,(316) 558-3706,4601 E Douglas Ave,Wallace Associates,KS,"Wichita, ",67218
Financial Planning Consultants,(316) 858-1501,1841 N Rock Road Ct Ste. 300,"Ameriprise Financial Services Inc., Deborah L. Gdisis, CRPC , AAMS , Financial Advisor",KS,"Wichita, ",67206
Water Damage Emergency Service,(316) 684-6700,3255 S Oliver St,Servpro,KS,"Wichita, ",67210
"Funeral Directors,Funeral Planning",(316) 524-1122,2850 S Seneca St,Affinity All Faiths Mortuary,KS,"Wichita, ",67217
Financial Services,(316) 264-2247,1901 W 13th St N,Edward Jones - Financial Advisor: Brendan C Lee,KS,"Wichita, ",67203
Financial Services,(316) 831-9818,1999 N Amidon Suite 208 Marina Point,Edward Jones - Financial Advisor: Leann E Smith,KS,"Wichita, ",67203
Financial Services,(316) 612-6903,4825 E Douglas Ave Suite 200,Edward Jones - Financial Advisor: Chris Hernandez,KS,"Wichita, ",67218
Financial Services,(316) 942-0466,4425 W Zoo Blvd Suite 2,Edward Jones - Financial Advisor: Ron Wilson,KS,"Wichita, ",67212
Financial Services,(316) 942-0466,4425 W Zoo Blvd Suite 2,Edward Jones - Financial Advisor: Christian Spurlock,KS,"Wichita, ",67212
Financial Services,(316) 687-9582,2120 N Woodlawn St Suite 410,Edward Jones - Financial Advisor: Mark A Richards,KS,"Wichita, ",67208
Financial Services,(316) 832-2878,7130 W Maple St Suite 160,Edward Jones - Financial Advisor: Donovan H Leighton,KS,"Wichita, ",67209
Financial Services,(316) 681-3311,8127 E Central Ave,Edward Jones - Financial Advisor: Randy Hale,KS,"Wichita, ",67206
Financial Services,(316) 721-2432,8000 W Central Ave Suite 300,Edward Jones - Financial Advisor: Frank D Meacham,KS,"Wichita, ",67212
Financial Services,(316) 722-5946,8526 W 13th St N Ste 100,Edward Jones - Financial Advisor: Tony J Thomas,KS,"Wichita, ",67212
Financial Services,(316) 636-2035,2929 N Rock Rd Ste 135,Edward Jones - Financial Advisor: Mark A Sloan,KS,"Wichita, ",67226
Financial Services,(316) 681-1338,3876 N Woodlawn Blvd Ste 200,Edward Jones - Financial Advisor: Daniel C Blaha,KS,"Wichita, ",67220
Financial Services,(316) 773-7882,1212 S Tyler Rd Suite 104,Edward Jones - Financial Advisor: Kelli L Barton,KS,"Wichita, ",67209
Financial Services,(316) 681-8001,9415 E Harry St Ste 104,Edward Jones - Financial Advisor: Jim Post,KS,"Wichita, ",67207
Financial Services,(316) 681-8001,9415 E Harry St Ste 104,Edward Jones - Financial Advisor: Harry E Post,KS,"Wichita, ",67207
Financial Services,(316) 630-8105,9747 E 21st St N Suite 127,Edward Jones - Financial Advisor: Dwayne E Green,KS,"Wichita, ",67206
Financial Services,(316) 729-0793,737 N Maize Rd Suite 500,Edward Jones - Financial Advisor: Steve Freeberg,KS,"Wichita, ",67212
Financial Services,(316) 773-5220,2110 N Maize Rd Suite 300,Edward Jones - Financial Advisor: Jeff Christensen,KS,"Wichita, ",67212
Financial Services,(316) 729-9844,12111 W Maple St Suite 113,Edward Jones - Financial Advisor: Matthew J Chase,KS,"Wichita, ",67235
Financial Services,(316) 733-7426,12627 E Central Ave Suite 306,Edward Jones - Financial Advisor: James F Nelson,KS,"Wichita, ",67206
Financial Services,(316) 631-1216,13011 E 21st St N Suite 105,Edward Jones - Financial Advisor: Christi Berry,KS,"Wichita, ",67230
Financial Services,(316) 773-9880,13303 W Maple St Ste 135,Edward Jones - Financial Advisor: Robert A Nicklaus,KS,"Wichita, ",67235
Financial Services,(316) 733-4653,550 N 159th St E 153,Edward Jones - Financial Advisor: Michael D Young,KS,"Wichita, ",67230
,(877) 206-8692,,,,,
,(316) 636-5511,9342 E Central Ave Ste H,,KS,"Wichita, ",67206
,(316) 267-3220,301 N Main St Suite 1700,,KS,"Wichita, ",67202
,(501) 753-0202,,,,,
,(316) 858-1501,1841 N Rock Road Ct Ste. 300,,KS,"Wichita, ",67206
,(316) 267-7231,301 N Main St Ste. 1700,,KS,"Wichita, ",67202
,(316) 652-0101,2103 N Collective Ln,,KS,"Wichita, ",67206
,(316) 265-5151,300 N Main St,,KS,"Wichita, ",67202
,,,,,,
,(316) 500-7522,2929 N Rock Rd Ste 135,,KS,"Wichita, ",67226
Management Consultants,(316) 440-3309,2016 W Harry St,Best Value Services,KS,"Wichita, ",67213
Marketing Programs & Services,(316) 832-9676,1999 N Amidon Ave,Vector Marketing,KS,"Wichita, ",67203
Computer Network Design & Systems,(316) 684-8471,3443 Orchard St,Alexander John & Tami,KS,"Wichita, ",67208
Direct Mail Advertising,(316) 218-0322,3714 E 3rd St N,Valpak,KS,"Wichita, ",67208
Management Consultants,(316) 262-2900,2102 E 21st St N,PBP Management Group,KS,"Wichita, ",67214
Management Consultants,(316) 618-8315,3202 W 13th St N,HHM Facility Management,KS,"Wichita, ",67203
Management Consultants,(316) 261-8099,1443 S George Washington Dr,Ontrust Land Management Services,KS,"Wichita, ",67211
"Graphic Designers,Web Site Hosting",(702) 448-3135,1102 S. Yale Street,Cre8ive Marketing Services,KS,"Wichita, ",67218
Management Consultants,(316) 440-7774,400 S West St,Dominon Management Services,KS,"Wichita, ",67213
Computer System Designers & Consultants,(316) 262-3965,3333 W Harry St,Essential IT Services Inc,KS,"Wichita, ",67213
Management Consultants,(316) 686-8981,4817 E Douglas Ave # 300,Gessler Corporate Office,KS,"Wichita, ",67218
Management Consultants,(316) 729-9530,4425 W Zoo Blvd Ste 1,Omni Management Services Inc,KS,"Wichita, ",67212
Marketing Programs & Services,(316) 943-0031,W 21st St N,River City Enique,KS,"Wichita, ",67203
Management Consultants,(316) 210-1411,1226 N Anna St,Joel Kaufman,KS,"Wichita, ",67212
Management Consultants,(316) 854-8584,625 S Anna St,United Management Associates,KS,"Wichita, ",67209
Management Consultants,(316) 945-7662,1921 S West St,Quik Trip Facility Support,KS,"Wichita, ",67213
Management Consultants,(316) 681-3643,157 S Edgemoor St,Industrial Design,KS,"Wichita, ",67218
Computer Network Design & Systems,(316) 554-0770,2945 S Kansas St,Connectivity Services Inc,KS,"Wichita, ",67216
Marketing Consultants,(316) 691-1059,5900 E Central Ave,Creative Marketing Consultants Inc,KS,"Wichita, ",67208
Internet Marketing & Advertising,(316) 633-4288,5512 W Central Ave,The Internet Idea Girl Inc.,KS,"Wichita, ",67212
Direct Mail Advertising,(316) 685-7766,5920 E Central Ave,Mail Marketing Plus Inc,KS,"Wichita, ",67208
Management Consultants,(316) 618-8315,1836 S Glendale St,H H M Facility Management,KS,"Wichita, ",67218
Computer Software Publishers &...,(316) 440-7995,3732 N Ohio St,BTS Inc,KS,"Wichita, ",67219
Management Consultants,(316) 652-0777,6211 Peach Tree Ln,Fuller Brush Independent Distr,KS,"Wichita, ",67218
Management Consultants,(316) 425-6046,115 E 37th St N,Sunshine Energy,KS,"Wichita, ",67219
Management Consultants,(316) 942-5100,679 N Eisenhower St,Cashpoint Car Title Loans,KS,"Wichita, ",67212
Marketing Consultants,(316) 683-7001,400 N Woodlawn St Ste 25,High Sierra Crude Oil Marketing,KS,"Wichita, ",67208
Management Consultants,(316) 684-5756,555 N Woodlawn St Ste 212,Construction Management Services,KS,"Wichita, ",67208
Advertising Agencies,(316) 618-4321,401 N Hampton Rd,Gaston Marketing Inc,KS,"Wichita, ",67206
Management Consultants,(316) 682-4277,6710 E 10th St N,Burghart & Associates,KS,"Wichita, ",67206
,,,,,,
Management Consultants,(316) 945-2069,6505 W Warren Cir,It Networks Plus,KS,"Wichita, ",67212
Web Site Design & Services,(316) 630-9933,1938 N Woodlawn St,Bold Software,KS,"Wichita, ",67208
Marketing Programs & Services,(316) 686-0407,2120 N Woodlawn St,BGM Sports Marketing,KS,"Wichita, ",67208
Marketing Consultants,(316) 838-9800,6500 E 21st St N # 21,Marketing & Business Admin,KS,"Wichita, ",67206
Computer Network Design & Systems,(316) 689-4468,111 S Whittier St,Buchanan Technologies,KS,"Wichita, ",67207
Marketing Consultants,(316) 652-9861,104 N Post Oak Rd,Creative Market Consultants,KS,"Wichita, ",67206
Marketing Programs & Services,(316) 440-8811,240 N Rock Rd,Monterey Marketing,KS,"Wichita, ",67206
Management Consultants,(316) 832-9800,812 W 46th St N,Advance Case Mgmt Svc,KS,"Wichita, ",67204
Computer System Designers & Consultants,(316) 721-2540,982 N Country Acres Ave,Cmp Computer Service Inc,KS,"Wichita, ",67212
Computer System Designers & Consultants,(316) 729-9315,520 S Holland St,Softech Micro Systems,KS,"Wichita, ",67209
Management Consultants,(316) 425-1889,7611 W Westlawn St,Green Management,KS,"Wichita, ",67212
Management Consultants,(316) 722-8800,7570 W 21st St N,Strategic Impact,KS,"Wichita, ",67205
Marketing Consultants,(316) 942-1111,7570 W 21st St N # 1038A,Prime Concepts Group Inc,KS,"Wichita, ",67205
Marketing Programs & Services,(316) 644-6856,2543 N Longfellow St,Rytan & Assoc,KS,"Wichita, ",67226
Computer System Designers & Consultants,(316) 204-4377,2250 N Rock Rd Ste 118,Wild Erp Inc,KS,"Wichita, ",67226
Management Consultants,(316) 946-4071,1935 S Air Cargo Rd,UPS Supply Chain Solutions,KS,"Wichita, ",67209
Marketing Consultants,(316) 440-2959,8100 E 22nd St N Ste 600,Cobble Sales & Marketing,KS,"Wichita, ",67226
Marketing Programs & Services,(316) 440-0749,8100 E 22nd St N # 1500,Findclientsonline.Com,KS,"Wichita, ",67226
Advertising Agencies,(316) 612-0300,8415 E 21st St N # 200,The Strategy Group,KS,"Wichita, ",67206
Management Consultants,(316) 722-6937,1351 S Reca Ct,Arrow Management Services Inc,KS,"Wichita, ",67209
Management Consultants,(316) 351-7650,900 N Tyler Rd,HOA Management Services,KS,"Wichita, ",67212
"Marketing Consultants,Sales Training",(316) 993-7241,511 S Robin Rd,Empower Network,KS,"Wichita, ",67209
Computer Software & Services,(316) 262-3965,940 N Tyler Rd Ste 107,Essential IT Services Inc,KS,"Wichita, ",67212
Marketing Consultants,(316) 220-8020,7330 W 33rd St N # 106,Shaw Group Inc,KS,"Wichita, ",67205
Computer System Designers & Consultants,(316) 636-4266,9370 E Central Ave,Coalition Computing Corp,KS,"Wichita, ",67206
Computer System Designers & Consultants,(316) 775-7070,9017 E Bluestem St,Remote Computing Systems,KS,"Wichita, ",67207
Computers & Computer Equipment-Service...,(316) 247-9817,2121 N Tyler Rd,PC Repair,KS,"Wichita, ",67212
Advertising Agencies,(316) 721-9200,116 N. Westfield,"Chart Marketing, Inc.",KS,"Wichita, ",67212
Management Consultants,(316) 719-2720,3450 N Rock Rd,Seismic Land Management Inc,KS,"Wichita, ",67226
Management Consultants,(316) 854-3532,9415 E Harry Suite 603,IniTech Corp,KS,"Wichita, ",67207
,,,,,,
Computer System Designers & Consultants,(316) 425-2506,2612 S Capri Ln,Childers It Management,KS,"Wichita, ",67210
Management Consultants,(316) 210-1411,1668 N Murray St,Joel Kaufman,KS,"Wichita, ",67212
Computer Network Design & Systems,(316) 636-5655,8201 E 34th Cir N,ISG Technology Inc,KS,"Wichita, ",67226
Management Consultants,(316) 524-4446,4510 E 47th St S,McFarland Research & Development,KS,"Wichita, ",67210
Management Consultants,(316) 729-0095,3904 N Tyler Rd,Franks Wholesale Fireworks,KS,"Wichita, ",67205
Management Consultants,(316) 634-1243,8863 E 34th St N,Emerson Process Management,KS,"Wichita, ",67226
Computer System Designers & Consultants,(316) 315-0253,1842 N Cranbrook St,Janzen Technology Management,KS,"Wichita, ",67206
Advertising Agencies,(316) 636-2552,7715 E Champions Ct,Think-Tank,KS,"Wichita, ",67226
"Funeral Directors,Crematories",(316) 773-4553,10515 W Maple St,Downing & Lahey Mortuary,KS,"Wichita, ",67209
Marketing Programs & Services,(316) 440-4702,9133 E 37th St N,Four Star Marketing Group,KS,"Wichita, ",67226
Advertising Agencies,(316) 773-7400,1632 S Maize Rd,Mathur Media Group Inc,KS,"Wichita, ",67209
Management Consultants,(316) 304-9070,10501 W Ringer St,Phillips Property Management,KS,"Wichita, ",67209
Used Computers,(316) 691-8381,N Woodlawn St,Computer Depot,KS,"Wichita, ",67220
Computer System Designers & Consultants,(316) 210-3774,11320 W Texas St,Mc Clellan Solutions Inc,KS,"Wichita, ",67209
Marketing Consultants,(316) 681-0006,838 N Bedford Ct,New Home Marketing,KS,"Wichita, ",67206
Marketing Consultants,(316) 260-5660,11323 W Kellogg St,Big Corner Creative,KS,"Wichita, ",67209
Computer Network Design & Systems,(316) 722-8766,11715 W Sheriac St,Mid Continent Technology Group,KS,"Wichita, ",67209
Advertising Agencies,(316) 264-2545,12828 E 13th St N Ste 11,Momentum Marketing and Design,KS,"Wichita, ",67230
Computer Technical Assistance &...,(316) 733-0841,13526 E Buckskin St,Integrated Service & Supplies,KS,"Wichita, ",67230
Management Consultants,(316) 733-8600,755 S Edgewater Rd,Sun Aviations Inc,KS,"Wichita, ",67230
Computer System Designers & Consultants,(316) 640-3872,15301 E Stratford St,Innovative Technologies,KS,"Wichita, ",67230
Computer Technical Assistance &...,(316) 733-9217,15301 E Stratford St,Ennstech,KS,"Wichita, ",67230
"Wholesale Grocers,Grocery Stores",(316) 733-0248,550 N 159th St E # 301,Acosta,KS,"Wichita, ",67230
Management Consultants,(316) 315-5150,550 N 159th St E,Diversicare Management Services-Kansas Regional,KS,"Wichita, ",67230
Advertising Agencies,(316) 265-1170,14700 E 45th St N,VanHorn Promotion& Marketing,KS,"Wichita, ",67228
Marketing Consultants,(316) 265-0882,323 N Andover Rd,Midcon Marketing,KS,"Wichita, ",67201
Advertising Agencies,(316) 832-4012,2815 E. 37th street North,Max Relevance,KS,"Wichita, ",67219
"Estate Planning Attorneys,Attorneys",(316) 264-6192,320 N Main St,Hampton Consulting Corp,KS,"Wichita, ",67202
Stock & Bond Brokers,(316) 264-6321,301 N Main St # 800,Bush Patti,KS,"Wichita, ",67202
Investment Advisory Service,(316) 265-5151,300 N Main St,Concorde Investment Service,KS,"Wichita, ",67202
,,,,,,
Business Coaches & Consultants,(316) 263-5761,301 N Main St,AXA Advisors,KS,"Wichita, ",67202
"Investment Securities,Investments",(316) 264-6321,301 N Main St,Stifel Nicolaus & Co,KS,"Wichita, ",67202
Financial Planners,(316) 440-4476,310 W Central Ave,Wells Fargo Advisors,KS,"Wichita, ",67202
Financial Planning Consultants,(316) 440-2550,310 W Central Ave,Family Wealth Management,KS,"Wichita, ",67202
Employee Benefit Consulting Services,(316) 262-3590,609 N Broadway St,Advantage Benefits,KS,"Wichita, ",67214
Bookkeeping,(316) 265-1177,626 N Broadway St,Renollet Associates,KS,"Wichita, ",67214
"Bookkeeping,Financing Consultants",(316) 265-1177,626 N Broadway St,Brickstone Capital,KS,"Wichita, ",67214
Financial Planning Consultants,(316) 267-3138,445 N Waco St,Walker Group Inc,KS,"Wichita, ",67202
Financial Planning Consultants,(316) 267-3138,445 N Waco St # D,Walker Scott,KS,"Wichita, ",67202
"Civil Engineers,Consulting Engineers",(316) 263-6121,225 N Market St,Brinckerhoff Parsons,KS,"Wichita, ",67202
Consulting Engineers,(316) 262-1281,355 N Waco St,Austin Miller PA,KS,"Wichita, ",67202
Investment Advisory Service,(316) 264-7507,212 N Market St,Coordinated Financial Management,KS,"Wichita, ",67202
Investment Advisory Service,(316) 264-7507,212 N Market St,"Hastings, Michael",KS,"Wichita, ",67202
Consulting Engineers,(316) 771-7147,212 N Market St # 414,"Korphage, M",KS,"Wichita, ",67202
Investments,(316) 265-6900,212 N Market St,Securities America,KS,"Wichita, ",67202
Consulting Engineers,(316) 239-7999,335 N Waco St,InSite Group Inc,KS,"Wichita, ",67202
Consulting Engineers,(316) 613-2205,329 N Waco St,Southern Synergy,KS,"Wichita, ",67202
Financial Planning Consultants,(316) 267-2831,201 N Main St,A G Edwards & Sons Inc,KS,"Wichita, ",67202
Consulting Engineers,(316) 771-5011,155 N Market St # 1000,"Dehaven, Joel",KS,"Wichita, ",67202
Consulting Engineers,(316) 771-5011,155 N Market St,Taylor Rymar Corp,KS,"Wichita, ",67202
Taxes-Consultants & Representatives,(316) 265-2823,155 N Market St # 900,Tax Adjustment Specialist,KS,"Wichita, ",67202
"Financial Services,Insurance",(316) 263-7305,727 N Waco Ave,Primerica,KS,"Wichita, ",67203
Investment Management,(316) 260-7040,727 N Waco Ave,Adroit Wealth Management,KS,"Wichita, ",67203
Financial Planning Consultants,(316) 263-6912,727 N Waco Ave,Stalker Financial Group,KS,"Wichita, ",67203
Investments,(316) 943-3159,727 N Waco Ave,Wells Fargo Advisors,KS,"Wichita, ",67203
Financial Planning Consultants,(316) 263-7305,727 N Waco Ave,Smith Teresa,KS,"Wichita, ",67203
Business Coaches & Consultants,(316) 262-2465,400 E 1st St N,A-One Business Machines,KS,"Wichita, ",67202
Investment Securities,(316) 265-9411,245 N Waco St,Central States Capital Markets,KS,"Wichita, ",67202
Business Coaches & Consultants,(316) 264-3308,245 N Waco St,H R N Performance Solutions,KS,"Wichita, ",67202
Investment Securities,(316) 265-9411,245 N Waco St # 525,Horton Michael,KS,"Wichita, ",67202
,,,,,,
"Pension & Profit Sharing Plans,Insurance",(316) 616-6160,345 N Riverview St,Medova Healthcare Financial Group,KS,"Wichita, ",67203
Financial Planning Consultants,(316) 201-4595,345 N Riverview St,Harley Financial Service,KS,"Wichita, ",67203
Financial Planning Consultants,(316) 262-2929,216 N Waco St,Strategic Financial Concepts Inc,KS,"Wichita, ",67202
Business Coaches & Consultants,(316) 636-9079,PO Box 21391,Corporate Resource Group,KS,"Wichita, ",67208
Swimming Pool Repair & Service,(316) 712-8159,Servicing Your Area,Schiffner & Co,KS,"Wichita, ",67209
Financial Planning Consultants,(316) 262-5084,820 N Main St # 101,Wedel Karen,KS,"Wichita, ",67203
Financial Planning Consultants,(316) 265-8400,820 N Main St # 101,Ad Astra Financial Group,KS,"Wichita, ",67203
Business Coaches & Consultants,(316) 265-5600,820 N Main St,Mayer H P C,KS,"Wichita, ",67203
Business Coaches & Consultants,(316) 613-7570,125 N Market St,Legacy Capital Strategies,KS,"Wichita, ",67202
Eggs,(316) 383-1020,125 N Market St,Nest Egg Consulting Inc,KS,"Wichita, ",67202
Trust Companies,(316) 264-6010,125 N Market St # 1400,The Trust Company of Kansas,KS,"Wichita, ",67202
Investment Securities,(316) 264-6010,125 N Market St Ste 1400,Tck Financial Advisors,KS,"Wichita, ",67202
Computer Online Services,(316) 383-1064,105 N Main St # 1.1,Nest Egg Consulting Inc,KS,"Wichita, ",67202
Environmental & Ecological Consultants,(316) 262-5698,214 N Saint Francis St,Allied Environmental Consultants Inc,KS,"Wichita, ",67202
Financial Planning Consultants,(316) 261-4445,100 N Broadway St,Merrill Lynch Wealth Management,KS,"Wichita, ",67202
Financial Planning Consultants,(316) 440-5525,200 W Douglas Ave,Century Securities Associates,KS,"Wichita, ",67202
Accountants-Certified Public,(316) 263-8030,200 W Douglas Ave # 1000,Larson & Company PA,KS,"Wichita, ",67202
Financial Planning Consultants,(316) 771-7444,200 W Douglas Ave,Triad Financial Services,KS,"Wichita, ",67202
Financial Planning Consultants,(316) 261-8717,105 S Broadway St,Hoover Financial Group,KS,"Wichita, ",67202
Business Coaches & Consultants,(316) 265-2249,105 S Broadway St,Business Consultants Inc,KS,"Wichita, ",67202
Business Coaches & Consultants,(316) 771-7111,105 S Broadway St,Small Business Solutions,KS,"Wichita, ",67202
Investment Advisory Service,(316) 265-8400,250 W Douglas Ave,"Penner-Wedel, Karen",KS,"Wichita, ",67202
Financial Planning Consultants,(316) 262-0099,250 W Douglas Ave,Thurman Martin,KS,"Wichita, ",67202
Consulting Engineers,(316) 263-0122,220 W Douglas Ave,Assystems,KS,"Wichita, ",67202
Business Coaches & Consultants,(316) 269-6273,220 W Douglas Ave,SCORE-Ace,KS,"Wichita, ",67202
Financial Planning Consultants,(316) 265-1212,250 W Douglas Ave,Wedel Rick,KS,"Wichita, ",67202
Financial Planning Consultants,(316) 265-1900,300 W Douglas Ave,Financial Benefits Inc,KS,"Wichita, ",67202
Financial Planning Consultants,(316) 264-5444,300 W Douglas Ave Ste 306,Yager C.F.P. Stephen,KS,"Wichita, ",67202
Business Coaches & Consultants,(316) 265-7600,300 W Douglas Ave,Brown Dengler Good & Rider,KS,"Wichita, ",67202
Financial Planning Consultants,(316) 425-7526,300 W Douglas Ave,Langhofer Financial Group,KS,"Wichita, ",67202
,,,,,,
Investment Advisory Service,(316) 303-9700,300 W Douglas Ave,Kice Barbara,KS,"Wichita, ",67202
Financial Planning Consultants,(316) 264-5444,300 W Douglas Ave # 306,Sage Point Financial,KS,"Wichita, ",67202
Financial Planning Consultants,(316) 264-5444,300 W Douglas Ave,Kirby Yager,KS,"Wichita, ",67202
Business Coaches & Consultants,(316) 260-1480,906 N Main St,Flint Hills Advisory,KS,"Wichita, ",67203
Financial Planning Consultants,(316) 260-3692,221 S Broadway St,Jeda Mase Support Service Insurance,KS,"Wichita, ",67202
Investments,(316) 265-6900,221 S Broadway St # 606,Securities America Inc,KS,"Wichita, ",67202
Consulting Engineers,(316) 941-5533,800 E 1st St N,Basis Consulting Engineers,KS,"Wichita, ",67202
Consulting Engineers,(316) 941-3921,800 E 1st St N,Burns & Mcdonnell Wichita,KS,"Wichita, ",67202
Financial Services,(316) 773-4481,800 E 1st St N,Johnson Marti Chfc,KS,"Wichita, ",67202
Consulting Engineers,(316) 941-5533,800 E 1st St N # 401,Mueller Scott PE,KS,"Wichita, ",67202
Business Coaches & Consultants,(316) 269-6273,100 E English St,Service Corps-Retired Exctvs,KS,"Wichita, ",67202
Business Coaches & Consultants,(316) 263-8138,333 E English St,Exploration Inc,KS,"Wichita, ",67202
Business Coaches & Consultants,(316) 681-0444,121 N Mead St,Legasus Group,KS,"Wichita, ",67202
Business Brokers,(316) 262-8722,111 N Mosley St,VR Business Brokers,KS,"Wichita, ",67202
Investment Securities,(316) 263-8444,1050 E 1st St N,Perkins Smart & Boyd Inc,KS,"Wichita, ",67214
Environmental & Ecological Consultants,(316) 262-5698,1109 N Topeka St,Allied Environmental Cnsltnts,KS,"Wichita, ",67214
Business Coaches & Consultants,(316) 773-3535,505 S Broadway St,Riggin & Co,KS,"Wichita, ",67202
Investment Management,(316) 263-1219,505 S Broadway St,Western Investment,KS,"Wichita, ",67202
Financial Planning Consultants,(316) 613-7570,515 S Main St # 111,V Wealth Management,KS,"Wichita, ",67202
Consulting Engineers,(316) 239-7999,535 S Emporia St Ste 105,Insite Group Inc,KS,"Wichita, ",67202
Consulting Engineers,(316) 239-7999,535 S Emporia St # 105,Innovative Design,KS,"Wichita, ",67202
Financial Planning Consultants,(316) 263-8700,322 S Mosley St,Eastridge Mundorf Inc,KS,"Wichita, ",67202
Financial Planning Consultants,(316) 686-7951,1238 E Douglas Ave,American Auto Financial Corp,KS,"Wichita, ",67214
Structural Engineers,(316) 263-7591,230 S Laura St Ste 206,Dudley Williams & Associates,KS,"Wichita, ",67211
"Accountants-Certified Public,Bookkeeping",(316) 264-7203,1401 E Douglas Ave,Dunning James E,KS,"Wichita, ",67211
Bookkeeping,(316) 265-0041,439 N McLean Blvd,Savage & Browning,KS,"Wichita, ",67203
Consulting Engineers,(316) 264-3001,233 S Lulu St,Kennedy Pfeiffer,KS,"Wichita, ",67211
Business Coaches & Consultants,(316) 978-6385,735 N Litchfield Ave,"Mckellar, Nancy A",KS,"Wichita, ",67203
Investments,(316) 263-2400,357 S Pattie St,Behring Investments,KS,"Wichita, ",67211
Financial Planning Consultants,(316) 201-1840,229 S Ellis St,Downtown Investments,KS,"Wichita, ",67211
,,,,,,
"Financial Planning Consultants,Insurance",(316) 264-9317,1700 E Douglas Ave,M & M Finance Co Inc,KS,"Wichita, ",67214
Investment Advisory Service,(316) 263-6183,420 S Seneca St,"Mar, Fran",KS,"Wichita, ",67213
Business Coaches & Consultants,(316) 292-2792,1401 N Mosley St,Cargill Inc,KS,"Wichita, ",67214
Investment Management,(316) 269-1173,111 S Hydraulic St,Douglas Investment,KS,"Wichita, ",67211
"Investment Advisory Service,Investments",(316) 269-1173,111 S Hydraulic St,Douglas Investment,KS,"Wichita, ",67211
Investments,(316) 691-5800,115 S Hydraulic St,Bushwood Investments,KS,"Wichita, ",67211
"Financing Consultants,Bookkeeping",(316) 522-2880,1602 E Waterman St,Christensen Financial Services,KS,"Wichita, ",67211
Nutritionists,(316) 558-3396,415 S Greenwood St,L & H Consulting,KS,"Wichita, ",67211
Mechanical Engineers,(316) 264-3588,349 S Hydraulic St,Integrated Consulting Engineers,KS,"Wichita, ",67211
Asbestos Detection & Removal Services,(316) 269-1549,1114 S Santa Fe St,Remediation Contractors Inc,KS,"Wichita, ",67211
"Financial Services,Insurance",(316) 685-7557,1902 W Douglas Ave,Primerica,KS,"Wichita, ",67203
Trucking-Motor Freight,(316) 264-9630,1809 N Broadway St Ste F,Skill Transportation Consulting Inc,KS,"Wichita, ",67214
Financial Planning Consultants,(316) 558-8636,1872 E 14th St N,Sears D,KS,"Wichita, ",67214
Financial Planning Consultants,(316) 558-8636,1872 E 14th St N,Did & Associates,KS,"Wichita, ",67214
Business Coaches & Consultants,(316) 946-1040,2014 W 13th St N,Associated Tax & Business,KS,"Wichita, ",67203
"Bookkeeping,Accounting Services",(316) 946-1040,2014 W 13th St N,Boyd Accounting Inc,KS,"Wichita, ",67203
Business Coaches & Consultants,(316) 681-1527,2014 W 13th St N,Nebb Institute,KS,"Wichita, ",67203
Taxes-Consultants & Representatives,(316) 267-6359,2150 N Market St,Confidential Tax Service,KS,"Wichita, ",67214
Mechanical Engineers,(316) 264-3588,2604 W 9th St N,Integrated Consulting Engineers,KS,"Wichita, ",67203
Financial Planning Consultants,(316) 351-5639,551 N Hillside St,Insight Financial Service,KS,"Wichita, ",67214
Business Coaches & Consultants,(316) 425-2507,212 N Hillside St # A,Ruth Kathleen J,KS,"Wichita, ",67214
Business Coaches & Consultants,(316) 927-2026,251 S Hillside St,Trans World Business Advisors,KS,"Wichita, ",67211
Financial Planning Consultants,(316) 858-9145,1900 N Amidon Ave,Van Harrold & Associates,KS,"Wichita, ",67203
Business Coaches & Consultants,(316) 425-2507,1919 N Amidon Ave Ste 108,Ruth Kathleen J,KS,"Wichita, ",67203
"Consulting Engineers,General Contractors",(316) 831-9696,1919 N Amidon Ave,LP Technologies,KS,"Wichita, ",67203
Financial Planning Consultants,(316) 665-7100,1999 N Amidon Ave,Alonzo Financial,KS,"Wichita, ",67203
Financial Planning Consultants,(316) 831-9818,1999 N Amidon Ave,Edward Jones,KS,"Wichita, ",67203
Financial Planning Consultants,(316) 685-0792,247 S Clifton Ave,Royal Order Of Jesters,KS,"Wichita, ",67218
"Financial Planning Consultants,Insurance",(316) 945-7283,3165 W Maple St,Lifetime Wealth Group,KS,"Wichita, ",67213
Consulting Engineers,(316) 651-0389,2102 E 21st St N,Opara Godwin PE,KS,"Wichita, ",67214
,,,,,,
Environmental & Ecological Consultants,(316) 269-1012,1630 S Saint Clair St,Isi Environmental Svc,KS,"Wichita, ",67213
Business & Trade Organizations,(316) 683-6238,643 S Rutan St,Orion Business Consulting Publications,KS,"Wichita, ",67218
Financial Services,(316) 686-2428,441 N Roosevelt St,Wetta & Associates,KS,"Wichita, ",67208
Consulting Engineers,(316) 686-8118,550 N Fountain St,Ko G W,KS,"Wichita, ",67208
Consulting Engineers,(316) 686-8118,550 N Fountain St,Federal Consultants Corp,KS,"Wichita, ",67208
Business Coaches & Consultants,(316) 425-3445,3023 E Osie St,Excel Billing Services,KS,"Wichita, ",67211
Accountants-Certified Public,(316) 943-0286,3580 W 13th St N,"Koch, Clarence E, CPA",KS,"Wichita, ",67203
Public Relations Counselors,(316) 651-5565,4222 E English St,King Merj Public Relations,KS,"Wichita, ",67218
Credit & Debt Counseling,(316) 942-2610,341 N West St,AAA Debt Hotline,KS,"Wichita, ",67203
Financial Planning Consultants,(316) 777-0903,3000 W Kellogg Dr,Deborah John & Associates,KS,"Wichita, ",67213
Financing Consultants,(316) 425-5588,114 N West St,Lead Financial Services,KS,"Wichita, ",67203
Consulting Engineers,(316) 943-8715,1745 N Joann St,Conner Creative Productions,KS,"Wichita, ",67203
Financial Planning Consultants,(316) 684-8299,1619 S Rutan St,Ethridge Financial Services,KS,"Wichita, ",67218
Financial Planning Consultants,(316) 945-0342,1355 N West St,Edward Jones,KS,"Wichita, ",67203
Business Coaches & Consultants,(316) 440-5140,2541 S Ida St,Mjs Management,KS,"Wichita, ",67216
Training Consultants,(316) 687-2530,120 N Oliver Ave,Mosey Outdoor Adventure,KS,"Wichita, ",67208
Financial Planning Consultants,(316) 688-8390,118 S Oliver St,Marsh A Hill Financial Solutions,KS,"Wichita, ",67218
Financial Planning Consultants,(316) 688-8390,118 S Oliver St,Hill Marsha A,KS,"Wichita, ",67218
"Insurance,Financial Planning Consultants",(316) 686-4946,201 S Oliver St,Norby Galen O,KS,"Wichita, ",67218
Telephone Companies-Long Distance...,(316) 685-8100,2405 E Pawnee St Ste 10,Best Phone,KS,"Wichita, ",67211
Financial Planning Consultants,(316) 942-8220,W 21st St N,Credit Repair,KS,"Wichita, ",67203
Financial Planning Consultants,(316) 942-8220,W 21st St N,Debt Relief,KS,"Wichita, ",67203
"Financial Planning Consultants,Insurance",(316) 687-9907,1018 N Battin St,Kemp Financial Service,KS,"Wichita, ",67208
Financial Planning Consultants,(316) 687-9907,1018 N Battin St,Kemp Financial Service,KS,"Wichita, ",67208
"Investment Advisory Service,Investments",(316) 944-7677,4600 W Kellogg Dr,RYB Investments,KS,"Wichita, ",67209
Tax Return Preparation,(316) 691-8400,902 S Oliver St,Tax Express of Wichita,KS,"Wichita, ",67218
Investments,(316) 425-3215,5101 E Kellogg Dr,Kellogg Investments,KS,"Wichita, ",67218
Financial Planning Consultants,(425) 246-1261,4800 W Maple St Ste 116,Michael Lowry,KS,"Wichita, ",67209
"Tax Return Preparation,Bookkeeping",(316) 838-1586,1820 W 30th St N,Affordable Tax Service,KS,"Wichita, ",67204
Business Coaches & Consultants,(316) 425-3516,3002 W Pawnee St,Premier Processing,KS,"Wichita, ",67213
,,,,,,
Fund Raising Service,(316) 687-6430,5051 E Lincoln St Apt 9B,Harris Capital Funds,KS,"Wichita, ",67218
"Financial Services,Financing Services",(316) 529-1417,3048 S Broadway St,Air Capital Finance Inc,KS,"Wichita, ",67216
Financial Planning Consultants,(316) 858-2274,4850 E Harry St,Tiger Financial Management,KS,"Wichita, ",67218
Document Destruction Service,(316) 883-4329,2557 S Custer Ave,Cintas Paper Shredding,KS,"Wichita, ",67217
Business Coaches & Consultants,(316) 688-5693,2000 N Battin St,Proactive Associates Inc,KS,"Wichita, ",67208
Financial Planning Consultants,(316) 522-6620,1104 W 31st St S,Edward Jones - Financial Advisor: FRANK D MEACHAM,KS,"Wichita, ",67217
Consulting Engineers,(316) 687-3993,5920 E Central Ave,Jabara Engineering Consultants,KS,"Wichita, ",67208
"Insurance,Financial Planning Consultants",(316) 685-9296,5940 E Central Ave # 101,O'Mara Shawn,KS,"Wichita, ",67208
Stock & Bond Brokers,(316) 652-0777,6211 Peach Tree Ln,FSC Securities Corp,KS,"Wichita, ",67218
Investment Advisory Service,(316) 262-5015,400 N Woodlawn St # 16A,Jones Jerry,KS,"Wichita, ",67208
Business Coaches & Consultants,(316) 681-8100,555 N Woodlawn St,Tholen Enterprises,KS,"Wichita, ",67208
Consulting Engineers,(316) 440-6544,6108 W Central Ave,Notebook Engineers,KS,"Wichita, ",67212
Investment Advisory Service,(316) 682-7071,5640 E 21st St N,Investment Resources,KS,"Wichita, ",67208
Financial Planners,(316) 946-5935,3610 W 29th St S,First Group America,KS,"Wichita, ",67217
Structural Engineers,(316) 683-6644,6572 E Central Ave # 201,Hartwell Structural Engrng,KS,"Wichita, ",67206
Aeronautical Engineers,(316) 688-5668,6572 E Central Ave # 203,McGettrick Structural Engineer,KS,"Wichita, ",67206
Investments,(316) 260-9770,2313 N Zoo Park Cir,4TK Investments,KS,"Wichita, ",67205
Investments,(316) 425-0305,4912 E 29th St N,Sweetman Investments,KS,"Wichita, ",67220
Colleges & Universities,(316) 978-3193,5015 E 29th St N,Small Business Development Ctr,KS,"Wichita, ",67220
"Investment Securities,Insurance",(316) 943-9333,5846 W 21st St N # 300,Jernigan Financial Group,KS,"Wichita, ",67205
Investments,(316) 943-9333,5846 W 21st St N # 300,Securities America Inc,KS,"Wichita, ",67205
Financial Planning Consultants,(316) 722-8139,2024 N Woodlawn St,Financial Management Resources,KS,"Wichita, ",67208
Consulting Engineers,(316) 262-0171,1815 S Eisenhower St,Terracon Consultants Inc,KS,"Wichita, ",67209
Financial Planning Consultants,(316) 771-0000,6300 E 21st St N,Tiger Financial Management,KS,"Wichita, ",67208
Business Coaches & Consultants,(316) 634-2328,570 N Stratford Ln,Link Resource Group Inc,KS,"Wichita, ",67206
Financial Planning Consultants,(316) 687-9582,2120 N Woodlawn St,"Awad, Mark A",KS,"Wichita, ",67208
"Investment Securities,Financial Services",(316) 943-7307,6700 W Central Ave,First Independent Financial Services,KS,"Wichita, ",67212
Business Coaches & Consultants,(316) 683-1324,1480 N Stratford Ln,Family Legacy Consultant Group,KS,"Wichita, ",67206
Business Coaches & Consultants,(316) 689-4272,151 S Whittier St,Aero Business Group,KS,"Wichita, ",67207
Investment Advisory Service,(316) 689-3595,151 S Whittier St,Liberty Asset Management,KS,"Wichita, ",67207
,,,,,,
Financial Services,(316) 689-4295,151 S Whittier St,Public Finance Group,KS,"Wichita, ",67207
Tax Return Preparation,(316) 631-3991,151 S Whittier St,Moneyscope Tax & Investment,KS,"Wichita, ",67207
Financial Planning Consultants,(316) 689-3597,151 S Whittier St,All Star Financial,KS,"Wichita, ",67207
Financial Planning Consultants,(316) 554-0062,515 W Macarthur Rd,Brz Investments,KS,"Wichita, ",67217
Financial Planning Consultants,(316) 612-6500,121 S Whittier St,"Smith, Dean",KS,"Wichita, ",67207
Financial Planning Consultants,(316) 612-6500,121 S Whittier St,"Wilkins Sr, Robert",KS,"Wichita, ",67207
Investment Advisory Service,(316) 260-6641,111 S Whittier St,Chawki Corban,KS,"Wichita, ",67207
Investments,(316) 689-4212,111 S Whittier St,Murphy Investments,KS,"Wichita, ",67207
Financial Planning Consultants,(316) 689-4214,111 S Whittier St,Rosenberry & Associates,KS,"Wichita, ",67207
Business Coaches & Consultants,(316) 689-4228,111 S Whittier St,Entrepreneur Source,KS,"Wichita, ",67207
Financial Services,(316) 689-4240,111 S Whittier St,Nutter Robert,KS,"Wichita, ",67207
Financial Services,(316) 689-4239,111 S Whittier St,Pritchett Larry,KS,"Wichita, ",67207
Financial Planning Consultants,(316) 684-4546,1602 N Lawrence Ct,Bateman Beth,KS,"Wichita, ",67206
Computer & Equipment Dealers,(316) 630-8303,7308 E Foster St,Bill Phillips Consulting Service,KS,"Wichita, ",67206
Business Coaches & Consultants,(316) 239-6755,2400 N Woodlawn Blvd,Engle Business Capital Service,KS,"Wichita, ",67220
Financial Planning Consultants,(316) 618-1800,2414 N Woodlawn Blvd Ste 170,Flagstone Investments,KS,"Wichita, ",67220
Investment Advisory Service,(316) 691-9424,2420 N Woodlawn Blvd,Isaac Financial Services,KS,"Wichita, ",67220
Professional Engineers,(316) 529-1012,3830 S Meridian Ave,Operating Engineers,KS,"Wichita, ",67217
General Contractors,(316) 828-5110,4111 E 37th St N,Koch-Glitsch LP,KS,"Wichita, ",67220
Business Coaches & Consultants,(316) 351-5056,2734 N Woodlawn Blvd,Kansas Imaging Consultants,KS,"Wichita, ",67220
Financial Planning Consultants,(316) 729-7071,530 N Ridge Rd,Northridge Financial Group,KS,"Wichita, ",67212
Financial Planning Consultants,(316) 729-7071,530 N Ridge Rd Ste B,Fisher Marvin,KS,"Wichita, ",67212
Business Coaches & Consultants,(316) 686-0359,590 N Broadmoor Ave,Careers 20 20,KS,"Wichita, ",67206
Financial Planning Consultants,(316) 618-8899,7700 E Kellogg Dr,Ryb Investments,KS,"Wichita, ",67207
Financial Planning Consultants,(316) 684-4700,7701 E Kellogg Dr,American National Bank Shares,KS,"Wichita, ",67207
Financial Planning Consultants,(316) 682-5111,302 N Rock Rd,Asset Management,KS,"Wichita, ",67206
"Trust Companies,Investments",(316) 684-2121,250 N Rock Rd,Gtrust Financial Partners,KS,"Wichita, ",67206
Financial Planning Consultants,(316) 558-3065,250 N Rock Rd,Robertson Wealth Manageme,KS,"Wichita, ",67206
"Financial Planning Consultants,Insurance",(316) 651-5433,250 N Rock Rd,Brant Westbrook Financial Service,KS,"Wichita, ",67206
"Stock & Bond Brokers,Financial Services",(316) 682-1515,250 N Rock Rd,Cunningham & Associates Insurance,KS,"Wichita, ",67206
,,,,,,
Employee Benefit Consulting Services,(316) 684-4272,240 N Rock Rd,Great American Senior Benefits,KS,"Wichita, ",67206
"Insurance,Financial Planning Consultants",(316) 636-1811,8020 E Central Ave,Aldrup Rick,KS,"Wichita, ",67206
Financial Planning Consultants,(316) 634-2222,8080 E Central Ave # 200,Carey Thomas Hoover & Breault,KS,"Wichita, ",67206
Financial Planning Consultants,(316) 634-2222,8080 E Central Ave # 200,Rose Stanley Investments,KS,"Wichita, ",67206
Financial Planning Consultants,(316) 636-2223,1223 N Rock Rd Ste H300,Prill Shane,KS,"Wichita, ",67206
Financial Planning Consultants,(316) 636-2223,1223 N Rock Rd,Raymond James Financial Services,KS,"Wichita, ",67206
Stock & Bond Brokers,(316) 636-8925,1223 N Rock Rd Ste F200,Oppenheimer & Co Inc,KS,"Wichita, ",67206
"Investment Advisory Service,Investments",(316) 691-5800,1223 N Rock Rd,Bushwood Investments,KS,"Wichita, ",67206
Taxes-Consultants & Representatives,(316) 634-1750,1223 N Rock Rd,Strassburg & Co,KS,"Wichita, ",67206
Investment Advisory Service,(316) 636-2223,1223 N Rock Rd,Prill SJ Financial & Investment Planning,KS,"Wichita, ",67206
Pension & Profit Sharing Plans,(316) 733-2840,3710 N Ridgewood St # D,Preferred Pension Solutions,KS,"Wichita, ",67220
Mold Remediation,(316) 665-7204,1620 S Broadmoor Ave,ACT Inc,KS,"Wichita, ",67207
Mutual Funds,(316) 440-8096,"8118 E. Douglas Ave., Ste 101",Bell & Associates,KS,"Wichita, ",67206
Financial Planners,(316) 685-5353,8118 E Douglas Ave,Ameriprise Financial,KS,"Wichita, ",67206
Financial Planners,(316) 685-5353,8118 E Douglas Ave,Richard Ringwall,KS,"Wichita, ",67206
Financial Planning Consultants,(316) 832-0983,4459 S Broadway St,SAS Energy & Consultants,KS,"Wichita, ",67216
"Financial Planners,Financing Consultants",(316) 618-6175,7829 E Rockhill St,Yoder Financial Group,KS,"Wichita, ",67206
Financial Planning Consultants,(316) 685-0111,7829 E Rockhill St,Lincoln Financial Group,KS,"Wichita, ",67206
Financial Planning Consultants,(316) 858-1512,1841 N Rock Road Ct # 300,Neal Carole,KS,"Wichita, ",67206
Financial Planning Consultants,(316) 858-1519,1841 N Rock Road Ct,"Yates, Deanna",KS,"Wichita, ",67206
Investments,(316) 684-9699,1841 N Rock Road Ct,Solomon Karl R E Investments,KS,"Wichita, ",67206
Financial Planning Consultants,(316) 201-1606,520 S Holland St,International Capital Solutions,KS,"Wichita, ",67209
"Mutual Funds,Investments",(316) 652-7005,1861 N Rock Rd,Waddell & Reed Inc,KS,"Wichita, ",67206
Taxes-Consultants & Representatives,(316) 684-5380,1625 S Rock Rd,Neighborhood Income Tax,KS,"Wichita, ",67207
Business Coaches & Consultants,(316) 722-3466,7570 W 21st St N,Vercor,KS,"Wichita, ",67205
Business Coaches & Consultants,(316) 409-4978,2250 N Rock Rd,Jada Mase Inc,KS,"Wichita, ",67226
"Financial Services,Investment Securities",(316) 681-8001,1855 S Rock Rd Ste 127,Edward Jones Investments,KS,"Wichita, ",67207
Financial Planning Consultants,(316) 201-4220,8027 W Kellogg Dr,Mid-West Financial,KS,"Wichita, ",67209
"Insurance,Financial Services",(316) 685-5311,8100 E 22nd St N Bldg 100,Lincoln Financial Advisors,KS,"Wichita, ",67226
Financial Planning Consultants,(316) 687-2423,8100 E 22nd St N # 2300-3,Beacon Capital Management,KS,"Wichita, ",67226
,,,,,,
Investment Advisory Service,(316) 687-2425,8100 E 22nd St N,Planned Professional Services,KS,"Wichita, ",67226
"Investment Securities,Investments",(316) 858-1766,8100 E 22nd St N,Advisors Asset Management Inc,KS,"Wichita, ",67226
Accountants-Certified Public,(316) 977-9262,8100 E 22nd St N,Galbraith & Thimmesch LLP,KS,"Wichita, ",67226
Financial Planning Consultants,(316) 682-5900,8100 E 22nd St N,Aam,KS,"Wichita, ",67226
Financial Planning Consultants,(316) 858-1766,8100 E 22nd St N # 800-102,Wiles Cyndi,KS,"Wichita, ",67226
Stock & Bond Brokers,(316) 686-6222,8100 E 22nd St N,Vestech Securities Inc,KS,"Wichita, ",67226
"Financial Planning Consultants,Insurance",(316) 269-2151,2551 N Rock Road Ct,Premier Financial Group,KS,"Wichita, ",67226
Financial Planning Consultants,(316) 524-2365,400 E 47th St S,Edward Jones,KS,"Wichita, ",67216
Financial Planners,(316) 636-1180,8301 E 21st St N # 320,Wells Fargo Advisors,KS,"Wichita, ",67206
Financial Planning Consultants,(316) 630-8118,8301 E 21st St N Ste 400,Juhnke Campbell & Associates,KS,"Wichita, ",67206
Financial Planning Consultants,(316) 440-8096,8301 E 21st St N,"Bell, Brett",KS,"Wichita, ",67206
Financial Planning Consultants,(316) 689-8333,8301 E 21st St N,Dimensions Investment Management,KS,"Wichita, ",67206
"Investments,Mutual Funds",(888) 335-7808,615 E 47th St S,Edward Jones Investments,KS,"Wichita, ",67216
Financial Planning Consultants,(316) 821-9343,4752 N Portwest Ct,Wbj Investments Inc,KS,"Wichita, ",67204
"Civil Engineers,Consulting Engineers",(316) 722-4472,8615 W Frazier Ln Ste 2,Schwab-Eaton P A,KS,"Wichita, ",67212
Business Coaches & Consultants,(316) 773-3535,8633 W Central Ave,Riggin & Co,KS,"Wichita, ",67212
Financial Planning Consultants,(316) 685-0111,1145 S Longford St,Jefferson Pilot Financial,KS,"Wichita, ",67207
"Investment Securities,Financial Services",(316) 383-8300,8521 E 21st St N,MorganStanley Smithbarney,KS,"Wichita, ",67206
Consulting Engineers,(316) 201-1225,2801 N Rock Rd,Lake Shore Engineering Group,KS,"Wichita, ",67226
Consulting Engineers,(316) 201-1225,2801 N Rock Rd,Powell Charles,KS,"Wichita, ",67226
Retirement Planning Services,(316) 634-4979,8621 E 21st St N # 170,Charles Schwab,KS,"Wichita, ",67206
Financial Planning Consultants,(316) 636-4009,8621 E 21st St N,Ameriprise Financial,KS,"Wichita, ",67206
Financial Planning Consultants,(316) 630-8118,8621 E 21st St N,Campbell Richard,KS,"Wichita, ",67206
Financial Planning Consultants,(316) 858-1505,8621 E 21st St N # 100,"Narvid, John",KS,"Wichita, ",67206
Financial Planning Consultants,(316) 858-1511,8621 E 21st St N,Fender Eric,KS,"Wichita, ",67206
Financial Planning Consultants,(316) 858-1502,8621 E 21st St N,"Andrews, Mark",KS,"Wichita, ",67206
Financial Planning Consultants,(316) 630-8118,8621 E 21st St N,Stoutheart Financial Group,KS,"Wichita, ",67206
Business Coaches & Consultants,(316) 268-1139,1013 S Burrus Ct,Foreign Trade Zone Consultants,KS,"Wichita, ",67207
"Agriculture Insurance,Insurance",(316) 721-8700,920 N Tyler Rd,Holmes Consulting Inc,KS,"Wichita, ",67212
Investments,(316) 440-4302,940 N Tyler Rd,Principle Investments,KS,"Wichita, ",67212
,,,,,,
Financial Planning Consultants,(316) 721-5191,1000 N Tyler Rd,Tejeda Financial,KS,"Wichita, ",67212
Financial Planning Consultants,(316) 524-1975,5014 S Broadway St,Tebo Investments,KS,"Wichita, ",67216
Financial Planning Consultants,(316) 866-2960,211 S Tyler Rd,Independent Financial Services,KS,"Wichita, ",67209
Financial Planning Consultants,(316) 773-7800,8935 W Central Ave,Life Advisors,KS,"Wichita, ",67212
Retirement Planning Services,(316) 721-6767,8925 W Maple St,Waddell & Reed,KS,"Wichita, ",67209
Financial Planning Consultants,(316) 636-5511,9342 E Central Ave # H,"Wright, William",KS,"Wichita, ",67206
"Investment Securities,Investments",(316) 636-5511,9342 E Central Ave # H,Sage Point Financial,KS,"Wichita, ",67206
Financial Planning Consultants,(316) 636-5511,9342 E Central Ave # H,Edgar,KS,"Wichita, ",67206
Financial Planners,(316) 636-5511,9342 E Central Ave,Guidance Financial Consultants,KS,"Wichita, ",67206
Investments,(316) 634-3011,3055 N Rock Rd,Investment Centers Of America,KS,"Wichita, ",67226
"Financial Services,Financing Services",(316) 721-1188,7330 W 33rd St N,American First Finance,KS,"Wichita, ",67205
Business Coaches & Consultants,(316) 260-5436,1660 N Tyler Rd,Life Advisors,KS,"Wichita, ",67212
Consulting Engineers,(316) 636-2370,9225 E Wilson Estates Ct,Maverick Consulting,KS,"Wichita, ",67206
Business Coaches & Consultants,(316) 524-5971,6122 W York Ct,Singer Tip Math,KS,"Wichita, ",67215
Investment Advisory Service,(316) 266-6576,8200 E 32nd St N,"Pool, Susan",KS,"Wichita, ",67226
Employee Benefit Consulting Services,(316) 267-9221,8200 E 32nd St N,Whipps Mike,KS,"Wichita, ",67226
Financial Planning Consultants,(316) 266-6572,8200 E 32nd St N,"Worth, Paul D",KS,"Wichita, ",67226
Financial Planning Consultants,(316) 721-2270,3611 N Ridge Rd,Tiger Financial Management,KS,"Wichita, ",67205
Financial Planning Consultants,(316) 636-5393,1313 N Webb Rd,G & J Investments Inc,KS,"Wichita, ",67206
Financial Planning Consultants,(316) 634-1991,1313 N Webb Rd Ste 120,"Kemp, Sharon",KS,"Wichita, ",67206
"Financial Services,Financing Consultants",(316) 686-1820,3450 N Rock Rd Ste 508-8,Ameriprice Financial,KS,"Wichita, ",67226
Business Coaches & Consultants,(316) 630-0471,8441 E 32nd St N,Thermal Solutions-Ablah Group,KS,"Wichita, ",67226
Consulting Engineers,(316) 636-9459,8441 E 32nd St N,Mamtc,KS,"Wichita, ",67226
Consulting Engineers,(316) 636-9459,8441 E 32nd St N # 100,Johnson Sandy,KS,"Wichita, ",67226
Financial Planning Consultants,(316) 683-8400,9415 E Harry St # 301,Gough Greg R,KS,"Wichita, ",67207
Financial Planning Consultants,(316) 683-8400,9415 E Harry St # 301,Thummel Brent,KS,"Wichita, ",67207
Financing Consultants,(316) 425-3225,9415 E Harry St,Profit Group INC,KS,"Wichita, ",67207
Financial Planning Consultants,(316) 686-4895,9415 E Harry St Ste 208,First Command Financial Planning,KS,"Wichita, ",67207
Financial Planning Consultants,(316) 440-8070,3500 N Rock Rd,Goldsmith Shane,KS,"Wichita, ",67226
Financial Planning Consultants,(316) 262-6126,3500 N Rock Rd,Financial Benefits Inc,KS,"Wichita, ",67226
,,,,,,
Financial Planning Consultants,(316) 721-2002,889 N Maize Rd Ste 212C,Petitjean Whitfield & Associates,KS,"Wichita, ",67212
Financial Services,(316) 729-2631,9706 W Sterling St,Thrivent Financial for Lutherans,KS,"Wichita, ",67205
Financial Planning Consultants,(316) 773-9864,10011 W 21st St N Ste 107,Jon Horning,KS,"Wichita, ",67205
Business Coaches & Consultants,(316) 721-7677,214 N Mesa St,Performance Resource Group,KS,"Wichita, ",67212
Investment Advisory Service,(316) 719-2900,10111 W 21st St N,Freedom Advisory Group,KS,"Wichita, ",67205
Financial Planning Consultants,(316) 866-2765,3351 N Webb Rd,Farm Bureau Financial Services,KS,"Wichita, ",67226
Financial Planning Consultants,(316) 393-4836,10013 W Chartwell Cir,Ordained Planning Inc,KS,"Wichita, ",67205
Surgery Centers,(316) 631-3723,8614 E Mulberry St,Strategic Surgery Center Consulting,KS,"Wichita, ",67226
Consulting Engineers,(316) 722-0069,10325 W 20th Ct N,Neil Engineering Co,KS,"Wichita, ",67212
Financing Consultants,(316) 721-5549,2533 Glacier Dr,Core Strategis,KS,"Wichita, ",67215
Business Coaches & Consultants,(316) 722-8423,1311 N Manchester St,Profiles Resource Group,KS,"Wichita, ",67212
Financial Planning Consultants,(316) 636-4422,9530 E 37th St N,Keene Insight Financial Strategies/NYL,KS,"Wichita, ",67226
Financial Planning Consultants,(316) 260-4064,2548 N Maize Ct,Horizon Financial Group,KS,"Wichita, ",67205
Financial Planning Consultants,(316) 260-4064,2548 N Maize Ct,Financial Benefits INC,KS,"Wichita, ",67205
Financial Planning Consultants,(316) 201-1299,11001 W Hidden Lake Rd,Insight Financial Services,KS,"Wichita, ",67209
"Financial Planning Consultants,Loans",(316) 491-7895,11118 W Kellogg St,Truck Finance Group,KS,"Wichita, ",67209
Professional Engineers,(877) 585-5919,11403 W Delano St,Absolute Calibration & Consulting Services,KS,"Wichita, ",67212
Financial Planning Consultants,(316) 721-7676,6901 W 53rd St N,Cox J Michael Inc,KS,"Wichita, ",67205
Business Coaches & Consultants,(316) 260-9098,10814 W Hadden St,Greenbridge Group,KS,"Wichita, ",67215
Financial Planning Consultants,(316) 687-2423,1233 N Bracken Ct,Beacon Capital Management,KS,"Wichita, ",67206
Geriatric Consulting & Services,(316) 440-7000,12115 E 21st St N # 107,Short Jeff,KS,"Wichita, ",67206
Financial Planning Consultants,(316) 927-3884,2143 N Collective Ln,Male Medical Management Group,KS,"Wichita, ",67206
Business Coaches & Consultants,(316) 871-6534,6710 S Hydraulic Dr,Rich Communications Cnslnt,KS,"Wichita, ",67216
"Investments,Investment Securities",(316) 295-2224,11606 W Lotus St,Wichita Urban Investments,KS,"Wichita, ",67209
Financial Planning Consultants,(316) 721-2866,2314 S Parkridge St,"Alterman, Marcia",KS,"Wichita, ",67209
"Investments,Investment Management",(316) 652-9070,12950 E 13th St N,B & B Investment Co,KS,"Wichita, ",67230
Marketing Programs & Services,(316) 665-4133,490 S Limuel Ct,Get Social Marketing & Consulting,KS,"Wichita, ",67235
Financial Planning Consultants,(316) 733-6623,13413 E Crestwood Ct,Carpenter Financial,KS,"Wichita, ",67230
Business Coaches & Consultants,(316) 733-0135,14011 E North Point Dr,Schofield Vic,KS,"Wichita, ",67230
Financial Planning Consultants,(316) 425-6415,21 E Stonebridge Cir,Cbfc,KS,"Wichita, ",67230
,,,,,,
Investment Securities,(316) 315-0617,3500 N Rock Rd,Raymond James,KS,"Wichita, ",67226
Business Coaches & Consultants,(316) 721-5212,8921 W 21st St N,L D Carney & Associates Inc,KS,"Wichita, ",67205
Financial Planning Consultants,(316) 315-1300,1720 N Webb Rd,Charles Schwab,KS,"Wichita, ",67206
Real Estate Appraisers,(316) 683-7900,2526 S Dalton St,DLN Consulting,KS,"Wichita, ",67210
Financial Planning Consultants,(316) 636-5429,2020 N Webb Rd,Advanced Equities Wealth Management,KS,"Wichita, ",67206
Financing Consultants,(316) 201-6760,2020 N Webb Rd,Financial Innovations,KS,"Wichita, ",67206
Financial Planning Consultants,(316) 684-8299,5709 N Sullivan Rd,Ethridge Financial Service,KS,"Wichita, ",67204
Ecological Engineers,(316) 554-0725,4503 E 47th St S,Geotechnical Services Inc Gsi,KS,"Wichita, ",67210
Investment Advisory Service,(316) 928-4237,1635 N Waterfront Pkwy # 150,Flint Hills Financial,KS,"Wichita, ",67206
Investment Securities,(316) 265-4605,1635 N Waterfront Pkwy,New England Financial,KS,"Wichita, ",67206
Financial Planning Consultants,(316) 383-1046,1635 N Waterfront Pkwy # 150,LPL Financial,KS,"Wichita, ",67206
Financial Planning Consultants,(316) 682-9398,1625 N Waterfront Pkwy # 150,Frontier Wealth Management,KS,"Wichita, ",67206
Mutual Funds,(316) 260-5200,9747 E 21st St N,The Mutual Fund Store,KS,"Wichita, ",67206
Investments,(316) 682-8344,1605 N Waterfront Pkwy # 200,Securities America Inc,KS,"Wichita, ",67206
"Business Brokers,Investments,Appraisers",(316) 684-9040,9920 E Harry St # 150,Sunbelt Business Advisor,KS,"Wichita, ",67207
Financial Planning Consultants,(316) 315-0091,10333 E 21st St N,Benjamin F Edwards & Co,KS,"Wichita, ",67206
"Investment Advisory Service,Investments",(316) 682-5148,"10333 E 21st St N, Suite 201",Central Plains Advisors,KS,"Wichita, ",67206
Retirement Planning Services,(316) 655-8113,10333 E 21st St N Ste 201,Mark Donley - Allstate Agent,KS,"Wichita, ",67206
Contract Manufacturing,(316) 213-7534,9810 W Westlawn St,Seifert Consulting Services,KS,"Wichita, ",67212
Nutritionists,(316) 630-8243,10500 E Berkeley Square Pkwy,Marstall Nutritional Consulting,KS,"Wichita, ",67206
Financial Planning Consultants,(316) 686-0000,1525 N Veranda St,Mastio Financial Resources,KS,"Wichita, ",67206
"Financial Services,Financial Planners",(316) 207-5959,10111 W Suncrest St,Modern Woodmen of America,KS,"Wichita, ",67212
Financial Planning Consultants,(316) 440-4772,10333 E 21st St N,Capital Wealthcare Advisors,KS,"Wichita, ",67206
Accountants-Certified Public,(316) 440-4772,10333 E 21st St N,"Mellor, Kedre",KS,"Wichita, ",67206
Financial Planning Consultants,(316) 858-1502,10333 E 21st St N,"Andrews, Mark",KS,"Wichita, ",67206
Investment Securities,(316) 858-1506,10333 E 21st St N,"Madsen, Kimberly",KS,"Wichita, ",67206
Financial Planning Consultants,(316) 858-1509,10333 E 21st St N,"McMillen, Thomas",KS,"Wichita, ",67206
"Financial Services,Financing Consultants",(316) 858-1504,10333 E 21st St N,Ameriprise Financial,KS,"Wichita, ",67206
Financial Planners,(316) 722-1010,889 N Maize Rd Ste 109,Stukey Financial Planning,KS,"Wichita, ",67212
Investments,(316) 721-2836,889 N Maize Rd,Securities America,KS,"Wichita, ",67212
,,,,,,
Secretarial Services,(800) 897-9880,,Ability Answering Service,,,
Real Estate Inspection Service,(316) 393-0735,,Benchmark Property Inspections LTD,,,
Mold Testing & Consulting,(316) 201-4674,,ATM Home Inspection LLC,,,
,(877) 365-4068,,Alpha Consulting Group,,,
Credit & Debt Counseling,(877) 206-8692,,ClearPoint Credit Counseling Solutions,,,
Sports & Entertainment Ticket Sales,(662) 325-2323,,Mississippi State University,,,
Mutual Funds,(888) 891-1510,,Edward Jones,,,
Employment Opportunities,(888) 836-6294,,Liberty Consulting,,,
Tax Return Preparation-Business,(855) 807-8533,,Dartmouth Financial & Tax Consulting,,,
Stock & Bond Brokers,(888) 891-1502,,Edward Jones,,,
Financial Services,(888) 891-1491,,Edward Jones,,,
Investment Securities,(888) 891-1492,,Edward Jones,,,
Investments,(888) 891-1511,,Edward Jones,,,
Computer System Designers & Consultants,(877) 938-2191,,AT&T,,,
Web Site Hosting,(888) 502-0802,,Kell Web Solutions Inc.,,,
Management Consultants,(888) 279-5769,,Soyring Consulting Inc,,,
Communication Consultants,(888) 731-1352,,Tellennium,,,
Records Destruction,(888) 350-9135,,Shred Nations,,,
Computer Technical Assistance &...,(866) 698-8604,,Techs In A Sec,,,
"Call Centers,Telephone Answering Service",(800) 369-8908,,CMS Customer Solutions,,,
"Mold Remediation,Testing Labs",(888) 610-2161,,ACM Engineering & Environmental,,,
Computers & Computer Equipment-Service...,(240) 720-1995,,PC eSupport National Computer Repair,,,
Taxes-Consultants & Representatives,(888) 301-8244,,Tax Remedy Consulting,,,
Assisted Living Facilities,(888) 294-1308,,Senior Advisor,,,
Business Documents & Records-Storage...,(866) 264-1936,,Iron Mountain,,,
"Call Centers,Telecommunications Services",(800) 230-9875,,AnswerNet,,,
Barbecue Grills & Supplies,(888) 358-9324,,Royal Swimming Pools Inc.,,,
Paper-Shredded,(866) 233-4430,,Iron Mountain,,,
Computer Data Recovery,(888) 360-6035,,Iron Mountain,,,
Construction & Building Equipment,(831) 634-2970,,Tovar Industries Inc,,,
,,,,,,
Financial Planning Consultants,(316) 733-7593,14700 E Siefkes St,Lawrence Financial Service,KS,"Wichita, ",67230
Business Coaches & Consultants,(316) 733-5800,1668 N Sagebrush St,Lerman Kenneth Business Consultant,KS,"Wichita, ",67230
Investment Securities,(316) 733-5081,550 N 159th St E # 200,MMR Investment Bankers,KS,"Wichita, ",67230
Financial Services,(316) 630-0066,550 N 159th St E # 1000,Primerica,KS,"Wichita, ",67230
Business Coaches & Consultants,(316) 733-7441,4601 N 143rd St E,Secure Care Consultants,KS,"Wichita, ",67228
Investment Securities,(316) 263-5533,149 S Andover Rd,Haffley Wilson Capital Management,KS,"Wichita, ",67202
"Investment Advisory Service,Investments",(316) 773-0007,300 W Douglas Ave Ste 420,CenterPointe Wealth Management,KS,"Wichita, ",67202
Business Coaches & Consultants,(316) 665-4690,121 N Mead St # 103,Studios United,KS,"Wichita, ",67202
Air Quality-Indoor,(316) 239-7097,PO Box 8200,"Paradigm Group, LLC",KS,"Wichita, ",67208
Business Coaches & Consultants,(316) 201-4624,3120 N Westwind Bay Ct,Network Consultants,KS,"Wichita, ",67205
Computer Network Design & Systems,(316) 619-4612,,Jason Rule Computer Services,KS,"Wichita, ",67212
Bodyguard Service,(316) 680-0761,,dropzone consulting,KS,"wichita, ",67217
Business Coaches & Consultants,(316) 260-4211,,Ei Consulting,KS,"Wichita, ",67218
Computer Technical Assistance &...,(316) 210-0707,,Air Capital Computer Service,KS,"Wichita, ",67226
"Management Consultants,Attorneys",(316) 266-4111,,AAA Accident Attorney Association,KS,"Wichita, ",67226
Management Consultants,(316) 744-3777,,Mike Smoots & Associates,KS,"Wichita, ",67201
Management Consultants,(316) 262-4612,,Primero Management Inc,KS,"Wichita, ",67202
Internet Marketing & Advertising,(316) 265-5116,,Seo Marketing Service,KS,"Wichita, ",67203
Computers & Computer Equipment-Service...,(316) 925-1644,,Boss Computer Service,KS,"Wichita, ",67207
Safety Consultants,(316) 838-1097,,Safety Consulting Inc,KS,"Wichita, ",67204
Business Coaches & Consultants,(316) 683-8100,,Midtec Associates Inc,KS,"Wichita, ",67207
Home Builders,(316) 619-4471,,CL Consulting,KS,"Wichita, ",67204
Pension & Profit Sharing Plans,(316) 684-5842,,Edward Jones,KS,"Wichita, ",67208
Business Coaches & Consultants,(316) 260-5377,,Ritchie Associates,KS,"Wichita, ",67211
,(316) 722-4802,8818 W Roland St,Zimmerman Consulting,KS,"Wichita, ",67212
,(316) 204-5611,1812 W Lockwood St,Stone Cottage Quality Consulting,KS,"Wichita, ",67217
,(316) 773-1218,10110 W Lydia Ave,Toothaker Consulting,KS,"Wichita, ",67209
,(316) 721-2334,12513 W Binter St,Bell Consulting Inc,KS,"Wichita, ",67235
Air Duct Cleaning,(316) 722-5005,,Stover's Restoration,,,
"Franchising,Investments",(866) 934-7167,,Sunshine Franchise Consulting & Brokerage,,,
,,,,,,
Swimming Pool Dealers,(316) 788-1324,,Herdt's Water Features,,,
Document Imaging,(888) 766-4128,,Royal Imaging Services LLC,,,
Telephone Answering Service,(920) 490-7000,,Anser- Call Answering Service,,,
Swimming Pool Dealers,(316) 260-0757,,Edwards Pool Construction,,,
Sports Medicine & Injuries Treatment,(316) 680-6003,,A New Beginning by Phoenix MASSAGE SPECIALISTS,,,
Computer Data Recovery,(316) 727-9614,,Monkey Bytes Computer Repair,,,
Computers & Computer Equipment-Service...,(316) 554-1241,,Computer Troubleshooters,,,
"Tax Return Preparation,Bookkeeping",(316) 262-6842,,Better Income Tax Service,,,
Computer & Equipment Dealers,(785) 267-3706,PO Box 24,Eclectic Technology,KS,"Douglass, ",67039
Business Coaches & Consultants,(316) 776-2317,"Rose Hill, 67133",Erikson; Jeanne PhD PCC,KS,"Rose Hill, ",67133
"Management Training,Training Consultants",(316) 648-6652,,"Martin Leadership & Management Development, LLC",KS,"Rose Hill, ",67133
Business Coaches & Consultants,(316) 794-8922,,Brian's Consulting Services,KS,"Goddard, ",67052
Web Site Design & Services,(316) 371-2671,,Jacques Designs,KS,"Andover, ",67002
Marketing Programs & Services,(316) 835-2600,,Hudson Media Svc Intl,KS,"Halstead, ",67056
Marketing Consultants,(316) 733-5841,,Team US Marketing,KS,"Andover, ",67002
Professional Engineers,(316) 322-8247,,U S Government Corps of Engineers,KS,"El Dorado, ",67042
Financial Planning Consultants,(316) 733-7426,,Edward Jones,KS,"Haysville, ",67060
Internet Service Providers (ISP),(316) 776-3090,,J & R Consulting,KS,"Rose Hill, ",67133
Investments,(316) 722-0457,,Edward Jones,KS,"Maize, ",67101
Bookkeeping,(316) 755-9120,,Wall & Associates Inc,KS,"Valley Center, ",67147
Computer Network Design & Systems,(316) 530-1385,,Jon Doe Engineering,,,
Personnel Consultants,(316) 737-6263,,RMR Consulting (Birkman),,,
Computer Technical Assistance &...,(877) 576-3737,,Nerds on Site,,,
Directory & Guide Advertising,(316) 992-9777,,About Time Advertising,,,
Business Coaches & Consultants,(316) 794-8922,,Brian's Consulting Services,,,
Business Coaches & Consultants,(316) 269-4201,,Wla,,,
Computer System Designers & Consultants,(620) 326-6023,,N Transit Inc,,,
Management Consultants,(316) 522-7777,,Tiger Financial Mgmt Corp,,,
Computer Software & Services,(816) 874-4389,,Coalition Computing Corp,,,
Management Consultants,(316) 201-1227,,Lane Mgnt,,,
,,,,,,
Marketing Consultants,(316) 733-5841,,R G Johnson Federal Employee Benefits,,,
Computer System Designers & Consultants,(316) 682-5502,,American Institute-Wine & Food,,,
Computer Network Design & Systems,(316) 259-1112,,G H Services,,,
Direct Mail Advertising,(316) 652-0070,,Dynamic Direct Marketing,,,
Personnel Consultants,(316) 942-1300,,Pps,,,
Marketing Programs & Services,(316) 201-6251,,Led Ventures,,,
Financial Planning Consultants,(316) 689-0900,,Coe Financial Svc Inc,,,
Business Coaches & Consultants,(316) 634-0872,,John E Turriff Inc,,,
Consulting Engineers,(316) 686-8118,,Federal Consultants Corporation,,,
Financial Planning Consultants,(316) 630-0066,,Primerica,,,
Investment Advisory Service,(316) 683-6383,,Busada Advisory Services,,,
Investments,(316) 522-9391,,Gold Eagle Investments Inc,,,
Nurses-Home Services,(316) 361-6871,,Comfort Care of Kansas,,,
Business Coaches & Consultants,(316) 440-8136,,Philip D Wright,,,
Business Coaches & Consultants,(316) 491-2007,,Nebb Institute,,,
"Financial Planning Consultants,Insurance",(316) 722-6634,,Principal Financial Group,,,
Swimming Pool Dealers,(316) 838-9287,336 E 49th St N,Thurman's Pools,KS,"Park City, ",67219
Financial Services,(316) 744-6222,309 E Kechi Rd,Edward Jones - Financial Advisor: Al Taylor,KS,"Kechi, ",67067
Disaster Recovery & Relief,(316) 448-9821,3835 N Hillcrest St,"ACT, Inc.",KS,"Bel Aire, ",67220
Swimming Pool Repair & Service,(316) 838-9287,336 E 49th St N,Thurman's Pools,KS,"Park City, ",67219
Financial Planning Consultants,(316) 773-0831,610 S Eastridge St,Security Plus Consulting Inc,KS,"Maize, ",67101
Business Coaches & Consultants,(316) 260-2780,4057 N Woodlawn Ct,Sorbet Technologies,KS,"Bel Aire, ",67220
Management Consultants,(316) 744-7639,4925 Farmstead Ct,Gee Management Co,KS,"Bel Aire, ",67220
Marketing Programs & Services,(316) 613-3292,5051 N Lake Breeze Ct,Vision Alliance Marketing,KS,"Bel Aire, ",67226
Business Coaches & Consultants,(316) 683-3289,4065 N Woodlawn Ct,Wis International,KS,"Bel Aire, ",67220
"Financial Services,Investment Securities",(316) 744-6222,311 E Kechi Rd,Edward Jones Investments,KS,"Kechi, ",67067
Water Damage Restoration,(316) 722-5005,112 E Albert St,Stover's Restoration,KS,"Maize, ",67101
Financial Services,(316) 721-2431,4041 N Maize Rd Suite 230,Edward Jones - Financial Advisor: Jon Madsen,KS,"Maize, ",67101
Financial Services,(316) 524-0927,247 E Grand Ave,Edward Jones - Financial Advisor: Todd A Rhodes,KS,"Haysville, ",67060
Financial Services,(316) 729-4377,5255 N Maize Rd Ste 103,Edward Jones - Financial Advisor: Joshua R Belcher,KS,"Maize, ",67101
,,,,,,
Aerospace Industries & Services,(316) 708-6815,15508 W McCormick Ave,The Tomcat Group,KS,"Goddard, ",67052
Computer Network Design & Systems,(316) 789-9000,631 N Buckner St,Hofftek,KS,"Derby, ",67037
"Franchising,Management Consultants",(316) 448-5130,15616 W Hendryx Ct,"Air Capital Enterprises, LLC.",KS,"Goddard, ",67052
Publicity Service,(316) 796-0610,15701 Breezy Ln,Vitac,KS,"Colwich, ",67030
Computer Software & Services,(316) 788-7007,637 N Oak Forest Ln,Wellpoint Systems Inc Computer,KS,"Derby, ",67037
Marketing Consultants,(316) 260-8685,247 S Jamestown Cir,Acosta,KS,"Andover, ",67002
Management Consultants,(316) 733-0400,224 E Central Ave,Accel,KS,"Andover, ",67002
Marketing Consultants,(316) 570-2773,"211 N. Andover Rd., #907","Red Door Three, LLC",KS,"Andover, ",67002
Computer & Equipment Dealers,(316) 425-7587,321 S Andover Rd,Computers Plus,KS,"Andover, ",67002
Computer System Designers & Consultants,(316) 733-0474,16328 SW 123rd Ter,Real Solutions Inc,KS,"Andover, ",67002
Management Consultants,(316) 788-8868,2718 N Rock Rd,Frank's Wholesale Fireworks,KS,"Derby, ",67037
Marketing Consultants,(316) 260-8685,610 E Crescent Lakes Dr,Acosta,KS,"Andover, ",67002
Business Coaches & Consultants,(316) 744-1373,2018 E Ravena St,Cfo For Hire,KS,"Park City, ",67219
"Stock & Bond Brokers,Investments",(316) 524-0927,247 E Grand Ave,"Richards, Todd A",KS,"Haysville, ",67060
Business Coaches & Consultants,(316) 529-3698,PO Box 192,Jber Enterprises,KS,"Haysville, ",67060
"Financial Planning Consultants,Insurance",(316) 522-9027,101 Campbell Dr,Farm Bureau Financial Service,KS,"Haysville, ",67060
Structural Engineers,(316) 788-3200,101 W Buckthorn Rd,Structural Engineering Consultants,KS,"Derby, ",67037
Consulting Engineers,(316) 524-0489,904 E Peach Ct,Efi Global,KS,"Haysville, ",67060
Business Coaches & Consultants,(316) 788-1167,2406 N Forest Park St,JSCO Business Solutions,KS,"Derby, ",67037
Financial Planning Consultants,(316) 721-7818,3510 W Central St,Primerica,KS,"Maize, ",67101
Investments,(316) 722-4341,306 S King St,T M C's Investments,KS,"Maize, ",67101
Aeronautical Engineers,(316) 265-8335,202 N Park St,Aviation Consulting & Engineering,KS,"Maize, ",67101
Financial Planning Consultants,(316) 773-4481,515 N Ridge Rd,"Johnson, Marti Chfc",KS,"Maize, ",67101
Employee Benefit Consulting Services,(316) 250-4214,PO Box 454,Richey Health Benefits,KS,"Valley Center, ",67147
"Financial Services,Investment Securities",(316) 755-2081,209 W Main St Ste A,Edward Jones Investments,KS,"Valley Center, ",67147
Financial Planning Consultants,(316) 755-3585,209 W Main St,Richardson & Associates,KS,"Valley Center, ",67147
Financial Planning Consultants,(316) 755-3411,6 Valley Oaks Ct,Baker & Associates,KS,"Valley Center, ",67147
Investment Securities,(316) 788-5670,1033 N Buckner St,Spencer Wernli Financial Service,KS,"Derby, ",67037
Financial Services,(316) 733-8250,1400 Terradyne Dr,Robrahn Christopher B,KS,"Andover, ",67002
Financial Planning Consultants,(316) 733-9595,1400 Terradyne Dr,Wells Fargo Advisors,KS,"Andover, ",67002
,,,,,,
Financial Services,(316) 755-2081,209 W Main St,Edward Jones - Financial Advisor: DeWayne Morgan,KS,"Valley Center, ",67147
Financial Services,(316) 755-2081,209 W Main St,Edward Jones - Financial Advisor: Brian C Jansen,KS,"Valley Center, ",67147
Financial Services,(316) 789-8174,818 E Meadowlark Blvd,Edward Jones - Financial Advisor: Scott D Kitterman,KS,"Derby, ",67037
Financial Services,(316) 788-5501,200 E Madison Ave,Edward Jones - Financial Advisor: Kevin P Lewis,KS,"Derby, ",67037
Financial Services,(316) 788-5501,200 E Madison Ave,Edward Jones - Financial Advisor: Ashley A Shields,KS,"Derby, ",67037
Financial Services,(316) 788-0055,1120 N Rock Rd Ste 200,Edward Jones - Financial Advisor: Kelly P Farber,KS,"Derby, ",67037
Financial Services,(316) 788-2165,624 N Mulberry Rd,Edward Jones - Financial Advisor: Ariel J Lee,KS,"Derby, ",67037
Financial Services,(316) 218-0902,113 W Central Ave,Edward Jones - Financial Advisor: Eric E Kaufman,KS,"Andover, ",67002
Swimming Pool Dealers,(316) 347-8826,2530 S 167th St W,Outback Pools,KS,"Goddard, ",67052
Swimming Pool Dealers,(316) 788-4066,2006 E Countryview Dr,Kanaga Pools,KS,"Derby, ",67037
Swimming Pool Covers & Enclosures,(316) 788-4066,2006 E Countryview Dr,Kanaga Pools,KS,"Derby, ",67037
Financial Planning Consultants,(316) 425-7740,1400 Terradyne Dr,Central Financial Services,KS,"Andover, ",67002
"Financial Services,Investment Securities",(316) 729-4377,5255 N Maize Rd Ste 103,Edward Jones Investments,KS,"Maize, ",67101
"Funeral Directors,Crematories,Monuments",(316) 755-2731,100 S Cedar Ave,Baker Funeral Home,KS,"Valley Center, ",67147
Computer Network Design & Systems,(316) 788-1372,1033 N Buckner St Suite 203,Onesource Technology Inc,KS,"Derby, ",67037
"Crematories,Embalmers,Funeral Directors",(316) 788-2828,1415 N Rock Rd,Smith Family Mortuary,KS,"Derby, ",67037
Insurance Adjusters,(316) 755-2717,111 S Abilene Ave,Maples Teresa,KS,"Valley Center, ",67147
"Insurance,Financial Services",(316) 755-2717,111 S Abilene Ave,Farm Bureau Insurance,KS,"Valley Center, ",67147
Financial Planning Consultants,(316) 788-5257,1721 E Osage Rd,Farm Bureau Financial Services,KS,"Derby, ",67037
"Financial Planning Consultants,Insurance",(316) 788-5257,1721 E Osage Rd Ste 100,"Sharp, James",KS,"Derby, ",67037
"Financial Planning Consultants,Insurance",(316) 733-5039,135 S Andover Rd Ste B,Farm Bureau Financial Services,KS,"Andover, ",67002
Consulting Engineers,(316) 239-6080,15605 W Hendryx St,Elp Aviation Consulting & Services,KS,"Goddard, ",67052
Business Brokers,(316) 201-6750,9335 W 53rd St N,CSC Inc,KS,"Maize, ",67101
Management Consultants,(316) 440-3333,360 Cain Dr,D K Management Inc,KS,"Haysville, ",67060
Computer System Designers & Consultants,(316) 361-7248,200 N Main St,Computer Rescue,KS,"Haysville, ",67060
Management Consultants,(316) 755-9020,7457 N Meridian Ave,Frank's Wholesale,KS,"Valley Center, ",67147
Management Consultants,(316) 773-0140,PO Box 75036,L P Consultants,KS,"Maize, ",67101
Management Consultants,(316) 440-3309,1939 Emmett St,Best Value Services,KS,"Haysville, ",67060
Management Consultants,(316) 729-2831,405 E Albert St,Innovative Coachworks Inc,KS,"Maize, ",67101
Management Consultants,(316) 295-4129,2213 E Bryant St,Active Healthcare Solutions,KS,"Derby, ",67037
,,,,,,
Business Coaches & Consultants,(316) 494-7220,2101 Dearborn St,Point The,KS,"Augusta, ",67010
Financial Planning Consultants,(620) 326-5977,1018 W 8th St,Farm Bureau Financial Services,KS,"Wellington, ",67152
Financial Services,(316) 283-7902,700 N Main St,Edward Jones - Financial Advisor: Emily J Stewart,KS,"Newton, ",67114
Financial Services,(316) 283-7902,700 N Main St,Edward Jones - Financial Advisor: Mark W Frazier,KS,"Newton, ",67114
Financial Services,(316) 283-2587,1801 N Main St,Edward Jones - Financial Advisor: Mike Barron,KS,"Newton, ",67114
Financial Services,(316) 322-7134,632 N Main St,Edward Jones - Financial Advisor: Scott C McEwen,KS,"El Dorado, ",67042
Financial Services,(316) 321-4960,208 W Central Ave,Edward Jones - Financial Advisor: Lance J Lechtenberg,KS,"El Dorado, ",67042
Financial Services,(620) 326-5927,120 W Harvey Ave,Edward Jones - Financial Advisor: Diana J Page,KS,"Wellington, ",67152
Business Coaches & Consultants,(800) 876-3469,913 Main St,Galaxie Business Equipment Inc,KS,"Winfield, ",67156
"Investment Management,Investments",(800) 928-6468,,Austin Rare Coins & Bullion,,,
,,,,,,
Accountants-Certified Public,(316) 733-7053,1400 Terradyne Dr,Teinert Consulting Inc,KS,"Andover, ",67002
"Accountants-Certified Public,Bookkeeping",(316) 788-2815,200 E Madison Ave Ste B,Hiebert & Decker CPAs Chartered,KS,"Derby, ",67037
Business Coaches & Consultants,(316) 558-8000,330 E Madison Ave,Davis Eight,KS,"Derby, ",67037
Financial Planning Consultants,(316) 789-0321,330 E Madison Ave,Koral Financial Group,KS,"Derby, ",67037
Consulting Engineers,(316) 788-6632,Of,Derby-City Non-Emergency,KS,"Derby, ",67037
Financial Planning Consultants,(316) 788-0788,124 S Baltimore Ave,Cross Financial Services,KS,"Derby, ",67037
"Financial Planning Consultants,Mortgages",(316) 260-3877,620 N Mulberry Rd,Regent Financial Svc,KS,"Derby, ",67037
Professional Engineers,(316) 755-3523,1321 W 93rd St N,Schmidt Engineering,KS,"Valley Center, ",67147
Consulting Engineers,(316) 755-3523,1321 W 93rd St N,Schmidt Charles,KS,"Valley Center, ",67147
Consulting Engineers,(316) 733-1245,233 Village Rd,Abbott Aerospace Composites,KS,"Andover, ",67002
"Financial Planning Consultants,Insurance",(316) 789-0440,102 S Oak Forest Rd,Principal Financial Group,KS,"Derby, ",67037
Accounting Services,(316) 733-5796,302 W Central Ave,Adams & Associates,KS,"Andover, ",67002
Financial Planning Consultants,(316) 733-6969,105 S Andover Rd,Encompass Financial,KS,"Andover, ",67002
Financial Planning Consultants,(316) 733-6969,105 S Andover Rd Ste B,Langhofer Chad,KS,"Andover, ",67002
Business Coaches & Consultants,(316) 733-0648,149 S Andover Rd,Andover Area Chamber-Commerce,KS,"Andover, ",67002
Financial Planning Consultants,(316) 755-0721,1421 Sunnydale Lakes Est,Primerica,KS,"Valley Center, ",67147
Financial Services,(316) 794-1133,110 N Main St,Edward Jones - Financial Advisor: Chad L Pearson,KS,"Goddard, ",67052
Financial Services,(316) 777-0780,1214 N Rock Rd Suite A,Edward Jones - Financial Advisor: Jon M Lewis,KS,"Mulvane, ",67110
Insurance Adjusters,(316) 260-4212,325 W Wichita Ave,Mc Gee Brett,KS,"Colwich, ",67030
Financial Planning Consultants,(316) 260-4212,325 W Wichita Ave,Farm Bureau Financial Services,KS,"Colwich, ",67030
Business Coaches & Consultants,(620) 584-5154,8301 S 135th St W,Ford Safety & Consulting,KS,"Clearwater, ",67026
Management Consultants,(316) 260-6358,300 E Chicago Ave,Colwich Gardens Management,KS,"Colwich, ",67030
Computer Technical Assistance &...,(316) 554-1241,529 E Showalter St,Computer Troubleshooters,KS,"Rose Hill, ",67133
Business Coaches & Consultants,(316) 789-0531,1731 E Southridge Cir,Safety Management Service,KS,"Derby, ",67037
Business Coaches & Consultants,(316) 295-2347,3635 Summerchase,K S Imaging Conslnts Ed Sippel,KS,"Rose Hill, ",67133
Business Coaches & Consultants,(316) 788-3801,11806 E 84th Cir S,Challenge Foundation,KS,"Derby, ",67037
Financial Planning Consultants,(316) 390-9090,15225 SW 150th St # A,"Winslow, Julie",KS,"Rose Hill, ",67133
Consulting Engineers,(316) 776-2112,102 Reyer St,Jones Engineering & Manufacturing,KS,"Rose Hill, ",67133
Financial Services,(316) 775-1700,602 State St,Edward Jones - Financial Advisor: Thurston W Thies,KS,"Augusta, ",67010
Financial Services,(316) 775-9022,407 E Kelly Ave,Edward Jones - Financial Advisor: Joel L Yourdon,KS,"Augusta, ",67010
,,,,,,
