category,phone,streetAddress,name,addressState,addressCity,addressZip
Attorneys,(316) 749-2429,928 S Broadway St,Hogan Paul Law Office Of,KS,"Wichita, ",67211
Attorneys,(316) 688-1166,8100 E 22nd St N Bldg 1200,Hutton & Hutton,KS,"Wichita, ",67226
Criminal Law Attorneys,(316) 448-8745,301 N Market St,"Philip L. Weiser, Attorney At Law",KS,"Wichita, ",67202
"General Practice Attorneys,Attorneys",(316) 630-8100,2959 N Rock Rd Ste 300,"Triplett Woolf & Garretson, LLC",KS,"Wichita, ",67226
"Criminal Law Attorneys,Attorneys",(316) 219-6173,154 N Emporia St,Law Offices of Michael E. Cleary,KS,"Wichita, ",67202
"Tax Attorneys,Attorneys",(877) 886-1918,,AAA Tax Relief,,,
Tax Return Preparation-Business,(888) 511-4058,,AAA Tax Relief,,,
Accident & Property Damage Attorneys,(866) 632-5150,,Auto Accident Attorney's,,,
Attorneys,(316) 688-1166,8100 E 22nd St N Bldg 1200,Hutton & Hutton,KS,"Wichita, ",67226
Criminal Law Attorneys,(316) 448-8745,301 N Market St,"Philip L. Weiser, Attorney At Law",KS,"Wichita, ",67202
"General Practice Attorneys,Attorneys",(316) 630-8100,2959 N Rock Rd Ste 300,"Triplett Woolf & Garretson, LLC",KS,"Wichita, ",67226
Attorneys,(316) 749-2429,928 S Broadway St,Hogan Paul Law Office Of,KS,"Wichita, ",67211
"Criminal Law Attorneys,Attorneys",(316) 219-6173,154 N Emporia St,Law Offices of Michael E. Cleary,KS,"Wichita, ",67202
Attorneys,(316) 347-7872,212 N Market St,Shawn Elliott Atty,KS,"Wichita, ",67202
Social Security & Disability Law...,(316) 262-5500,229 E William St,Cassell Joseph H,KS,"Wichita, ",67202
Bankruptcy Services,(316) 264-3333,300 W Douglas Ave Suite 230,Speth & King,KS,"Wichita, ",67202
"Attorneys,Child Custody Attorneys",(316) 262-4481,154 N Emporia St,Cleary Soderberg Wagle & West Law Office,KS,"Wichita, ",67202
General Practice Attorneys,(316) 263-5900,310 W Central Ave,Ortega Law Office,KS,"Wichita, ",67202
"Divorce Attorneys,Attorneys",(316) 448-9715,210 N Saint Francis St,Beall & Mitchell LLC,KS,"Wichita, ",67202
Automobile Accident Attorneys,(316) 687-2400,245 N Waco St,Patterson Legal Group LC,KS,"Wichita, ",67202
"Attorneys,Criminal Law Attorneys",(316) 942-8400,6235 W Kellogg Dr,The Law Office of Michael J Studtmann P.A.,KS,"Wichita, ",67209
"Attorneys,Personal Injury Law Attorneys",(316) 269-2500,310 W Central Ave,Warner Law Offices,KS,"Wichita, ",67202
"Family Law Attorneys,Attorneys",(316) 269-1950,323 N Market St,Floodman Family Law,KS,"Wichita, ",67202
"Legal Service Plans,Attorneys",(316) 265-3390,830 N Main St,G. Knute Fraser,KS,"Wichita, ",67203
"Attorneys,Transportation Law Attorneys",(316) 217-8394,727 N Waco Ave,Hammond Zongker & Farris,KS,"Wichita, ",67203
"Attorneys,Domestic Violence Attorneys",(316) 263-7596,310 W Central Ave,Hulnick Stang & Rapp PA,KS,"Wichita, ",67202
"Estate Planning Attorneys,Attorneys",(316) 263-5661,359 S Hydraulic St,Fred A Johnson,KS,"Wichita, ",67211
Attorneys,(888) 280-7005,2628 S Oliver St,Snider & Seiwert,KS,"Wichita, ",67210
"Automobile Accident Attorneys,Attorneys",(316) 448-9834,200 W Douglas Ave Suite 900,Moses & Pate LLC,KS,"Wichita, ",67202
Accident & Property Damage Attorneys,(316) 264-5664,727 N Waco Ave,Franklin Law Office,KS,"Wichita, ",67203
"Probate Law Attorneys,Attorneys",(316) 265-7741,100 N Broadway St,Hite Fanning & Honeyman LLP,KS,"Wichita, ",67202
"Attorneys,Criminal Law Attorneys",(316) 269-4424,1502 N Broadway St,Paine Law Firm LLC,KS,"Wichita, ",67214
Civil Litigation & Trial Law Attorneys,(316) 262-5500,229 E William St,Eron Law PA,KS,"Wichita, ",67202
"Attorneys,Personal Injury Law Attorneys",(316) 262-2671,300 N Mead St Suite 200,Morris Laing Evans Brock & Kennedy Chartered,KS,"Wichita, ",67202
"Attorneys,Business Law Attorneys",(316) 265-4222,555 N Woodlawn St Suite 110,Arst & Arst PA,KS,"Wichita, ",67208
"Family Law Attorneys,Attorneys",(316) 262-7224,310 W Central Ave Ste 106,Harris Law Office,KS,"Wichita, ",67202
"Attorneys,Transportation Law Attorneys",(316) 269-3200,221 S.Broadway Suite 501,S A Tim Scimeca,KS,"Wichita, ",67202
"Divorce Assistance,Attorneys",(316) 264-1900,212 N Market St,Bernhardt Gregory L,KS,"Wichita, ",67202
,(316) 347-7872,212 N Market St,,KS,"Wichita, ",67202
,(316) 262-5500,229 E William St,,KS,"Wichita, ",67202
,(316) 448-8745,301 N Market St,,KS,"Wichita, ",67202
,(316) 283-7490,111 E 7th St,,KS,"Newton, ",67114
,(316) 269-2500,310 W Central Ave,,KS,"Wichita, ",67202
,(316) 942-8400,6235 W Kellogg Dr,,KS,"Wichita, ",67209
,(316) 217-8394,727 N Waco Ave,,KS,"Wichita, ",67203
,(888) 659-7710,,,,,
,(316) 687-2400,245 N Waco St,,KS,"Wichita, ",67202
,(316) 264-3333,300 W Douglas Ave Suite 230,,KS,"Wichita, ",67202
,(316) 263-7596,310 W Central Ave,,KS,"Wichita, ",67202
,(316) 263-5661,359 S Hydraulic St,,KS,"Wichita, ",67211
,(316) 633-4533,1721 E Osage Rd,,KS,"Derby, ",67037
,(316) 768-8107,200 W Douglas Ave Suite 900,,KS,"Wichita, ",67202
,(888) 280-7005,2628 S Oliver St,,KS,"Wichita, ",67210
,(316) 262-5500,229 E William St,,KS,"Wichita, ",67202
,(316) 269-4424,1502 N Broadway St,,KS,"Wichita, ",67214
,(316) 688-1166,8100 E 22nd St N Bldg 1200,,KS,"Wichita, ",67226
,(316) 265-4222,555 N Woodlawn St Suite 110,,KS,"Wichita, ",67208
,(316) 265-7741,100 N Broadway St,,KS,"Wichita, ",67202
,(316) 749-2429,928 S Broadway St,,KS,"Wichita, ",67211
,(316) 262-2671,300 N Mead St Suite 200,,KS,"Wichita, ",67202
,(316) 264-5664,727 N Waco Ave,,KS,"Wichita, ",67203
,(316) 452-5640,218 W Central Ave Suite A,,KS,"El Dorado, ",67042
,(316) 262-7224,310 W Central Ave Ste 106,,KS,"Wichita, ",67202
,(316) 269-3200,221 S.Broadway Suite 501,,KS,"Wichita, ",67202
Transportation Law Attorneys,(661) 430-6508,,Law Office of Edward S. Orchon,,,
"Patent, Trademark & Copyright Law...",(703) 740-8322,,Maier & Maier PLLC,,,
Social Security Consultants...,(208) 954-8252,,Social Security Disability Advisors,,,
Transportation Law Attorneys,(330) 757-6670,,TVC Pro Driver,,,
"Litigation Support Services,Paralegals",(646) 580-4104,,Divorce & Family Law Paralegals,,,
"Legal Clinics,Foreclosure Services",(866) 531-6309,,Legal Aid Legal Service,,,
Accident & Property Damage Attorneys,(620) 662-3435,,Bretz & Young Injury Attorneys,,,
Accident & Property Damage Attorneys,(855) 820-9854,,Personalinjury.org,,,
Attorneys,(316) 685-2245,1861 N Rock Rd,"Lee, Gurney & Hess",KS,"Wichita, ",67206
"Divorce Attorneys,Attorneys",(316) 747-9941,273851 W 17th St N,Total Attorneys - Divorce,KS,"Wichita, ",67212
"Attorneys,Legal Service Plans",(316) 742-0931,274211 Fairmount St,Total Attorneys - Personal Injury,KS,"Wichita, ",67260
Family Law Attorneys,(316) 655-1583,PO Box 161113,Versatile Networking,KS,"Wichita, ",67216
Social Security & Disability Law...,(316) 262-6800,727 N Waco Ave,"Hammond, Zongker & Farris LLC",KS,"Wichita, ",67203
Attorneys,(316) 267-9892,345 N Riverview St,"Dennis, L Phelps",KS,"Wichita, ",67203
"Estate Planning, Probate, & Living...",(316) 303-0100,200 W Douglas Ave Ste 900,Case Moses & Zimmerman Pa,KS,"Wichita, ",67202
Attorneys,(316) 262-5500,229 E William St,Cassell Joseph H,KS,"Wichita, ",67202
"Attorneys,Criminal Law Attorneys",(316) 269-4424,1502 N Broadway St,Paine Law Firm LLC,KS,"Wichita, ",67214
"Attorneys,Family Law Attorneys",(316) 945-8251,2121 W Maple St,Carl B Davis,KS,"Wichita, ",67213
"Attorneys,Bankruptcy Services",(316) 945-8251,2121 W Maple St,"Davis, Rick F C II",KS,"Wichita, ",67213
"Bankruptcy Services,Attorneys",(316) 267-8677,300 W Douglas Ave,"Milby, Dana Manweiler PA",KS,"Wichita, ",67202
"Patent, Trademark & Copyright Law...",(316) 945-8251,2121 W Maple St,Jack Kenneth H,KS,"Wichita, ",67213
"Attorneys,Legal Service Plans",(316) 263-7857,404 E Central Ave,Holubec & Loy,KS,"Wichita, ",67202
"Attorneys,Business Law Attorneys",(316) 264-7321,301 N Main St,Cole Tracy A,KS,"Wichita, ",67202
"Attorneys,Legal Service Plans",(316) 265-7741,100 N Broadway St,Lomas Rachel E,KS,"Wichita, ",67202
"Attorneys,General Practice Attorneys",(316) 262-5852,1041 N Waco Ave,The Law Offices of John B Sullivan,KS,"Wichita, ",67203
"Attorneys,Legal Service Plans",(316) 269-4343,200 W Douglas Ave,Kahrs Law Offices P A,KS,"Wichita, ",67202
Attorneys,(316) 264-0211,"129 E 2nd St N Wichita, Ks. 67202",Bankruptcy and Social Security Attorney,KS,"Wichita, ",67202
Attorneys,(316) 265-7841,129 E 2nd St N,Julie Ariagno Law Office,KS,"Wichita, ",67202
Attorneys,(316) 267-0331,301 N Main St,"Gilliam, John B, JD",KS,"Wichita, ",67202
Attorneys,(316) 440-7773,300 N Main St # 202,"Lois, Lynn",KS,"Wichita, ",67202
,(316) 448-8745,301 N Market St,,KS,"Wichita, ",67202
,(316) 347-7872,212 N Market St,,KS,"Wichita, ",67202
,(316) 283-7490,111 E 7th St,,KS,"Newton, ",67114
,(316) 262-5500,229 E William St,,KS,"Wichita, ",67202
,,,,,,
"Bankruptcy Services,Divorce Assistance",(316) 265-7272,727 N Waco Ave,"Rupper, James P",KS,"Wichita, ",67203
"Attorneys,Legal Service Plans",(316) 267-1562,200 W Douglas Ave,"Withers Gough Pike Pfaff & Peterson, LLC",KS,"Wichita, ",67202
Criminal Law Attorneys,(316) 261-8777,209 E E. William Ste 103,A M Law LLC.,KS,"Wichita, ",67202
Social Service Organizations,(316) 265-5289,1831 N Woodrow Ave,Adoption Centre of Kansas,KS,"Wichita, ",67203
"Attorneys,Legal Service Plans",(316) 264-0146,3330 W Douglas Ave,Carson Elizabeth,KS,"Wichita, ",67203
Attorneys,(316) 260-9720,1938 N Woodlawn St Ste 405,"Brown, Dengler & O'Brien LLC",KS,"Wichita, ",67208
"Landlord & Tenant Attorneys,Attorneys",(316) 267-6711,445 N Waco St,Holmes Kurt A,KS,"Wichita, ",67202
"Divorce Attorneys,Attorneys",(316) 265-7288,727 N Waco Ave,Elaine Reddick Law Office,KS,"Wichita, ",67203
"Bankruptcy Law Attorneys,Attorneys",(316) 262-5500,229 E William St,Zimmerman William H.,KS,"Wichita, ",67202
Civil Litigation & Trial Law Attorneys,(316) 269-4343,Box 780487 PO.,Kahrs Law Offices P.A.,KS,"Wichita, ",67278
Business Bankruptcy Law Attorneys,(316) 264-0146,,"Carson, Elizabeth",KS,"Wichita, ",67203
"Check Recovery & Verification,Attorneys",(888) 794-7325,,Recheck Inc,KS,"Wichita, ",67278
Global Positioning Equipment & Systems,(316) 265-6453,705 N Broadway St,Big Mike's Bail Bonds,KS,"Wichita, ",67214
Attorneys,(316) 283-7490,111 E 7th St,"Loeffler, Kevin",KS,"Newton, ",67114
"Attorneys,Child Custody Attorneys",(316) 633-4533,1721 E Osage Rd,Burrow Law Office,KS,"Derby, ",67037
Attorneys Referral & Information...,(888) 659-7710,,24/7 Legal,,,
"Attorneys,Social Security Services",(800) 305-7063,,Bill Gordon & Associates - Social Security Disability Attorneys,,,
"Attorneys,Criminal Law Attorneys",(877) 623-3533,,TVC Pro Driver,,,
"Attorneys,Legal Service Plans",(316) 452-5640,218 W Central Ave Suite A,James R. Watts,KS,"El Dorado, ",67042
"Tax Attorneys,Attorneys",(888) 474-4033,,AAA Tax Attorneys,,,
"Attorneys,Tax Attorneys",(888) 392-2976,,H & A Tax Relief,,,
"Tax Attorneys,Attorneys",(877) 886-1918,,AAA Tax Relief,,,
Tax Return Preparation-Business,(888) 511-4058,,AAA Tax Relief,,,
Automobile Accident Attorneys,(888) 843-4051,,Attorney Network,,,
Accident & Property Damage Attorneys,(877) 292-1836,,Injury HelpLine®,,,
"Attorneys,Construction Law Attorneys",(866) 224-6187,,The Personal Injury Center,,,
Attorneys,(866) 224-7566,,The Personal Injury Center,,,
"Attorneys,Personal Injury Law Attorneys",(855) 880-6131,,Easily Legal,,,
"Attorneys,Personal Injury Law Attorneys",(877) 229-1643,,eLocal Lawyers,,,
"Personal Injury Law Attorneys,Attorneys",(888) 854-9816,,The Personal Injury Center,,,
,(316) 347-7872,212 N Market St,,KS,"Wichita, ",67202
,(316) 262-5500,229 E William St,,KS,"Wichita, ",67202
,(316) 448-8745,301 N Market St,,KS,"Wichita, ",67202
,(316) 283-7490,111 E 7th St,,KS,"Newton, ",67114
,(855) 880-6131,,,,,
,(888) 854-9816,,,,,
,(866) 867-4704,,,,,
,(877) 229-1643,,,,,
,(888) 386-1853,,,,,
,,,,,,
"Attorneys,Personal Injury Law Attorneys",(888) 625-1346,,Easily Legal,,,
"Attorneys,Personal Injury Law Attorneys",(888) 386-1853,,Auto Accident Attorney's,,,
Accident & Property Damage Attorneys,(866) 632-5150,,Auto Accident Attorney's,,,
"Attorneys,DUI & DWI Attorneys",(877) 817-9135,,Imhoff & Associates,,,
"Attorneys,Domestic Violence Attorneys",(866) 404-0540,,Imhoff & Associates,,,
"Sex Offense Attorneys,Attorneys",(888) 772-8231,,Imhoff & Associates,,,
"Attorneys,Drug Charges Attorneys",(888) 770-8009,,Imhoff & Associates,,,
"Attorneys,Legal Consultants-Medical",(866) 422-1793,,eLocal Lawyers,,,
"Criminal Law Attorneys,Attorneys",(888) 799-7855,,Imhoff & Associates,,,
Attorneys,(316) 265-5329,3024 N Emerson St,Bryan David M.,KS,"Derby, ",67037
"Attorneys,Drug Charges Attorneys",(316) 283-7490,111 E 7th St,"Loeffler, Kevin",KS,"Newton, ",67114
"Tax Attorneys,Attorneys",(888) 775-4470,,Victory Tax Solutions,,,
"Personal Injury Law Attorneys,Attorneys",(866) 867-4704,,Personal Injury Place,,,
"Criminal Law Attorneys,Attorneys",(866) 505-9614,,Imhoff & Associates,,,
"DUI & DWI Attorneys,Attorneys",(888) 770-7340,,Imhoff & Associates,,,
"Drug Charges Attorneys,Attorneys",(888) 769-4079,,Imhoff & Associates,,,
"Sex Offense Attorneys,Attorneys",(866) 451-1420,,Imhoff & Associates,,,
"DUI & DWI Attorneys,Attorneys",(877) 488-1531,,Imhoff & Associates,,,
"Criminal Law Attorneys,Attorneys",(877) 324-9536,,Imhoff & Associates,,,
"Sex Offense Attorneys,Attorneys",(877) 324-8091,,Imhoff & Associates,,,
"Drug Charges Attorneys,Attorneys",(877) 488-1526,,Imhoff & Associates,,,
"Attorneys,Criminal Law Attorneys",(877) 345-8879,,The DUI Attorney,,,
Attorneys,(800) 336-0086,,"Early, Lucarelli, Sweeney & Meisenkothen, L.L.C.",,,
Tax Attorneys,(800) 525-6059,,US Tax Shield,,,
"Patent, Trademark & Copyright Law...",(856) 266-5145,,IP Legal Services,,,
"Attorneys,Personal Injury Law Attorneys",(877) 787-2334,,CALIFORNIA & NATIONWIDE TRAFFIC TICKET DEFENDERS,,,
"Criminal Law Attorneys,Attorneys",(316) 686-1519,111 N Baltimore Ave,"Sevart, Mark",KS,"Derby, ",67037
Child Custody Attorneys,(316) 804-4990,111 E 7th St,Llamas Law LLC,KS,"Newton, ",67114
Military & Veterans Law Attorneys,(757) 337-4360,,The Law Center: Military & Security Clearance Law,,,
DUI & DWI Attorneys,(805) 456-9778,,California & Nationwide Traffic Ticket Attorneys,,,
,(316) 262-5500,229 E William St,,KS,"Wichita, ",67202
,(316) 283-7490,111 E 7th St,,KS,"Newton, ",67114
,(316) 448-8745,301 N Market St,,KS,"Wichita, ",67202
,(316) 347-7872,212 N Market St,,KS,"Wichita, ",67202
,,,,,,
"Attorneys,Drug Charges Attorneys",(316) 264-2800,200 W Douglas Ave,Monnat & Spurrier,KS,"Wichita, ",67202
"Attorneys,Legal Service Plans",(316) 267-2229,330 N Main St,"Bertholf, Clifford L",KS,"Wichita, ",67202
"Attorneys,Bankruptcy Services",(316) 448-8709,727 N Waco Ave,Rupper James P.,KS,"Wichita, ",67203
Social Security & Disability Law...,(316) 265-6795,110 E Waterman St,David H M Gray Attorney,KS,"Wichita, ",67202
Attorneys,(316) 264-4417,609 N Broadway St,Gillard Cohen Law Office,KS,"Wichita, ",67214
"Attorneys,Legal Service Plans",(316) 267-4300,345 N Riverview St Suite #700,"Collins, Kent",KS,"Wichita, ",67203
"Attorneys,General Practice Attorneys",(316) 265-7667,421 E 3rd St N,Law Offices of William J. Fields,KS,"Wichita, ",67202
"Attorneys,Family Law Attorneys",(316) 265-9480,245 N Waco St,David L Hiebert,KS,"Wichita, ",67202
Criminal Law Attorneys,(316) 269-3477,221 S Broadway St,"House, Stephen J.",KS,"Wichita, ",67202
"Estate Planning Attorneys,Attorneys",(316) 265-0797,545 N Woodlawn St,Robert Minter,KS,"Wichita, ",67208
"Attorneys,Adoption Services",(316) 262-1880,1005 N Market St,The Law Office Of Pamela Thompson,KS,"Wichita, ",67214
"Attorneys,General Practice Attorneys",(316) 267-2315,200 W Douglas Ave Ste 600,Scott B. Poor & Associates,KS,"Wichita, ",67202
"Attorneys,Legal Service Plans",(316) 262-4000,8301 E 21st St N,Depew Gillen Rathburn & McInteer LLC,KS,"Wichita, ",67206
"Patent, Trademark & Copyright Law...",(316) 945-8251,2121 W Maple St,"Jack, Kenneth H.",KS,"Wichita, ",67213
"Divorce Attorneys,Attorneys",(316) 945-8251,2121 W Maple St,"Davis, Rick F C II",KS,"Wichita, ",67213
Business Bankruptcy Law Attorneys,(316) 945-8251,2121 W Maple St,Davis Carl B.,KS,"Wichita, ",67213
"Attorneys,Tax Attorneys",(316) 265-7723,727 N Waco Ave Suite 275,"English Joe G, Atty",KS,"Wichita, ",67203
Social Security & Disability Law...,(888) 818-0555,4601 E Douglas Ave,"Tilton & Tilton, Chtd",KS,"Wichita, ",67218
"Attorneys,Family Law Attorneys",(316) 265-8383,830 N Main St,Dwyer R Suzanne Attorney at Law,KS,"Wichita, ",67203
Estate Planning Attorneys,(316) 265-2227,310 W Central Ave,"Law Office of Cathleen A Gulledge, LLC Cathleen A Gulledge MBA, CPA, JD, LLM Tax",KS,"Wichita, ",67202
"Automobile Accident Attorneys,Attorneys",(316) 689-8035,2831 E Central Ave,Pistotnik Law Offices,KS,"Wichita, ",67214
"Estate Planning Attorneys,Attorneys",(316) 265-6300,151 S Whittier St,"Wiebe, Cal",KS,"Wichita, ",67207
"Attorneys,Bankruptcy Law Attorneys",(316) 262-7696,345 N Riverview St,Law Offices Of Don C Astle,KS,"Wichita, ",67203
"Attorneys,Bankruptcy Law Attorneys",(866) 948-1182,,"Kahrs Law Offices, P. A.",KS,"Wichita, ",67278
"Divorce Attorneys,Attorneys",(316) 263-8844,305 W Central Ave,Dennis Molamphy,KS,"Wichita, ",67202
"Attorneys,Bankruptcy Law Attorneys",(316) 263-6895,3500 Suite B N Rock Rd,"Lazzo, Mark",KS,"Wichita, ",67226
"Bankruptcy Law Attorneys,Attorneys",(316) 263-6500,310 W Central Ave,Broc E Whitehead,KS,"Wichita, ",67202
"Attorneys,Legal Service Plans",(316) 264-8810,727 N Waco Ave,"Linn, Larry",KS,"Wichita, ",67203
"Attorneys,Criminal Law Attorneys",(316) 265-2834,609 N Broadway St,"Riley, Don W",KS,"Wichita, ",67214
Legal Service Plans,(316) 771-5018,212 N Market St Suite 509,"Elliott, Shawn Atty",KS,"Wichita, ",67202
,(316) 262-5500,229 E William St,,KS,"Wichita, ",67202
,(316) 347-7872,212 N Market St,,KS,"Wichita, ",67202
,(316) 283-7490,111 E 7th St,,KS,"Newton, ",67114
,(316) 448-8745,301 N Market St,,KS,"Wichita, ",67202
,(316) 262-4481,154 N Emporia St,,KS,"Wichita, ",67202
,(316) 263-5900,310 W Central Ave,,KS,"Wichita, ",67202
,(800) 305-7063,,,,,
,(316) 264-2800,200 W Douglas Ave,,KS,"Wichita, ",67202
,(316) 269-1950,323 N Market St,,KS,"Wichita, ",67202
,(877) 623-3533,,,,,
,(316) 265-6795,110 E Waterman St,,KS,"Wichita, ",67202
,(316) 264-1900,212 N Market St,,KS,"Wichita, ",67202
,(316) 267-2229,330 N Main St,,KS,"Wichita, ",67202
,(316) 219-6173,154 N Emporia St,,KS,"Wichita, ",67202
,(316) 448-8709,727 N Waco Ave,,KS,"Wichita, ",67203
,(316) 265-3390,830 N Main St,,KS,"Wichita, ",67203
,(316) 448-9715,210 N Saint Francis St,,KS,"Wichita, ",67202
,(316) 264-4417,609 N Broadway St,,KS,"Wichita, ",67214
,(316) 267-4300,345 N Riverview St Suite #700,,KS,"Wichita, ",67203
,(316) 265-9480,245 N Waco St,,KS,"Wichita, ",67202
,(316) 265-7667,421 E 3rd St N,,KS,"Wichita, ",67202
,(316) 269-3477,221 S Broadway St,,KS,"Wichita, ",67202
,(316) 265-0797,545 N Woodlawn St,,KS,"Wichita, ",67208
,(316) 262-1880,1005 N Market St,,KS,"Wichita, ",67214
,(316) 283-7490,111 E 7th St,,KS,"Newton, ",67114
,(316) 265-5329,3024 N Emerson St,,KS,"Derby, ",67037
,(316) 262-4000,8301 E 21st St N,,KS,"Wichita, ",67206
,(316) 267-2315,200 W Douglas Ave Ste 600,,KS,"Wichita, ",67202
,(316) 945-8251,2121 W Maple St,,KS,"Wichita, ",67213
,(316) 945-8251,2121 W Maple St,,KS,"Wichita, ",67213
,(316) 945-8251,2121 W Maple St,,KS,"Wichita, ",67213
,,,,,,
,(888) 885-8976,330 W 1st Ave,,KS,"Hutchinson, ",67501
,(316) 747-9941,273851 W 17th St N,,KS,"Wichita, ",67212
,(316) 742-0931,274211 Fairmount St,,KS,"Wichita, ",67260
category,phone,streetAddress,name,addressState,addressCity,addressZip
Attorneys,(316) 749-2429,928 S Broadway St,Hogan Paul Law Office Of,KS,"Wichita, ",67211
Attorneys,(316) 688-1166,8100 E 22nd St N Bldg 1200,Hutton & Hutton,KS,"Wichita, ",67226
Criminal Law Attorneys,(316) 448-8745,301 N Market St,"Philip L. Weiser, Attorney At Law",KS,"Wichita, ",67202
"General Practice Attorneys,Attorneys",(316) 630-8100,2959 N Rock Rd Ste 300,"Triplett Woolf & Garretson, LLC",KS,"Wichita, ",67226
"Criminal Law Attorneys,Attorneys",(316) 219-6173,154 N Emporia St,Law Offices of Michael E. Cleary,KS,"Wichita, ",67202
"Tax Attorneys,Attorneys",(877) 886-1918,,AAA Tax Relief,,,
Tax Return Preparation-Business,(888) 511-4058,,AAA Tax Relief,,,
"Attorneys,Personal Injury Law Attorneys",(855) 880-6131,,Easily Legal,,,
Attorneys,(316) 688-1166,8100 E 22nd St N Bldg 1200,Hutton & Hutton,KS,"Wichita, ",67226
Criminal Law Attorneys,(316) 448-8745,301 N Market St,"Philip L. Weiser, Attorney At Law",KS,"Wichita, ",67202
"General Practice Attorneys,Attorneys",(316) 630-8100,2959 N Rock Rd Ste 300,"Triplett Woolf & Garretson, LLC",KS,"Wichita, ",67226
Attorneys,(316) 749-2429,928 S Broadway St,Hogan Paul Law Office Of,KS,"Wichita, ",67211
"Criminal Law Attorneys,Attorneys",(316) 219-6173,154 N Emporia St,Law Offices of Michael E. Cleary,KS,"Wichita, ",67202
Attorneys,(316) 347-7872,212 N Market St,Shawn Elliott Atty,KS,"Wichita, ",67202
Social Security & Disability Law...,(316) 262-5500,229 E William St,Cassell Joseph H,KS,"Wichita, ",67202
Bankruptcy Services,(316) 264-3333,300 W Douglas Ave Suite 230,Speth & King,KS,"Wichita, ",67202
"Attorneys,Child Custody Attorneys",(316) 262-4481,154 N Emporia St,Cleary Soderberg Wagle & West Law Office,KS,"Wichita, ",67202
General Practice Attorneys,(316) 263-5900,310 W Central Ave,Ortega Law Office,KS,"Wichita, ",67202
"Divorce Attorneys,Attorneys",(316) 448-9715,210 N Saint Francis St,Beall & Mitchell LLC,KS,"Wichita, ",67202
Automobile Accident Attorneys,(316) 687-2400,245 N Waco St,Patterson Legal Group LC,KS,"Wichita, ",67202
"Attorneys,Criminal Law Attorneys",(316) 942-8400,6235 W Kellogg Dr,The Law Office of Michael J Studtmann P.A.,KS,"Wichita, ",67209
"Attorneys,Personal Injury Law Attorneys",(316) 269-2500,310 W Central Ave,Warner Law Offices,KS,"Wichita, ",67202
"Family Law Attorneys,Attorneys",(316) 269-1950,323 N Market St,Floodman Family Law,KS,"Wichita, ",67202
"Legal Service Plans,Attorneys",(316) 265-3390,830 N Main St,G. Knute Fraser,KS,"Wichita, ",67203
"Attorneys,Transportation Law Attorneys",(316) 217-8394,727 N Waco Ave,Hammond Zongker & Farris,KS,"Wichita, ",67203
"Attorneys,Domestic Violence Attorneys",(316) 263-7596,310 W Central Ave,Hulnick Stang & Rapp PA,KS,"Wichita, ",67202
"Estate Planning Attorneys,Attorneys",(316) 263-5661,359 S Hydraulic St,Fred A Johnson,KS,"Wichita, ",67211
Attorneys,(888) 280-7005,2628 S Oliver St,Snider & Seiwert,KS,"Wichita, ",67210
"Automobile Accident Attorneys,Attorneys",(316) 448-9834,200 W Douglas Ave Suite 900,Moses & Pate LLC,KS,"Wichita, ",67202
Accident & Property Damage Attorneys,(316) 264-5664,727 N Waco Ave,Franklin Law Office,KS,"Wichita, ",67203
"Probate Law Attorneys,Attorneys",(316) 265-7741,100 N Broadway St,Hite Fanning & Honeyman LLP,KS,"Wichita, ",67202
"Attorneys,Criminal Law Attorneys",(316) 269-4424,1502 N Broadway St,Paine Law Firm LLC,KS,"Wichita, ",67214
Civil Litigation & Trial Law Attorneys,(316) 262-5500,229 E William St,Eron Law PA,KS,"Wichita, ",67202
"Attorneys,Personal Injury Law Attorneys",(316) 262-2671,300 N Mead St Suite 200,Morris Laing Evans Brock & Kennedy Chartered,KS,"Wichita, ",67202
"Attorneys,Business Law Attorneys",(316) 265-4222,555 N Woodlawn St Suite 110,Arst & Arst PA,KS,"Wichita, ",67208
"Family Law Attorneys,Attorneys",(316) 262-7224,310 W Central Ave Ste 106,Harris Law Office,KS,"Wichita, ",67202
"Attorneys,Transportation Law Attorneys",(316) 269-3200,221 S.Broadway Suite 501,S A Tim Scimeca,KS,"Wichita, ",67202
"Divorce Assistance,Attorneys",(316) 264-1900,212 N Market St,Bernhardt Gregory L,KS,"Wichita, ",67202
,(316) 262-5500,229 E William St,,KS,"Wichita, ",67202
,(316) 448-8745,301 N Market St,,KS,"Wichita, ",67202
,(316) 347-7872,212 N Market St,,KS,"Wichita, ",67202
,(316) 283-7490,111 E 7th St,,KS,"Newton, ",67114
,(316) 269-2500,310 W Central Ave,,KS,"Wichita, ",67202
,(316) 942-8400,6235 W Kellogg Dr,,KS,"Wichita, ",67209
,(316) 217-8394,727 N Waco Ave,,KS,"Wichita, ",67203
,(888) 659-7710,,,,,
,(316) 687-2400,245 N Waco St,,KS,"Wichita, ",67202
,(316) 264-3333,300 W Douglas Ave Suite 230,,KS,"Wichita, ",67202
,(316) 263-7596,310 W Central Ave,,KS,"Wichita, ",67202
,(316) 263-5661,359 S Hydraulic St,,KS,"Wichita, ",67211
,(316) 633-4533,1721 E Osage Rd,,KS,"Derby, ",67037
,(316) 768-8107,200 W Douglas Ave Suite 900,,KS,"Wichita, ",67202
,(888) 280-7005,2628 S Oliver St,,KS,"Wichita, ",67210
,(316) 262-5500,229 E William St,,KS,"Wichita, ",67202
,(316) 269-4424,1502 N Broadway St,,KS,"Wichita, ",67214
,(316) 688-1166,8100 E 22nd St N Bldg 1200,,KS,"Wichita, ",67226
,(316) 265-4222,555 N Woodlawn St Suite 110,,KS,"Wichita, ",67208
,(316) 265-7741,100 N Broadway St,,KS,"Wichita, ",67202
,(316) 749-2429,928 S Broadway St,,KS,"Wichita, ",67211
,(316) 262-2671,300 N Mead St Suite 200,,KS,"Wichita, ",67202
,(316) 264-5664,727 N Waco Ave,,KS,"Wichita, ",67203
,(316) 452-5640,218 W Central Ave Suite A,,KS,"El Dorado, ",67042
,(316) 262-7224,310 W Central Ave Ste 106,,KS,"Wichita, ",67202
,(316) 269-3200,221 S.Broadway Suite 501,,KS,"Wichita, ",67202
Transportation Law Attorneys,(661) 430-6508,,Law Office of Edward S. Orchon,,,
"Patent, Trademark & Copyright Law...",(703) 740-8322,,Maier & Maier PLLC,,,
Social Security Consultants...,(208) 954-8252,,Social Security Disability Advisors,,,
Transportation Law Attorneys,(330) 757-6670,,TVC Pro Driver,,,
"Litigation Support Services,Paralegals",(646) 580-4104,,Divorce & Family Law Paralegals,,,
"Legal Clinics,Foreclosure Services",(866) 531-6309,,Legal Aid Legal Service,,,
Accident & Property Damage Attorneys,(620) 662-3435,,Bretz & Young Injury Attorneys,,,
Accident & Property Damage Attorneys,(855) 820-9854,,Personalinjury.org,,,
Attorneys,(316) 685-2245,1861 N Rock Rd,"Lee, Gurney & Hess",KS,"Wichita, ",67206
"Divorce Attorneys,Attorneys",(316) 747-9941,273851 W 17th St N,Total Attorneys - Divorce,KS,"Wichita, ",67212
"Attorneys,Legal Service Plans",(316) 742-0931,274211 Fairmount St,Total Attorneys - Personal Injury,KS,"Wichita, ",67260
Family Law Attorneys,(316) 655-1583,PO Box 161113,Versatile Networking,KS,"Wichita, ",67216
Social Security & Disability Law...,(316) 262-6800,727 N Waco Ave,"Hammond, Zongker & Farris LLC",KS,"Wichita, ",67203
Attorneys,(316) 267-9892,345 N Riverview St,"Dennis, L Phelps",KS,"Wichita, ",67203
"Estate Planning, Probate, & Living...",(316) 303-0100,200 W Douglas Ave Ste 900,Case Moses & Zimmerman Pa,KS,"Wichita, ",67202
Attorneys,(316) 262-5500,229 E William St,Cassell Joseph H,KS,"Wichita, ",67202
"Attorneys,Criminal Law Attorneys",(316) 269-4424,1502 N Broadway St,Paine Law Firm LLC,KS,"Wichita, ",67214
"Attorneys,Family Law Attorneys",(316) 945-8251,2121 W Maple St,Carl B Davis,KS,"Wichita, ",67213
"Attorneys,Bankruptcy Services",(316) 945-8251,2121 W Maple St,"Davis, Rick F C II",KS,"Wichita, ",67213
"Bankruptcy Services,Attorneys",(316) 267-8677,300 W Douglas Ave,"Milby, Dana Manweiler PA",KS,"Wichita, ",67202
"Patent, Trademark & Copyright Law...",(316) 945-8251,2121 W Maple St,Jack Kenneth H,KS,"Wichita, ",67213
"Attorneys,Legal Service Plans",(316) 263-7857,404 E Central Ave,Holubec & Loy,KS,"Wichita, ",67202
"Attorneys,Business Law Attorneys",(316) 264-7321,301 N Main St,Cole Tracy A,KS,"Wichita, ",67202
"Attorneys,Legal Service Plans",(316) 265-7741,100 N Broadway St,Lomas Rachel E,KS,"Wichita, ",67202
"Attorneys,General Practice Attorneys",(316) 262-5852,1041 N Waco Ave,The Law Offices of John B Sullivan,KS,"Wichita, ",67203
"Attorneys,Legal Service Plans",(316) 269-4343,200 W Douglas Ave,Kahrs Law Offices P A,KS,"Wichita, ",67202
Attorneys,(316) 264-0211,"129 E 2nd St N Wichita, Ks. 67202",Bankruptcy and Social Security Attorney,KS,"Wichita, ",67202
Attorneys,(316) 265-7841,129 E 2nd St N,Julie Ariagno Law Office,KS,"Wichita, ",67202
Attorneys,(316) 267-0331,301 N Main St,"Gilliam, John B, JD",KS,"Wichita, ",67202
Attorneys,(316) 440-7773,300 N Main St # 202,"Lois, Lynn",KS,"Wichita, ",67202
,(316) 448-8745,301 N Market St,,KS,"Wichita, ",67202
,(316) 347-7872,212 N Market St,,KS,"Wichita, ",67202
,(316) 262-5500,229 E William St,,KS,"Wichita, ",67202
,(316) 283-7490,111 E 7th St,,KS,"Newton, ",67114
,,,,,,
"Attorneys,Personal Injury Law Attorneys",(888) 625-1346,,Easily Legal,,,
"Attorneys,Personal Injury Law Attorneys",(888) 386-1853,,Auto Accident Attorney's,,,
Accident & Property Damage Attorneys,(866) 632-5150,,Auto Accident Attorney's,,,
"Attorneys,DUI & DWI Attorneys",(877) 817-9135,,Imhoff & Associates,,,
"Attorneys,Domestic Violence Attorneys",(866) 404-0540,,Imhoff & Associates,,,
"Sex Offense Attorneys,Attorneys",(888) 772-8231,,Imhoff & Associates,,,
"Attorneys,Drug Charges Attorneys",(888) 770-8009,,Imhoff & Associates,,,
"Attorneys,Legal Consultants-Medical",(866) 422-1793,,eLocal Lawyers,,,
"Criminal Law Attorneys,Attorneys",(888) 799-7855,,Imhoff & Associates,,,
Attorneys,(316) 265-5329,3024 N Emerson St,Bryan David M.,KS,"Derby, ",67037
"Attorneys,Drug Charges Attorneys",(316) 283-7490,111 E 7th St,"Loeffler, Kevin",KS,"Newton, ",67114
"Tax Attorneys,Attorneys",(888) 775-4470,,Victory Tax Solutions,,,
"Personal Injury Law Attorneys,Attorneys",(866) 867-4704,,Personal Injury Place,,,
"Criminal Law Attorneys,Attorneys",(866) 505-9614,,Imhoff & Associates,,,
"DUI & DWI Attorneys,Attorneys",(888) 770-7340,,Imhoff & Associates,,,
"Drug Charges Attorneys,Attorneys",(888) 769-4079,,Imhoff & Associates,,,
"Sex Offense Attorneys,Attorneys",(866) 451-1420,,Imhoff & Associates,,,
"DUI & DWI Attorneys,Attorneys",(877) 488-1531,,Imhoff & Associates,,,
"Criminal Law Attorneys,Attorneys",(877) 324-9536,,Imhoff & Associates,,,
"Sex Offense Attorneys,Attorneys",(877) 324-8091,,Imhoff & Associates,,,
"Drug Charges Attorneys,Attorneys",(877) 488-1526,,Imhoff & Associates,,,
"Attorneys,Criminal Law Attorneys",(877) 345-8879,,The DUI Attorney,,,
Attorneys,(800) 336-0086,,"Early, Lucarelli, Sweeney & Meisenkothen, L.L.C.",,,
Tax Attorneys,(800) 525-6059,,US Tax Shield,,,
"Patent, Trademark & Copyright Law...",(856) 266-5145,,IP Legal Services,,,
"Attorneys,Personal Injury Law Attorneys",(877) 787-2334,,CALIFORNIA & NATIONWIDE TRAFFIC TICKET DEFENDERS,,,
"Criminal Law Attorneys,Attorneys",(316) 686-1519,111 N Baltimore Ave,"Sevart, Mark",KS,"Derby, ",67037
Child Custody Attorneys,(316) 804-4990,111 E 7th St,Llamas Law LLC,KS,"Newton, ",67114
Military & Veterans Law Attorneys,(757) 337-4360,,The Law Center: Military & Security Clearance Law,,,
DUI & DWI Attorneys,(805) 456-9778,,California & Nationwide Traffic Ticket Attorneys,,,
,(316) 283-7490,111 E 7th St,,KS,"Newton, ",67114
,(316) 262-5500,229 E William St,,KS,"Wichita, ",67202
,(316) 448-8745,301 N Market St,,KS,"Wichita, ",67202
,(316) 347-7872,212 N Market St,,KS,"Wichita, ",67202
,,,,,,
"Bankruptcy Services,Divorce Assistance",(316) 265-7272,727 N Waco Ave,"Rupper, James P",KS,"Wichita, ",67203
"Attorneys,Legal Service Plans",(316) 267-1562,200 W Douglas Ave,"Withers Gough Pike Pfaff & Peterson, LLC",KS,"Wichita, ",67202
Criminal Law Attorneys,(316) 261-8777,209 E E. William Ste 103,A M Law LLC.,KS,"Wichita, ",67202
Social Service Organizations,(316) 265-5289,1831 N Woodrow Ave,Adoption Centre of Kansas,KS,"Wichita, ",67203
"Attorneys,Legal Service Plans",(316) 264-0146,3330 W Douglas Ave,Carson Elizabeth,KS,"Wichita, ",67203
Attorneys,(316) 260-9720,1938 N Woodlawn St Ste 405,"Brown, Dengler & O'Brien LLC",KS,"Wichita, ",67208
"Landlord & Tenant Attorneys,Attorneys",(316) 267-6711,445 N Waco St,Holmes Kurt A,KS,"Wichita, ",67202
"Divorce Attorneys,Attorneys",(316) 265-7288,727 N Waco Ave,Elaine Reddick Law Office,KS,"Wichita, ",67203
"Bankruptcy Law Attorneys,Attorneys",(316) 262-5500,229 E William St,Zimmerman William H.,KS,"Wichita, ",67202
Civil Litigation & Trial Law Attorneys,(316) 269-4343,Box 780487 PO.,Kahrs Law Offices P.A.,KS,"Wichita, ",67278
Business Bankruptcy Law Attorneys,(316) 264-0146,,"Carson, Elizabeth",KS,"Wichita, ",67203
"Check Recovery & Verification,Attorneys",(888) 794-7325,,Recheck Inc,KS,"Wichita, ",67278
Global Positioning Equipment & Systems,(316) 265-6453,705 N Broadway St,Big Mike's Bail Bonds,KS,"Wichita, ",67214
Attorneys,(316) 283-7490,111 E 7th St,"Loeffler, Kevin",KS,"Newton, ",67114
"Attorneys,Child Custody Attorneys",(316) 633-4533,1721 E Osage Rd,Burrow Law Office,KS,"Derby, ",67037
Attorneys Referral & Information...,(888) 659-7710,,24/7 Legal,,,
"Attorneys,Social Security Services",(800) 305-7063,,Bill Gordon & Associates - Social Security Disability Attorneys,,,
"Attorneys,Criminal Law Attorneys",(877) 623-3533,,TVC Pro Driver,,,
"Attorneys,Legal Service Plans",(316) 452-5640,218 W Central Ave Suite A,James R. Watts,KS,"El Dorado, ",67042
"Tax Attorneys,Attorneys",(888) 474-4033,,AAA Tax Attorneys,,,
"Attorneys,Tax Attorneys",(888) 392-2976,,H & A Tax Relief,,,
"Tax Attorneys,Attorneys",(877) 886-1918,,AAA Tax Relief,,,
Tax Return Preparation-Business,(888) 511-4058,,AAA Tax Relief,,,
Automobile Accident Attorneys,(888) 843-4051,,Attorney Network,,,
Accident & Property Damage Attorneys,(877) 292-1836,,Injury HelpLine®,,,
"Attorneys,Construction Law Attorneys",(866) 224-6187,,The Personal Injury Center,,,
Attorneys,(866) 224-7566,,The Personal Injury Center,,,
"Attorneys,Personal Injury Law Attorneys",(855) 880-6131,,Easily Legal,,,
"Attorneys,Personal Injury Law Attorneys",(877) 229-1643,,eLocal Lawyers,,,
"Personal Injury Law Attorneys,Attorneys",(888) 854-9816,,The Personal Injury Center,,,
,(316) 283-7490,111 E 7th St,,KS,"Newton, ",67114
,(316) 347-7872,212 N Market St,,KS,"Wichita, ",67202
,(316) 448-8745,301 N Market St,,KS,"Wichita, ",67202
,(316) 262-5500,229 E William St,,KS,"Wichita, ",67202
,(888) 854-9816,,,,,
,(866) 867-4704,,,,,
,(877) 229-1643,,,,,
,,,,,,
"Attorneys,Drug Charges Attorneys",(316) 264-2800,200 W Douglas Ave,Monnat & Spurrier,KS,"Wichita, ",67202
"Attorneys,Legal Service Plans",(316) 267-2229,330 N Main St,"Bertholf, Clifford L",KS,"Wichita, ",67202
"Attorneys,Bankruptcy Services",(316) 448-8709,727 N Waco Ave,Rupper James P.,KS,"Wichita, ",67203
Social Security & Disability Law...,(316) 265-6795,110 E Waterman St,David H M Gray Attorney,KS,"Wichita, ",67202
Attorneys,(316) 264-4417,609 N Broadway St,Gillard Cohen Law Office,KS,"Wichita, ",67214
"Attorneys,Legal Service Plans",(316) 267-4300,345 N Riverview St Suite #700,"Collins, Kent",KS,"Wichita, ",67203
"Attorneys,General Practice Attorneys",(316) 265-7667,421 E 3rd St N,Law Offices of William J. Fields,KS,"Wichita, ",67202
"Attorneys,Family Law Attorneys",(316) 265-9480,245 N Waco St,David L Hiebert,KS,"Wichita, ",67202
Criminal Law Attorneys,(316) 269-3477,221 S Broadway St,"House, Stephen J.",KS,"Wichita, ",67202
"Estate Planning Attorneys,Attorneys",(316) 265-0797,545 N Woodlawn St,Robert Minter,KS,"Wichita, ",67208
"Attorneys,Adoption Services",(316) 262-1880,1005 N Market St,The Law Office Of Pamela Thompson,KS,"Wichita, ",67214
"Attorneys,General Practice Attorneys",(316) 267-2315,200 W Douglas Ave Ste 600,Scott B. Poor & Associates,KS,"Wichita, ",67202
"Attorneys,Legal Service Plans",(316) 262-4000,8301 E 21st St N,Depew Gillen Rathburn & McInteer LLC,KS,"Wichita, ",67206
"Patent, Trademark & Copyright Law...",(316) 945-8251,2121 W Maple St,"Jack, Kenneth H.",KS,"Wichita, ",67213
"Divorce Attorneys,Attorneys",(316) 945-8251,2121 W Maple St,"Davis, Rick F C II",KS,"Wichita, ",67213
Business Bankruptcy Law Attorneys,(316) 945-8251,2121 W Maple St,Davis Carl B.,KS,"Wichita, ",67213
"Attorneys,Tax Attorneys",(316) 265-7723,727 N Waco Ave Suite 275,"English Joe G, Atty",KS,"Wichita, ",67203
Social Security & Disability Law...,(888) 818-0555,4601 E Douglas Ave,"Tilton & Tilton, Chtd",KS,"Wichita, ",67218
"Attorneys,Family Law Attorneys",(316) 265-8383,830 N Main St,Dwyer R Suzanne Attorney at Law,KS,"Wichita, ",67203
Estate Planning Attorneys,(316) 265-2227,310 W Central Ave,"Law Office of Cathleen A Gulledge, LLC Cathleen A Gulledge MBA, CPA, JD, LLM Tax",KS,"Wichita, ",67202
"Automobile Accident Attorneys,Attorneys",(316) 689-8035,2831 E Central Ave,Pistotnik Law Offices,KS,"Wichita, ",67214
"Estate Planning Attorneys,Attorneys",(316) 265-6300,151 S Whittier St,"Wiebe, Cal",KS,"Wichita, ",67207
"Attorneys,Bankruptcy Law Attorneys",(316) 262-7696,345 N Riverview St,Law Offices Of Don C Astle,KS,"Wichita, ",67203
"Attorneys,Bankruptcy Law Attorneys",(866) 948-1182,,"Kahrs Law Offices, P. A.",KS,"Wichita, ",67278
"Divorce Attorneys,Attorneys",(316) 263-8844,305 W Central Ave,Dennis Molamphy,KS,"Wichita, ",67202
"Attorneys,Bankruptcy Law Attorneys",(316) 263-6895,3500 Suite B N Rock Rd,"Lazzo, Mark",KS,"Wichita, ",67226
"Bankruptcy Law Attorneys,Attorneys",(316) 263-6500,310 W Central Ave,Broc E Whitehead,KS,"Wichita, ",67202
"Attorneys,Legal Service Plans",(316) 264-8810,727 N Waco Ave,"Linn, Larry",KS,"Wichita, ",67203
"Attorneys,Criminal Law Attorneys",(316) 265-2834,609 N Broadway St,"Riley, Don W",KS,"Wichita, ",67214
Legal Service Plans,(316) 771-5018,212 N Market St Suite 509,"Elliott, Shawn Atty",KS,"Wichita, ",67202
,(316) 262-5500,229 E William St,,KS,"Wichita, ",67202
,(316) 448-8745,301 N Market St,,KS,"Wichita, ",67202
,(316) 347-7872,212 N Market St,,KS,"Wichita, ",67202
,(316) 283-7490,111 E 7th St,,KS,"Newton, ",67114
,(316) 262-4481,154 N Emporia St,,KS,"Wichita, ",67202
,(316) 263-5900,310 W Central Ave,,KS,"Wichita, ",67202
,(800) 305-7063,,,,,
,(316) 264-2800,200 W Douglas Ave,,KS,"Wichita, ",67202
,(316) 269-1950,323 N Market St,,KS,"Wichita, ",67202
,(877) 623-3533,,,,,
,(316) 265-6795,110 E Waterman St,,KS,"Wichita, ",67202
,(316) 264-1900,212 N Market St,,KS,"Wichita, ",67202
,(316) 267-2229,330 N Main St,,KS,"Wichita, ",67202
,(316) 219-6173,154 N Emporia St,,KS,"Wichita, ",67202
,(316) 448-8709,727 N Waco Ave,,KS,"Wichita, ",67203
,(316) 265-3390,830 N Main St,,KS,"Wichita, ",67203
,(316) 448-9715,210 N Saint Francis St,,KS,"Wichita, ",67202
,(316) 264-4417,609 N Broadway St,,KS,"Wichita, ",67214
,(316) 267-4300,345 N Riverview St Suite #700,,KS,"Wichita, ",67203
,(316) 265-9480,245 N Waco St,,KS,"Wichita, ",67202
,(316) 265-7667,421 E 3rd St N,,KS,"Wichita, ",67202
,(316) 269-3477,221 S Broadway St,,KS,"Wichita, ",67202
,(316) 265-0797,545 N Woodlawn St,,KS,"Wichita, ",67208
,(316) 262-1880,1005 N Market St,,KS,"Wichita, ",67214
,(316) 283-7490,111 E 7th St,,KS,"Newton, ",67114
,(316) 265-5329,3024 N Emerson St,,KS,"Derby, ",67037
,(316) 262-4000,8301 E 21st St N,,KS,"Wichita, ",67206
,(316) 267-2315,200 W Douglas Ave Ste 600,,KS,"Wichita, ",67202
,(316) 945-8251,2121 W Maple St,,KS,"Wichita, ",67213
,(316) 945-8251,2121 W Maple St,,KS,"Wichita, ",67213
,(316) 945-8251,2121 W Maple St,,KS,"Wichita, ",67213
,,,,,,
,(888) 885-8976,330 W 1st Ave,,KS,"Hutchinson, ",67501
,(316) 747-9941,273851 W 17th St N,,KS,"Wichita, ",67212
,(316) 742-0931,274211 Fairmount St,,KS,"Wichita, ",67260
"Attorneys,Legal Service Plans",(316) 261-8777,209 E William St # 103,A M Law,KS,"Wichita, ",67202
"Attorneys,General Practice Attorneys",(316) 262-7770,928 S Broadway St,Law Center For Car Accident,KS,"Wichita, ",67211
Attorneys,(316) 262-8085,1518 N Broadway St,Nguyen Law Office,KS,"Wichita, ",67214
"Criminal Law Attorneys,Attorneys",(316) 262-8900,2324 E Douglas Ave,Lautz Law LLC,KS,"Wichita, ",67214
"Attorneys,Criminal Law Attorneys",(316) 263-5601,1223 E 1st St N,O'Hara & O'Hara Attorneys At Law,KS,"Wichita, ",67214
"Attorneys,Litigation & Tort Attorneys",(316) 267-0331,301 N Main St Ste 1600,Klenda Mitchell Austerman Zuercher,KS,"Wichita, ",67202
Attorneys,(316) 263-8294,301 N Main St,"Arbuckle, Jeffrey D",KS,"Wichita, ",67202
"Attorneys,Legal Service Plans",(316) 267-6800,310 W Central Ave,Richey Keith D,KS,"Wichita, ",67202
Attorneys,(316) 269-1949,200 E 1st St N,Eric C Svoboda Law Office,KS,"Wichita, ",67202
"Attorneys,Legal Service Plans",(316) 219-9290,245 N Waco St,Reeves Kathleen R Atty,KS,"Wichita, ",67202
"Attorneys,Bankruptcy Services",(316) 665-6313,300 W Douglas Ave # 600,Milby Law Offices PA,KS,"Wichita, ",67202
"Attorneys,Bankruptcy Services",(316) 771-7201,4031 E Harry St,Arif Haeri LLP Law Offices,KS,"Wichita, ",67218
Attorneys,(316) 977-9999,"12219 E. Central, Ste. 250","Devaughn James, LLC  Injury Lawyers",KS,"Wichita, ",67206
"Attorneys,Legal Service Plans",(316) 264-1548,129 E 2nd St N,Wichita's Premier DUI Defense Lawyer,KS,"Wichita, ",67202
"Attorneys,Business Law Attorneys",(316) 267-2000,301 N Main St # 2000,Hinkle Elkouri Law Firm,KS,"Wichita, ",67202
"Attorneys,Legal Service Plans",(316) 267-7361,301 N Main St,Fleeson Gooing Coulson & Kitch,KS,"Wichita, ",67202
Attorneys,(316) 267-7361,301 N Main St,"Kitch, Thomas D",KS,"Wichita, ",67202
"Attorneys,Legal Service Plans",(316) 267-9892,608 N Broadway St,"Dennis, L Phelps",KS,"Wichita, ",67214
"Attorneys,Legal Service Plans",(316) 262-8361,245 N Waco St Ste 402,Gilman Patricia A Attorney,KS,"Wichita, ",67202
"Attorneys,Legal Service Plans",(316) 265-7741,100 N Broadway St # 950,Parks Linda S,KS,"Wichita, ",67202
Accident & Property Damage Attorneys,(316) 303-1775,"200 W. Douglas, Ste. 619","Tamara Pistotnik Collins, Attorney at Law L.L.C.",KS,"Wichita, ",67202
"Attorneys,Real Estate Attorneys",(316) 263-5851,300 W Douglas Ave,Mcdonald Tinker Skare Quinn,KS,"Wichita, ",67202
Attorneys,(316) 263-5851,300 W Douglas Ave # 500,Foster Richard,KS,"Wichita, ",67202
Attorneys,(316) 247-6676,300 N Mead St # 200,"Guenthner, Robert I",KS,"Wichita, ",67202
"Divorce Assistance,Attorneys",(316) 262-2331,1502 N Broadway St,ACE Accidental Criminal & Employment Law,KS,"Wichita, ",67214
Attorneys,(316) 689-4265,111 S Whittier St,Allen M Hickey Law Office,KS,"Wichita, ",67207
"Attorneys,Business Law Attorneys",(316) 688-1166,8100 E 22nd St N,"Hutton, Mark B, JD",KS,"Wichita, ",67226
Attorneys,(316) 686-4196,8100 E 22nd St N,Foulston Law Office Attorneys,KS,"Wichita, ",67226
Attorneys,(316) 267-6371,1551 N Waterfront Pkwy,Foulston Siefkin LLP,KS,"Wichita, ",67206
Attorneys,(316) 267-6371,1551 N Waterfront Pkwy # 100,Wood II William R,KS,"Wichita, ",67206
,(316) 283-7490,111 E 7th St,,KS,"Newton, ",67114
,(316) 448-8745,301 N Market St,,KS,"Wichita, ",67202
,(316) 262-5500,229 E William St,,KS,"Wichita, ",67202
,(316) 347-7872,212 N Market St,,KS,"Wichita, ",67202
,,,,,,
Attorneys,(316) 263-7596,310 W Central Ave # 111,Hulnick Leslie F,KS,"Wichita, ",67202
"Attorneys,General Practice Attorneys",(316) 262-3741,510 N Topeka St,Kelly Law Offices,KS,"Wichita, ",67214
Attorneys,(316) 633-4103,510 N Topeka St # 302,Williamson Law Fim,KS,"Wichita, ",67214
"Attorneys,Legal Service Plans",(316) 262-4266,212 N Market St,Sickmann Ronald J,KS,"Wichita, ",67202
Attorneys,(316) 265-1247,200 N Broadway St,Lawyer Advice Line,KS,"Wichita, ",67202
Attorneys,(316) 265-1247,200 N Broadway St # 500,Sullivan Rhonda,KS,"Wichita, ",67202
"Attorneys,Legal Service Plans",(316) 265-7272,727 N Waco Ave,Small Linda,KS,"Wichita, ",67203
Attorneys,(316) 665-7020,727 N Waco Ave,"Doran, Janice",KS,"Wichita, ",67203
"Attorneys,Legal Service Plans",(316) 263-4958,245 N Waco St,Singer Anthony,KS,"Wichita, ",67202
"Attorneys,Legal Service Plans",(316) 262-7696,345 N Riverview St # 730,Maksimowicz Sheila C,KS,"Wichita, ",67203
Attorneys,(316) 263-3841,345 N Riverview St # 500,"Click, Teresa, JD",KS,"Wichita, ",67203
"Attorneys,Legal Service Plans",(316) 265-4222,515 Commerce Bank Ctr,Arst David G,KS,"Wichita, ",67202
"Attorneys,Legal Service Plans",(316) 267-2091,100 N Main St,Gilmore And Bell Pc,KS,"Wichita, ",67202
"Attorneys,Legal Service Plans",(316) 262-4481,154 N Emporia St,West Karen Barry Law Office,KS,"Wichita, ",67202
Attorneys,(316) 263-5851,300 W Douglas Ave # 500,Hill Jennifer M,KS,"Wichita, ",67202
"Attorneys,Legal Service Plans",(316) 263-0987,300 N Mead St # 200,"Hoefer, Gladys",KS,"Wichita, ",67202
Attorneys,(316) 247-6676,300 N Mead St # 200,"Bonifas, Kimberly K, JD",KS,"Wichita, ",67202
Attorneys,(316) 685-1747,622 E Douglas Ave,Edward Hund Law,KS,"Wichita, ",67202
Attorneys,(316) 682-8500,218 N Mosley St,"Brennan, John, JD",KS,"Wichita, ",67202
Attorneys,(316) 263-3700,322 S Mosley St,"Shaneyfelt, Laura, JD",KS,"Wichita, ",67202
"Attorneys,Legal Service Plans",(316) 681-4432,151 S Whittier St,McEnulty Sean,KS,"Wichita, ",67207
"Attorneys,Legal Service Plans",(316) 651-5757,7701 E Kellogg Dr,Joseph Alan,KS,"Wichita, ",67207
Attorneys,(316) 688-1166,8100 E 22nd St N,"McIlhenny, Deborah B",KS,"Wichita, ",67226
"Attorneys,Legal Service Plans",(316) 262-4000,8301 E 21st St N # 450,Vining Kimberly A,KS,"Wichita, ",67206
"Attorneys,General Practice Attorneys",(316) 721-5500,940 N Tyler Rd Suite 206,Dugan & Dugan,KS,"Wichita, ",67212
Attorneys,(316) 773-6800,1660 N Tyler Rd,Myers Jess,KS,"Wichita, ",67212
Attorneys,(316) 636-9500,3500 N Rock Rd,Brave Law Firm,KS,"Wichita, ",67226
Attorneys,(316) 265-9311,"100 N Broadway St., Suite 500","Martin, Pringle, Oliver, Wallace & Bauer, LLP",KS,"Wichita, ",67202
"Attorneys,Legal Service Plans",(316) 267-2402,500 N Market St,Horvath Jay G,KS,"Wichita, ",67214
"Attorneys,General Practice Attorneys",(316) 264-1548,129 E 2nd St N,Cummings & Cummings,KS,"Wichita, ",67202
,(316) 283-7490,111 E 7th St,,KS,"Newton, ",67114
,(316) 448-8745,301 N Market St,,KS,"Wichita, ",67202
,(316) 262-5500,229 E William St,,KS,"Wichita, ",67202
,(316) 347-7872,212 N Market St,,KS,"Wichita, ",67202
,,,,,,
Attorneys,(316) 749-2429,928 S Broadway St,Hogan Paul Law Office Of,KS,"Wichita, ",67211
Attorneys,(316) 688-1166,8100 E 22nd St N Bldg 1200,Hutton & Hutton,KS,"Wichita, ",67226
Criminal Law Attorneys,(316) 448-8745,301 N Market St,"Philip L. Weiser, Attorney At Law",KS,"Wichita, ",67202
"General Practice Attorneys,Attorneys",(316) 630-8100,2959 N Rock Rd Ste 300,"Triplett Woolf & Garretson, LLC",KS,"Wichita, ",67226
"Criminal Law Attorneys,Attorneys",(316) 219-6173,154 N Emporia St,Law Offices of Michael E. Cleary,KS,"Wichita, ",67202
"Tax Attorneys,Attorneys",(877) 886-1918,,AAA Tax Relief,,,
Tax Return Preparation-Business,(888) 511-4058,,AAA Tax Relief,,,
"Attorneys,Personal Injury Law Attorneys",(855) 880-6131,,Easily Legal,,,
Attorneys,(316) 688-1166,8100 E 22nd St N Bldg 1200,Hutton & Hutton,KS,"Wichita, ",67226
Criminal Law Attorneys,(316) 448-8745,301 N Market St,"Philip L. Weiser, Attorney At Law",KS,"Wichita, ",67202
"General Practice Attorneys,Attorneys",(316) 630-8100,2959 N Rock Rd Ste 300,"Triplett Woolf & Garretson, LLC",KS,"Wichita, ",67226
Attorneys,(316) 749-2429,928 S Broadway St,Hogan Paul Law Office Of,KS,"Wichita, ",67211
"Criminal Law Attorneys,Attorneys",(316) 219-6173,154 N Emporia St,Law Offices of Michael E. Cleary,KS,"Wichita, ",67202
Attorneys,(316) 347-7872,212 N Market St,Shawn Elliott Atty,KS,"Wichita, ",67202
Social Security & Disability Law...,(316) 262-5500,229 E William St,Cassell Joseph H,KS,"Wichita, ",67202
Bankruptcy Services,(316) 264-3333,300 W Douglas Ave Suite 230,Speth & King,KS,"Wichita, ",67202
"Attorneys,Child Custody Attorneys",(316) 262-4481,154 N Emporia St,Cleary Soderberg Wagle & West Law Office,KS,"Wichita, ",67202
General Practice Attorneys,(316) 263-5900,310 W Central Ave,Ortega Law Office,KS,"Wichita, ",67202
"Divorce Attorneys,Attorneys",(316) 448-9715,210 N Saint Francis St,Beall & Mitchell LLC,KS,"Wichita, ",67202
Automobile Accident Attorneys,(316) 687-2400,245 N Waco St,Patterson Legal Group LC,KS,"Wichita, ",67202
"Attorneys,Criminal Law Attorneys",(316) 942-8400,6235 W Kellogg Dr,The Law Office of Michael J Studtmann P.A.,KS,"Wichita, ",67209
"Attorneys,Personal Injury Law Attorneys",(316) 269-2500,310 W Central Ave,Warner Law Offices,KS,"Wichita, ",67202
"Family Law Attorneys,Attorneys",(316) 269-1950,323 N Market St,Floodman Family Law,KS,"Wichita, ",67202
"Legal Service Plans,Attorneys",(316) 265-3390,830 N Main St,G. Knute Fraser,KS,"Wichita, ",67203
"Attorneys,Transportation Law Attorneys",(316) 217-8394,727 N Waco Ave,Hammond Zongker & Farris,KS,"Wichita, ",67203
"Attorneys,Domestic Violence Attorneys",(316) 263-7596,310 W Central Ave,Hulnick Stang & Rapp PA,KS,"Wichita, ",67202
"Estate Planning Attorneys,Attorneys",(316) 263-5661,359 S Hydraulic St,Fred A Johnson,KS,"Wichita, ",67211
Attorneys,(888) 280-7005,2628 S Oliver St,Snider & Seiwert,KS,"Wichita, ",67210
"Automobile Accident Attorneys,Attorneys",(316) 448-9834,200 W Douglas Ave Suite 900,Moses & Pate LLC,KS,"Wichita, ",67202
Accident & Property Damage Attorneys,(316) 264-5664,727 N Waco Ave,Franklin Law Office,KS,"Wichita, ",67203
"Probate Law Attorneys,Attorneys",(316) 265-7741,100 N Broadway St,Hite Fanning & Honeyman LLP,KS,"Wichita, ",67202
"Attorneys,Criminal Law Attorneys",(316) 269-4424,1502 N Broadway St,Paine Law Firm LLC,KS,"Wichita, ",67214
Civil Litigation & Trial Law Attorneys,(316) 262-5500,229 E William St,Eron Law PA,KS,"Wichita, ",67202
"Attorneys,Personal Injury Law Attorneys",(316) 262-2671,300 N Mead St Suite 200,Morris Laing Evans Brock & Kennedy Chartered,KS,"Wichita, ",67202
"Attorneys,Business Law Attorneys",(316) 265-4222,555 N Woodlawn St Suite 110,Arst & Arst PA,KS,"Wichita, ",67208
"Family Law Attorneys,Attorneys",(316) 262-7224,310 W Central Ave Ste 106,Harris Law Office,KS,"Wichita, ",67202
"Attorneys,Transportation Law Attorneys",(316) 269-3200,221 S.Broadway Suite 501,S A Tim Scimeca,KS,"Wichita, ",67202
"Divorce Assistance,Attorneys",(316) 264-1900,212 N Market St,Bernhardt Gregory L,KS,"Wichita, ",67202
,(316) 448-8745,301 N Market St,,KS,"Wichita, ",67202
,(316) 283-7490,111 E 7th St,,KS,"Newton, ",67114
,(316) 347-7872,212 N Market St,,KS,"Wichita, ",67202
,(316) 262-5500,229 E William St,,KS,"Wichita, ",67202
,(316) 269-2500,310 W Central Ave,,KS,"Wichita, ",67202
,(316) 942-8400,6235 W Kellogg Dr,,KS,"Wichita, ",67209
,(316) 217-8394,727 N Waco Ave,,KS,"Wichita, ",67203
,(888) 659-7710,,,,,
,(316) 687-2400,245 N Waco St,,KS,"Wichita, ",67202
,(316) 264-3333,300 W Douglas Ave Suite 230,,KS,"Wichita, ",67202
,(316) 263-7596,310 W Central Ave,,KS,"Wichita, ",67202
,(316) 263-5661,359 S Hydraulic St,,KS,"Wichita, ",67211
,(316) 633-4533,1721 E Osage Rd,,KS,"Derby, ",67037
,(316) 768-8107,200 W Douglas Ave Suite 900,,KS,"Wichita, ",67202
,(888) 280-7005,2628 S Oliver St,,KS,"Wichita, ",67210
,(316) 262-5500,229 E William St,,KS,"Wichita, ",67202
,(316) 269-4424,1502 N Broadway St,,KS,"Wichita, ",67214
,(316) 688-1166,8100 E 22nd St N Bldg 1200,,KS,"Wichita, ",67226
,(316) 265-4222,555 N Woodlawn St Suite 110,,KS,"Wichita, ",67208
,(316) 265-7741,100 N Broadway St,,KS,"Wichita, ",67202
,(316) 749-2429,928 S Broadway St,,KS,"Wichita, ",67211
,(316) 262-2671,300 N Mead St Suite 200,,KS,"Wichita, ",67202
,(316) 264-5664,727 N Waco Ave,,KS,"Wichita, ",67203
,(316) 452-5640,218 W Central Ave Suite A,,KS,"El Dorado, ",67042
,(316) 262-7224,310 W Central Ave Ste 106,,KS,"Wichita, ",67202
,(316) 269-3200,221 S.Broadway Suite 501,,KS,"Wichita, ",67202
Attorneys,(316) 262-5175,430 N Market St,"Mcmillan, Calvin",KS,"Wichita, ",67202
Attorneys,(316) 269-2284,205 E Central Ave,"Blanton, Gary L",KS,"Wichita, ",67202
"Attorneys,Criminal Law Attorneys",(316) 262-9393,500 N Market St,Joseph & Hollander,KS,"Wichita, ",67214
Attorneys,(316) 262-9393,500 N Market St,Priddle Michael,KS,"Wichita, ",67214
Attorneys,(316) 262-9393,500 N Market St,Craft Julia,KS,"Wichita, ",67214
Attorneys,(316) 262-9393,500 N Market St,Bach Hang,KS,"Wichita, ",67214
Attorneys,(316) 262-9393,500 N Market St,Joseph Stephen,KS,"Wichita, ",67214
Attorneys,(316) 262-9393,500 N Market St,Reed Ben,KS,"Wichita, ",67214
"Attorneys,General Practice Attorneys",(316) 262-9393,500 N Market St,Hollander Ross atty,KS,"Wichita, ",67214
Attorneys,(316) 262-9393,500 N Market St,Moe Michelle,KS,"Wichita, ",67214
Attorneys,(316) 262-9393,500 N Market St,McPherson Boyd,KS,"Wichita, ",67214
Attorneys,(316) 262-9393,500 N Market St,Robinson Edward,KS,"Wichita, ",67214
Attorneys,(316) 264-7750,353 N Market St,Hodge Ray & Assoc,KS,"Wichita, ",67202
"Attorneys,State Government",(316) 660-5619,525 N Main St,Honorable Mark Vining,KS,"Wichita, ",67203
Attorneys,(316) 383-7281,525 N Main St,Foulston Nola District Attorney,KS,"Wichita, ",67203
Attorneys,(316) 263-0001,532 N Market St,Andersen Donald S,KS,"Wichita, ",67214
Attorneys,(316) 263-0001,532 N Market St,Scott Mark A,KS,"Wichita, ",67214
Attorneys,(316) 263-0001,532 N Market St,Lawyer On The Line,KS,"Wichita, ",67214
"Attorneys,Legal Service Plans",(316) 263-8200,330 N Main St,Greeno E Jay,KS,"Wichita, ",67202
Attorneys,(316) 267-1229,330 N Main St,Just Vernon,KS,"Wichita, ",67202
"Attorneys,Criminal Law Attorneys",(316) 267-4878,330 N Main St,Price Randall J atty,KS,"Wichita, ",67202
Attorneys,(316) 267-2229,330 N Main St,L B Clifford Law Office,KS,"Wichita, ",67202
Attorneys,(316) 267-1229,330 N Main St,"Caro, Frank A",KS,"Wichita, ",67202
"Attorneys,Criminal Law Attorneys",(316) 269-4440,330 N Main St,Saville Danny atty,KS,"Wichita, ",67202
Attorneys,(316) 267-7399,330 N Main St,Foster Sarah M atty,KS,"Wichita, ",67202
"Attorneys,Legal Service Plans",(316) 267-1220,330 N Main St,Robinson Craig G,KS,"Wichita, ",67202
"Attorneys,Criminal Law Attorneys",(316) 265-5511,328 N Main St,Ariagno Kerns Mank & White,KS,"Wichita, ",67202
Attorneys,(316) 265-5511,328 N Main St,"Kerns, Kurt P, JD",KS,"Wichita, ",67202
Attorneys,(316) 265-5511,328 N Main St,"Mank, Steven D, JD",KS,"Wichita, ",67202
"Attorneys,General Practice Attorneys",(316) 265-5511,328 N Main St,Warrior Lawyers,KS,"Wichita, ",67202
,(316) 262-5500,229 E William St,,KS,"Wichita, ",67202
,(316) 448-8745,301 N Market St,,KS,"Wichita, ",67202
,(316) 283-7490,111 E 7th St,,KS,"Newton, ",67114
,(316) 347-7872,212 N Market St,,KS,"Wichita, ",67202
,,,,,,
Attorneys,(316) 263-8762,322 N Main St,Badger Ronald K Law Office of,KS,"Wichita, ",67202
Attorneys,(316) 267-6391,322 N Main St,"Post, Bradley",KS,"Wichita, ",67202
"Attorneys,Criminal Law Attorneys",(316) 267-6393,322 N Main St,Syrios Law Offices,KS,"Wichita, ",67202
Attorneys,(316) 262-4481,323 N Market St,"Turley, Stephen N, JD",KS,"Wichita, ",67202
Attorneys,(316) 269-1950,323 N Market St,American Academy-Matrimonial,KS,"Wichita, ",67202
Attorneys,(316) 269-1950,323 N Market St,Mcallister Sheila Atty,KS,"Wichita, ",67202
Attorneys,(316) 247-8177,320 N Main St # 200,"Cotton, Casey",KS,"Wichita, ",67202
"Personal Injury Law Attorneys,Attorneys",(316) 269-9055,532 N Market St,"Calvert, David P - David P Calvert Pa",KS,"Wichita, ",67214
Attorneys,(316) 350-7271,129 E 2nd St N,Paul Joslin Law,KS,"Wichita, ",67202
"Attorneys,Legal Service Plans",(316) 262-4550,129 E 2nd St N,Cleous Cindy L,KS,"Wichita, ",67202
"Attorneys,Criminal Law Attorneys",(316) 264-9200,129 E 2nd St N,Hawley David,KS,"Wichita, ",67202
Attorneys,(316) 201-1337,129 E 2nd St N,Ariagno Julian,KS,"Wichita, ",67202
"Attorneys,General Practice Attorneys",(316) 267-3933,106 E 2nd St N,Thompson Law Firm,KS,"Wichita, ",67202
Attorneys,(316) 267-3933,106 E 2nd St N,"Petrotta, Deborah A",KS,"Wichita, ",67202
Attorneys,(316) 267-2000,301 N Main St Ste 2000,Elkouri David S Atty,KS,"Wichita, ",67202
Attorneys,(316) 263-8294,301 N Main St # 600,"Schilling, Carson E",KS,"Wichita, ",67202
Attorneys,(316) 267-0331,301 N Main St # 1600,"Domke, Ethan B",KS,"Wichita, ",67202
Attorneys,(316) 263-8294,301 N Main St # 600,"Cobb, William M",KS,"Wichita, ",67202
Attorneys,(316) 267-7361,301 N Main St,"Gordon, Roarke R",KS,"Wichita, ",67202
Attorneys,(316) 267-0331,301 N Main St # 1600,"Parker, Pamela C",KS,"Wichita, ",67202
Attorneys,(316) 267-7361,301 N Main St,"Lasater, Thomas J",KS,"Wichita, ",67202
Attorneys,(316) 267-7361,301 N Main St,"Thompson, Willard B",KS,"Wichita, ",67202
Attorneys,(316) 267-7361,301 N Main St,"Constable, Linda K",KS,"Wichita, ",67202
Attorneys,(316) 263-8294,301 N Main St,"Calvert, Eric V",KS,"Wichita, ",67202
Attorneys,(316) 267-0331,301 N Main St # 1600,"Morris, J Michael",KS,"Wichita, ",67202
Attorneys,(316) 267-2000,301 N Main St,"Snyder, Ipek",KS,"Wichita, ",67202
"Attorneys,Federal Government",(316) 269-6481,301 N Main St # 1200,US Attorney,KS,"Wichita, ",67202
Attorneys,(316) 267-0331,301 N Main St,"Brenwald, Michelle",KS,"Wichita, ",67202
Attorneys,(316) 267-2000,301 N Main St,"Bell, Kim A",KS,"Wichita, ",67202
"Attorneys,General Practice Attorneys",(316) 263-4000,300 N Main St,Robert Cornett Law Office,KS,"Wichita, ",67202
,(316) 283-7490,111 E 7th St,,KS,"Newton, ",67114
,(316) 262-5500,229 E William St,,KS,"Wichita, ",67202
,(316) 448-8745,301 N Market St,,KS,"Wichita, ",67202
,(316) 347-7872,212 N Market St,,KS,"Wichita, ",67202
,,,,,,
Attorneys,(316) 267-0331,301 N Main St # 1600,"Kaplan, Robert W",KS,"Wichita, ",67202
Attorneys,(316) 263-8294,301 N Main St # 600,"Chambers, Kevin D",KS,"Wichita, ",67202
Attorneys,(316) 267-2000,301 N Main St,"Herren, Mitchell L",KS,"Wichita, ",67202
Attorneys,(316) 267-7361,301 N Main St,"Meyerhoff, Kent A",KS,"Wichita, ",67202
Attorneys,(316) 267-7361,301 N Main St,"Seely, David G",KS,"Wichita, ",67202
Attorneys,(316) 267-2000,301 N Main St,"Rutter, Ruhe C",KS,"Wichita, ",67202
Attorneys,(316) 267-7361,301 N Main St,"Cole, Charles E",KS,"Wichita, ",67202
Attorneys,(316) 267-7361,301 N Main St,"Engstrom, Eric",KS,"Wichita, ",67202
Attorneys,(316) 267-7361,301 N Main St,"Stucky, Gregory J",KS,"Wichita, ",67202
Attorneys,(316) 267-7361,301 N Main St,"Gerdes, John R",KS,"Wichita, ",67202
Attorneys,(316) 263-8294,301 N Main St # 600,"Jensen, Scott - Bever Dye",KS,"Wichita, ",67202
Attorneys,(316) 263-8294,301 N Main St # 600,"Larson, Eric J",KS,"Wichita, ",67202
Attorneys,(316) 263-8294,301 N Main St # 600,"Goodwin, Gregg C",KS,"Wichita, ",67202
Attorneys,(316) 267-7361,301 N Main St,"Rider, Calvin D",KS,"Wichita, ",67202
Attorneys,(316) 267-0331,301 N Main St,"Cooper, M Blake",KS,"Wichita, ",67202
Attorneys,(316) 267-7361,301 N Main St,"Bock, Jason R",KS,"Wichita, ",67202
Attorneys,(316) 267-7361,301 N Main St,"Severson, Brooks G",KS,"Wichita, ",67202
Attorneys,(316) 267-7361,301 N Main St,"Tretbar, William P",KS,"Wichita, ",67202
Attorneys,(316) 267-0331,301 N Main St,"Foreman, Samuel R",KS,"Wichita, ",67202
Attorneys,(316) 267-7361,301 N Main St,"Burrus, Adam R",KS,"Wichita, ",67202
Attorneys,(316) 263-8294,301 N Main St,"Hughes, Robert M, JD",KS,"Wichita, ",67202
Attorneys,(316) 267-0331,301 N Main St,"Kusiak, Joslyn M",KS,"Wichita, ",67202
Attorneys,(316) 267-2000,301 N Main St,"White, Brian L",KS,"Wichita, ",67202
Attorneys,(316) 267-7361,301 N Main St Ste 1900,"Penner, Sylvia B",KS,"Wichita, ",67202
Attorneys,(316) 267-2000,301 N Main St,"Counts, Travis",KS,"Wichita, ",67202
Attorneys,(316) 303-1220,300 N Main St,"Wilson, Michael T, JD",KS,"Wichita, ",67202
Attorneys,(316) 267-2000,301 N Main St,Namee Eric S Att,KS,"Wichita, ",67202
Attorneys,(316) 351-7644,300 N Main St,Mckenzie & Associates,KS,"Wichita, ",67202
Attorneys,(316) 263-8294,301 N Main St,"Mangrum, Charles W",KS,"Wichita, ",67202
Attorneys,(316) 267-7361,301 N Main St,"Lawrence, Daniel D",KS,"Wichita, ",67202
Attorneys,(316) 267-2000,301 N Main St,"Smith, Steven P",KS,"Wichita, ",67202
,(316) 448-8745,301 N Market St,,KS,"Wichita, ",67202
,(316) 347-7872,212 N Market St,,KS,"Wichita, ",67202
,(316) 262-5500,229 E William St,,KS,"Wichita, ",67202
,(316) 283-7490,111 E 7th St,,KS,"Newton, ",67114
,,,,,,
Attorneys,(316) 267-7361,301 N Main St,"Campbell, Ron",KS,"Wichita, ",67202
Attorneys,(316) 263-8294,301 N Main St # 600,"Mentzer, Matthew D",KS,"Wichita, ",67202
Attorneys,(316) 263-8294,301 N Main St # 600,"Parkhurst, Eric S",KS,"Wichita, ",67202
Attorneys,(316) 267-0331,301 N Main St,"Eads, Scott A, JD",KS,"Wichita, ",67202
Attorneys,(316) 267-0331,301 N Main St # 1600,"Nelson, Chad S",KS,"Wichita, ",67202
Attorneys,(316) 267-0331,301 N Main St # 1600,"Shadid, Todd E",KS,"Wichita, ",67202
Attorneys,(316) 267-0331,301 N Main St,"Wachtel, John V, JD",KS,"Wichita, ",67202
Attorneys,(316) 267-0331,301 N Main St,"Klenda, Gregory B, JD",KS,"Wichita, ",67202
Attorneys,(316) 267-7361,301 N Main St,"Marchant, Ali N",KS,"Wichita, ",67202
Attorneys,(316) 267-0331,301 N Main St,"Helm, Chastity",KS,"Wichita, ",67202
Attorneys,(316) 267-0331,301 N Main St # 1600,"Steed, David",KS,"Wichita, ",67202
Attorneys,(316) 267-0331,301 N Main St # 1600,Lomas Eric W,KS,"Wichita, ",67202
Attorneys,(316) 263-8294,301 N Main St # 600,Schulte Danielle K,KS,"Wichita, ",67202
Attorneys,(316) 267-7361,301 N Main St,"Townsley, William L",KS,"Wichita, ",67202
Attorneys,(316) 267-7361,301 N Main St,"Healy, Edward J",KS,"Wichita, ",67202
Attorneys,(316) 267-7361,301 N Main St,"Robison, Stephen E",KS,"Wichita, ",67202
Attorneys,(316) 263-8294,301 N Main St # 600,"Boyle, Laci L",KS,"Wichita, ",67202
Attorneys,(316) 264-7321,301 N Main St,"Hanson, James R",KS,"Wichita, ",67202
Attorneys,(316) 267-0331,301 N Main St # 1600,"Vinduska, Christopher",KS,"Wichita, ",67202
Attorneys,(316) 267-0331,301 N Main St # 1600,"Thompson, James A",KS,"Wichita, ",67202
"Attorneys,Immigration Law Attorneys",(316) 267-8100,301 N Main St,Carlos J Nolla-Corretjer,KS,"Wichita, ",67202
Attorneys,(316) 264-7321,301 N Main St,"Marino, Andrew",KS,"Wichita, ",67202
Attorneys,(316) 267-7361,301 N Main St,"Wormhoudt, Gerrit H",KS,"Wichita, ",67202
Attorneys,(316) 267-7361,301 N Main St,"Vix, Lyndon W",KS,"Wichita, ",67202
Attorneys,(316) 267-0331,301 N Main St # 1600,"Herr, Paul C",KS,"Wichita, ",67202
Attorneys,(316) 267-7361,301 N Main St,"Millsap, Charles E",KS,"Wichita, ",67202
Attorneys,(316) 267-7361,301 N Main St,"Stark, Stephen M",KS,"Wichita, ",67202
Attorneys,(316) 263-8294,301 N Main St,"Stahr, Don B, JD",KS,"Wichita, ",67202
Attorneys,(316) 263-8294,301 N Main St,"Robe, R Chris",KS,"Wichita, ",67202
,(316) 262-5500,229 E William St,,KS,"Wichita, ",67202
,(316) 283-7490,111 E 7th St,,KS,"Newton, ",67114
,(316) 448-8745,301 N Market St,,KS,"Wichita, ",67202
,(316) 347-7872,212 N Market St,,KS,"Wichita, ",67202
,,,,,,
Attorneys,(316) 267-2000,301 N Main St,"Tatum, Connie D",KS,"Wichita, ",67202
Attorneys,(316) 267-2000,301 N Main St,"Young, Gregory S",KS,"Wichita, ",67202
Attorneys,(316) 267-2000,301 N Main St,"Liebau, Amy J",KS,"Wichita, ",67202
"Attorneys,General Practice Attorneys",(316) 262-6462,301 N Market St,Sanborn & Sanborn,KS,"Wichita, ",67202
Attorneys,(316) 267-4447,301 N Market St,Edwards Patrick H Atty,KS,"Wichita, ",67202
Attorneys,(800) 864-6289,301 N Market St,Bankruptcy Debt Relief Attorney,KS,"Wichita, ",67202
Attorneys,(316) 264-4878,301 N Market St,"Wagle, M Steven, JD",KS,"Wichita, ",67202
"Attorneys,Legal Service Plans",(316) 263-8882,301 N Market St,Arbuckle Barry L,KS,"Wichita, ",67202
Attorneys,(316) 264-4878,301 N Market St,Ks Bankruptcy Lawyers,KS,"Wichita, ",67202
"Attorneys,Bankruptcy Services",(316) 260-7070,301 N Market St,Weiser Philip L,KS,"Wichita, ",67202
Attorneys,(316) 264-4878,301 N Market St,"M, Steven Wagle Attorney At Law",KS,"Wichita, ",67202
Attorneys,(316) 264-7321,301 N Main St,Maloney Mark R,KS,"Wichita, ",67202
Attorneys,(316) 264-7321,301 N Main St,Stewart Kenneth P,KS,"Wichita, ",67202
Attorneys,(316) 264-7321,301 N Main St,Cunningham Kendall R,KS,"Wichita, ",67202
Attorneys,(316) 264-7321,301 N Main St,Watson Michelle,KS,"Wichita, ",67202
"Attorneys,Legal Service Plans",(316) 265-4248,301 N Main St,Malone Dwire Jones & Thompson,KS,"Wichita, ",67202
Attorneys,(316) 264-7321,301 N Main St,Gibson John H,KS,"Wichita, ",67202
Attorneys,(316) 269-6481,301 N Main St,Department of Justice,KS,"Wichita, ",67202
Attorneys,(316) 267-4447,301 N Market St,A Criminal Law Attorney,KS,"Wichita, ",67202
"Attorneys,Legal Service Plans",(316) 269-2500,310 W Central Ave,Pankratz Anne,KS,"Wichita, ",67202
"Attorneys,Legal Service Plans",(316) 267-2407,310 W Central Ave,Hagan Law Offices,KS,"Wichita, ",67202
Attorneys,(316) 265-4411,310 W Central Ave,"Lazzo, Michael, JD",KS,"Wichita, ",67202
Attorneys,(316) 265-4411,310 W Central Ave,"Roach, Mike",KS,"Wichita, ",67202
"Attorneys,Legal Service Plans",(316) 265-5115,301 W Central Ave,Falk & Associates,KS,"Wichita, ",67202
"Attorneys,General Practice Attorneys",(316) 267-5330,310 W Central Ave # 119,Hepperly Michael D,KS,"Wichita, ",67202
"Attorneys,Legal Service Plans",(316) 265-4411,310 W Central Ave,"Langston, David S",KS,"Wichita, ",67202
"Attorneys,Legal Service Plans",(316) 247-6711,310 W Central Ave,"Pickler, Harold T, JD",KS,"Wichita, ",67202
Attorneys,(316) 263-6111,310 W Central Ave # 104,Zacharias M David,KS,"Wichita, ",67202
Attorneys,(316) 266-4383,310 W Central Ave # 211,Scott Gerard Attorney at Law,KS,"Wichita, ",67202
"Attorneys,Legal Service Plans",(316) 267-2330,310 W Central Ave,Oakman Jolynn,KS,"Wichita, ",67202
,(316) 283-7490,111 E 7th St,,KS,"Newton, ",67114
,(316) 347-7872,212 N Market St,,KS,"Wichita, ",67202
,(316) 448-8745,301 N Market St,,KS,"Wichita, ",67202
,(316) 262-5500,229 E William St,,KS,"Wichita, ",67202
,,,,,,
"Attorneys,Legal Service Plans",(316) 263-7596,310 W Central Ave # 111,"Leavitt, J Matthew, JD",KS,"Wichita, ",67202
"Attorneys,Legal Service Plans",(316) 263-7596,310 W Central Ave # 111,"Gering, C Ryan, JD",KS,"Wichita, ",67202
Attorneys,(316) 263-7596,310 W Central Ave # 111,"Rapp, John E, JD",KS,"Wichita, ",67202
Attorneys,(316) 265-7272,301 W Central Ave,"Clark, Kenneth M",KS,"Wichita, ",67202
Attorneys,(316) 263-7596,310 W Central Ave # 111,"Stang, John E, JD",KS,"Wichita, ",67202
Attorneys,(316) 665-7498,310 W Central Ave,"Warner, Thomas, JD",KS,"Wichita, ",67202
Attorneys,(316) 263-5900,310 W Central Ave,"Engels, Stacy, JD",KS,"Wichita, ",67202
Attorneys,(316) 262-7224,310 W Central Ave,Harrischarlesfatty,KS,"Wichita, ",67202
Attorneys,(316) 263-7820,310 W Central Ave,Loren H Houk Law Offices,KS,"Wichita, ",67202
"Attorneys,Legal Service Plans",(316) 265-5585,301 W Central Ave,Mohr Paul J,KS,"Wichita, ",67202
"Attorneys,Legal Service Plans",(316) 265-5882,310 W Central Ave,Knopp Ted E,KS,"Wichita, ",67202
Attorneys,(316) 263-8844,305 W Central Ave,Kansas Divorce,KS,"Wichita, ",67202
Bankruptcy Law Attorneys,(316) 264-9783,404 E. Central,"Bryan D. Nicholson, Attorney at Law",KS,"Wichita, ",67202
"Attorneys,General Practice Attorneys",(316) 263-7977,404 E Central Ave,Donnelly-Mills Law Office,KS,"Wichita, ",67202
Attorneys,(316) 265-5243,404 E Central Ave,"Helsel, Janet S, JD",KS,"Wichita, ",67202
"Attorneys,Legal Service Plans",(316) 263-2261,421 E 3rd St N,Durrett Robert E,KS,"Wichita, ",67202
Attorneys,(316) 265-7667,421 E 3rd St N,"Fields, W J, JD",KS,"Wichita, ",67202
"Attorneys,Legal Service Plans",(316) 265-2333,608 N Broadway St,Updegraff Martin E,KS,"Wichita, ",67214
"Attorneys,Legal Service Plans",(316) 265-5553,608 N Broadway St,Shelton Jack,KS,"Wichita, ",67214
Attorneys,(316) 269-4038,609 N Broadway St,"Peer, Rodney R, JD",KS,"Wichita, ",67214
Attorneys,(316) 265-5329,608 N Broadway St,"Bryan, David M, JD",KS,"Wichita, ",67214
Attorneys,(316) 308-8281,634 N Broadway St,Estes Law Group,KS,"Wichita, ",67214
"Attorneys,Legal Service Plans",(316) 262-6466,634 N Broadway St,"Treadwell, De Voe, JD",KS,"Wichita, ",67214
"Attorneys,Personal Injury Law Attorneys",(316) 263-4958,257 N Broadway St,"Day, Steven C",KS,"Wichita, ",67202
Attorneys,(316) 265-9537,257 N Broadway St,Pierce Randall H,KS,"Wichita, ",67202
"Attorneys,Legal Service Plans",(316) 440-4635,445 N Waco St,Murphree Brad T,KS,"Wichita, ",67202
"Attorneys,General Practice Attorneys",(316) 269-2284,445 N Waco St,Shultz Law Office,KS,"Wichita, ",67202
"Attorneys,Legal Service Plans",(316) 269-2284,445 N Waco St # 2,Turner Patrick,KS,"Wichita, ",67202
"Attorneys,General Practice Attorneys",(316) 425-5691,445 N Waco St,The Law Office of Michael A Priddle,KS,"Wichita, ",67202
"Attorneys,Personal Injury Law Attorneys",(316) 266-4383,445 N. Waco,"Scott Law, P.A.",KS,"Wichita, ",67202
,(316) 283-7490,111 E 7th St,,KS,"Newton, ",67114
,(316) 448-8745,301 N Market St,,KS,"Wichita, ",67202
,(316) 347-7872,212 N Market St,,KS,"Wichita, ",67202
,(316) 262-5500,229 E William St,,KS,"Wichita, ",67202
,,,,,,
Attorneys,(316) 264-0100,200 N Broadway St # 300,Nas Law,KS,"Wichita, ",67202
Attorneys,(316) 264-0100,200 N Broadway St # 300,Shaneyfelt Laura,KS,"Wichita, ",67202
"Attorneys,Criminal Law Attorneys",(316) 264-0100,200 N Broadway St,Ney & Adams,KS,"Wichita, ",67202
Attorneys,(316) 854-8141,278 N Waco St,"Wiechman, Rocky, JD",KS,"Wichita, ",67202
"Attorneys,Legal Service Plans",(316) 262-5181,155 N Market St,Rhoads Thomas M,KS,"Wichita, ",67202
Attorneys,(316) 308-8281,155 N Market St # 840,Estes Law Group,KS,"Wichita, ",67202
"Attorneys,General Practice Attorneys",(316) 267-4885,155 N Market St,D Law Office,KS,"Wichita, ",67202
"Attorneys,Legal Service Plans",(316) 262-5181,155 N Market St # 1050,Irby Curtis M,KS,"Wichita, ",67202
Attorneys,(316) 262-5181,155 N Market St,"Glaves, Jack",KS,"Wichita, ",67202
Attorneys,(316) 266-4111,155 N Market St,"Bretz, Matt, JD",KS,"Wichita, ",67202
Attorneys,(620) 266-4111,155 N Market St,Bretz & Young Injury Attorneys,KS,"Wichita, ",67202
"Attorneys,Legal Service Plans",(316) 262-5181,155 N Market St,Glaves Irby & Rhoads,KS,"Wichita, ",67202
"Attorneys,General Practice Attorneys",(316) 267-1300,262 N Waco St,Nelson Law Office,KS,"Wichita, ",67202
"Attorneys,General Practice Attorneys",(316) 262-7696,727 N Waco Ave # 210,Astle Law Office,KS,"Wichita, ",67203
"Attorneys,General Practice Attorneys",(316) 265-3390,727 N Waco Ave,"Fraser, Knute G",KS,"Wichita, ",67203
"Attorneys,Legal Service Plans",(316) 263-5267,727 N Waco Ave,Ojile Frank M,KS,"Wichita, ",67203
"Attorneys,Legal Service Plans",(316) 262-2018,727 N Waco Ave,Ingram Verlin A,KS,"Wichita, ",67203
"Attorneys,Legal Service Plans",(316) 263-4921,727 N Waco Ave,Willis Jeffery L,KS,"Wichita, ",67203
Attorneys,(316) 265-7272,727 N Waco Ave Ste 560,Pickler Harold T Atty,KS,"Wichita, ",67203
"Attorneys,Criminal Law Attorneys",(316) 264-2115,727 N Waco Ave,Rocky Wiechman Attorney,KS,"Wichita, ",67203
"Attorneys,Legal Service Plans",(316) 264-3711,727 N Waco Ave,Domitrovic Gerald J,KS,"Wichita, ",67203
Attorneys,(316) 252-1592,727 N Waco Ave,"Zongker, James B, JD",KS,"Wichita, ",67203
Attorneys,(316) 665-7020,727 N Waco Ave,Bankruptcy Lawyer Kansas,KS,"Wichita, ",67203
Attorneys,(316) 686-6825,727 N Waco Ave # 260,Clements Chris A,KS,"Wichita, ",67203
Attorneys,(316) 265-6600,727 N Waco Ave,Lund David,KS,"Wichita, ",67203
Attorneys,(316) 265-6600,727 N Waco Ave # 565,"Dewey, Jeff, JD",KS,"Wichita, ",67203
Attorneys,(316) 281-4183,727 N Waco Ave,Powell Law Offices,KS,"Wichita, ",67203
Attorneys,(316) 265-3390,727 N Waco Ave,"Sublett, Steven R",KS,"Wichita, ",67203
Attorneys,(316) 265-7288,727 N Waco Ave # 145,Brewer Legal,KS,"Wichita, ",67203
Attorneys,(316) 252-1592,727 N Waco Ave # 200,"Hammond, Tom E, JD",KS,"Wichita, ",67203
,(316) 262-5500,229 E William St,,KS,"Wichita, ",67202
,(316) 347-7872,212 N Market St,,KS,"Wichita, ",67202
,(316) 283-7490,111 E 7th St,,KS,"Newton, ",67114
,(316) 448-8745,301 N Market St,,KS,"Wichita, ",67202
,,,,,,
Attorneys,(316) 265-2689,230 N Market St,James Long Law Offices,KS,"Wichita, ",67202
"Attorneys,Legal Service Plans",(316) 269-9432,230 N Market St,Kite J Greg,KS,"Wichita, ",67202
Attorneys,(316) 267-1791,225 N Market St,"Williams, Laurie B, JD",KS,"Wichita, ",67202
"Attorneys,Criminal Law Attorneys",(316) 262-0028,225 N Market St # 100,Kidwell Eric,KS,"Wichita, ",67202
Attorneys,(316) 263-2469,225 N Market St # 200,Kirk Karin,KS,"Wichita, ",67202
Attorneys,(316) 267-1900,225 N Market St,Gagne Leah,KS,"Wichita, ",67202
"Attorneys,General Practice Attorneys",(316) 440-7777,355 N Waco St,Devader Law Office,KS,"Wichita, ",67202
"Attorneys,General Practice Attorneys",(316) 267-8181,355 N Waco St # 150,Beall & Mitchell,KS,"Wichita, ",67202
Attorneys,(316) 262-6222,700 N Market St,Immigration Law Office,KS,"Wichita, ",67214
"Attorneys,Legal Service Plans",(316) 263-9696,212 N Market St,Eisenbise Warner,KS,"Wichita, ",67202
"Attorneys,Legal Service Plans",(316) 260-8668,212 N Market St,Earnest & Gray,KS,"Wichita, ",67202
Attorneys,(316) 264-1084,212 N Market St # 420,Wisdom Stan E,KS,"Wichita, ",67202
"Attorneys,Family Law Attorneys",(316) 267-6400,212 N Market St,Edmiston Law Office,KS,"Wichita, ",67202
"Attorneys,Legal Service Plans",(316) 262-2424,212 N Market St,"Simpson, Kristy L, JD",KS,"Wichita, ",67202
"Attorneys,Legal Service Plans",(316) 263-3220,212 N Market St,Turner James D,KS,"Wichita, ",67202
"Attorneys,Legal Service Plans",(316) 269-0986,212 N Market St,Garcia Chris A,KS,"Wichita, ",67202
Attorneys,(316) 267-0200,331 N Waco St # B,Keiter Leon G,KS,"Wichita, ",67202
"Attorneys,Legal Service Plans",(316) 267-0200,331 N Waco St,Jorgensen & Keiter Chtd,KS,"Wichita, ",67202
Attorneys,(316) 262-5700,331 N Waco St,"Cornwell, Robert T, JD",KS,"Wichita, ",67202
"Attorneys,Legal Service Plans",(316) 265-2210,200 E 1st St N,Keeling Douglas J,KS,"Wichita, ",67202
"Attorneys,Legal Service Plans",(316) 264-1171,200 E 1st St N,Peters Ted L,KS,"Wichita, ",67202
"Attorneys,Legal Service Plans",(316) 652-0940,200 E 1st St N,Quinn Michael D,KS,"Wichita, ",67202
"Estate Planning, Probate, & Living...",(316) 202-0131,200 E 1st St N,Law Office Of Andrew Rowe,KS,"Wichita, ",67202
"Attorneys,General Practice Attorneys",(316) 267-7458,200 E 1st St N,Brackeen Herbert P Law Office,KS,"Wichita, ",67202
Attorneys,(316) 267-7458,200 E 1st St N,Svoboda & Brackeen,KS,"Wichita, ",67202
Attorneys,(316) 267-2821,200 E 1st St N,"Lawing, Jim L",KS,"Wichita, ",67202
"Attorneys,Legal Service Plans",(316) 263-6950,200 E 1st St N,Homolka Calvin Dean II,KS,"Wichita, ",67202
Attorneys,(316) 264-0100,200 N Broadway St # 300,Adams Douglas L Jr atty,KS,"Wichita, ",67202
Attorneys,(316) 264-0100,200 N Broadway St,Sylvester Bradley P atty,KS,"Wichita, ",67202
Attorneys,(316) 264-0100,200 N Broadway St,"Ney, Richard, JD",KS,"Wichita, ",67202
,(316) 448-8745,301 N Market St,,KS,"Wichita, ",67202
,(316) 283-7490,111 E 7th St,,KS,"Newton, ",67114
,(316) 347-7872,212 N Market St,,KS,"Wichita, ",67202
,(316) 262-5500,229 E William St,,KS,"Wichita, ",67202
,,,,,,
Attorneys,(316) 265-7723,727 N Waco Ave,Kansas Tax Attorney,KS,"Wichita, ",67203
"Attorneys,Bankruptcy Services",(316) 265-7272,727 N Waco Ave,Powell Brewer & Reddick L L,KS,"Wichita, ",67203
"Attorneys,Criminal Law Attorneys",(316) 265-7802,727 N Waco Ave,"Weber, J Joseph, JD",KS,"Wichita, ",67203
Attorneys,(316) 263-4921,727 N Waco Ave,"Dahl, David L",KS,"Wichita, ",67203
"Attorneys,Legal Service Plans",(316) 263-4921,727 N Waco Ave,Kennedy Craig,KS,"Wichita, ",67203
Attorneys,(316) 263-5267,727 N Waco Ave Ste 165,Howard Boyd W,KS,"Wichita, ",67203
Attorneys,(316) 265-7723,727 N Waco Ave Suite 275,"English Joe G, Atty",KS,"Wichita, ",67203
Attorneys,(316) 265-7272,727 N Waco Ave Ste 560,Baumberger Michael L Attorney,KS,"Wichita, ",67203
Attorneys,(316) 613-2800,727 N Waco Ave Suite 265,Boisseau Eldon L. Law Office Of,KS,"Wichita, ",67203
Attorneys,(316) 262-8361,245 N Waco St,"Grillot, Nicholas R",KS,"Wichita, ",67202
Attorneys,(316) 247-6869,245 N Waco St,"Gott, Troy",KS,"Wichita, ",67202
"Attorneys,Legal Service Plans",(316) 684-7733,245 N Waco St # 400,South & Associates PC,KS,"Wichita, ",67202
"Attorneys,Legal Service Plans",(316) 263-9323,245 N Waco St # 260,Reals John F Atty,KS,"Wichita, ",67202
Attorneys,(316) 247-6869,245 N Waco St,"Burk, Travis",KS,"Wichita, ",67202
"Attorneys,Legal Service Plans",(316) 263-4958,245 N Waco St,Mitchell Deborah K,KS,"Wichita, ",67202
Attorneys,(316) 264-9900,245 N Waco St,Link Law Office,KS,"Wichita, ",67202
"Attorneys,Legal Service Plans",(316) 263-4958,245 N Waco St,Ogle Nancy A,KS,"Wichita, ",67202
"Attorneys,Legal Service Plans",(316) 263-4958,245 N Waco St,"Cole, Christopher, JD",KS,"Wichita, ",67202
"Attorneys,Legal Service Plans",(316) 687-2400,245 N Waco St,Wagner Carl,KS,"Wichita, ",67202
"Attorneys,Legal Service Plans",(316) 263-4958,245 N Waco St,Elam Randall H,KS,"Wichita, ",67202
"Attorneys,Legal Service Plans",(316) 263-4958,245 N Waco St,Blaylock Stephen J,KS,"Wichita, ",67202
"Attorneys,Legal Service Plans",(316) 262-8361,245 N Waco St,"Rockeit, Jeffrey W",KS,"Wichita, ",67202
"Attorneys,Legal Service Plans",(316) 263-4958,245 N Waco St Ste 260,Morgan David,KS,"Wichita, ",67202
"Attorneys,Legal Service Plans",(316) 687-2400,245 N Waco St # 405,Wirth Kenton,KS,"Wichita, ",67202
Attorneys,(316) 262-8361,245 N Waco St,"Gilman, Thomas W, JD",KS,"Wichita, ",67202
Attorneys,(316) 263-4958,245 N Waco St,Sorochty Matthew P atty,KS,"Wichita, ",67202
"Attorneys,Legal Service Plans",(316) 263-4958,245 N Waco St,Woodard Hernandez Roth & Day,KS,"Wichita, ",67202
Attorneys,(316) 263-4958,245 N Waco St,Hernandez James Z atty,KS,"Wichita, ",67202
"Attorneys,Family Law Attorneys",(316) 262-8361,245 N Waco St,Redmond & Nazar LLP,KS,"Wichita, ",67202
"Attorneys,Legal Service Plans",(316) 262-8361,245 N Waco St # 402,Ufford Martin R,KS,"Wichita, ",67202
,(316) 448-8745,301 N Market St,,KS,"Wichita, ",67202
,(316) 347-7872,212 N Market St,,KS,"Wichita, ",67202
,(316) 283-7490,111 E 7th St,,KS,"Newton, ",67114
,(316) 262-5500,229 E William St,,KS,"Wichita, ",67202
,,,,,,
Attorneys,(316) 263-9323,245 N Waco St,"Vickery, William A",KS,"Wichita, ",67202
"Attorneys,General Practice Attorneys",(316) 266-4075,245 N Waco St # 260,Ward Law Offices,KS,"Wichita, ",67202
Attorneys,(316) 265-9480,245 N Waco St # 200,Gray David H M,KS,"Wichita, ",67202
"Attorneys,Legal Service Plans",(316) 265-0111,345 N Riverview St # 700,Ward Jim,KS,"Wichita, ",67203
Attorneys,(316) 260-3120,345 N Riverview St # 120,Ward T Lynn,KS,"Wichita, ",67203
"Attorneys,Legal Service Plans",(316) 265-3366,345 N Riverview St,Lee E L Kinch,KS,"Wichita, ",67203
Attorneys,(316) 260-3120,345 N Riverview St,American Academy-Matrimonial,KS,"Wichita, ",67203
Attorneys,(316) 263-3841,345 N Riverview St # 500,"Kuhn, Joe, JD",KS,"Wichita, ",67203
Attorneys,(316) 262-7696,345 N Riverview St,"Astle, Donald C, JD",KS,"Wichita, ",67203
Attorneys,(316) 267-2212,345 N Riverview St,"Balderas, C Angela, JD",KS,"Wichita, ",67203
"Attorneys,Legal Service Plans",(316) 263-3841,345 N Riverview St,Morgan Mike,KS,"Wichita, ",67203
Attorneys,(316) 263-3841,345 N Riverview St,"Donahue, Pat, JD",KS,"Wichita, ",67203
"Attorneys,Family Law Attorneys",(316) 260-3120,345 N Riverview St,Ward Law Offices,KS,"Wichita, ",67203
"Attorneys,Legal Service Plans",(316) 267-2360,150 N Main St,Palenz John A,KS,"Wichita, ",67202
Attorneys,(316) 303-1755,150 N Main St # 1012,"Foster, Michael",KS,"Wichita, ",67202
Attorneys,(316) 347-8773,150 N Main St # 515,"Arst, Alisa L, JD",KS,"Wichita, ",67202
Attorneys,(316) 448-1621,227 N Waco St,Dewey & Lund L L P,KS,"Wichita, ",67202
"Attorneys,Legal Service Plans",(316) 264-9137,R H Garvey Bldg,Wilson T Michael,KS,"Wichita, ",67202
Attorneys,(316) 247-8922,135 N Main St,"Fleetwood, Elaine, JD",KS,"Wichita, ",67202
Attorneys,(316) 265-3285,830 N Main St,American Academy-Matrimonial,KS,"Wichita, ",67203
Attorneys,(316) 265-3285,830 N Main St,"Lambdin, Lisa L, JD",KS,"Wichita, ",67203
Attorneys,(316) 448-6226,830 N Main St,Case Moses Zimmerman & Martin,KS,"Wichita, ",67203
Attorneys,(316) 265-8383,830 N Main St,"Dwyer, R Suzanne, JD",KS,"Wichita, ",67203
Attorneys,(316) 773-3270,125 N Market St,Robert Bilnn Law Office,KS,"Wichita, ",67202
Attorneys,(316) 265-7841,105 N Main St,"Ariagno, Julie",KS,"Wichita, ",67202
Attorneys,(316) 265-7841,100 N Main St,Young Bogle Mccausland Wells,KS,"Wichita, ",67202
Attorneys,(316) 265-7841,100 N Main St,"McCausland, Paul S, JD",KS,"Wichita, ",67202
Attorneys,(316) 265-7841,100 N Main St # 1001,"Mann, Rebecca",KS,"Wichita, ",67202
"Attorneys,Criminal Law Attorneys",(316) 267-1229,100 N Main St,Young Bogle McCausland Wells,KS,"Wichita, ",67202
,(316) 262-5500,229 E William St,,KS,"Wichita, ",67202
,(316) 283-7490,111 E 7th St,,KS,"Newton, ",67114
,(316) 347-7872,212 N Market St,,KS,"Wichita, ",67202
,(316) 448-8745,301 N Market St,,KS,"Wichita, ",67202
,,,,,,
"Attorneys,Legal Service Plans",(316) 265-7741,100 N Broadway St # 950,Goheen-Lynch Jennifer L,KS,"Wichita, ",67202
"Attorneys,Legal Service Plans",(316) 265-7741,100 N Broadway St # 950,Tibbets Gaye B,KS,"Wichita, ",67202
"Attorneys,General Practice Attorneys",(316) 265-7741,100 N Broadway St # 950,Robinson II F James,KS,"Wichita, ",67202
"Attorneys,Legal Service Plans",(316) 265-7741,100 N Broadway St # 950,England Tracie R,KS,"Wichita, ",67202
"Attorneys,Legal Service Plans",(316) 265-7741,100 N Broadway St,Honeyman Richard L,KS,"Wichita, ",67202
"Attorneys,Legal Service Plans",(316) 265-7741,100 N Broadway St # 950,Farha Kimberly D,KS,"Wichita, ",67202
Attorneys,(316) 265-9311,100 N Broadway St,"Wallace, Wayne",KS,"Wichita, ",67202
Attorneys,(316) 265-9311,100 N Broadway St # 500,"Mann, Terry L",KS,"Wichita, ",67202
Attorneys,(316) 265-9311,100 N Broadway St,"Mitchell, Brent A",KS,"Wichita, ",67202
Attorneys,(316) 265-7741,100 N Broadway St # 950,"Priest, Linda I",KS,"Wichita, ",67202
"Attorneys,Legal Service Plans",(316) 265-7741,100 N Broadway St,Nair Ganesh,KS,"Wichita, ",67202
"Attorneys,Legal Service Plans",(316) 265-7741,100 N Broadway St # 950,"Dekoster, Erin K",KS,"Wichita, ",67202
"Attorneys,Legal Service Plans",(316) 265-7741,100 N Broadway St # 950,Fanning H W,KS,"Wichita, ",67202
"Attorneys,Legal Service Plans",(316) 265-7741,100 N Broadway St # 950,Wilson Allison J,KS,"Wichita, ",67202
Attorneys,(316) 291-9748,100 N Broadway St,"Hanisch, Douglas L",KS,"Wichita, ",67202
Attorneys,(316) 265-9311,100 N Broadway St # 500,"Bauer, Martin W, JD",KS,"Wichita, ",67202
Attorneys,(316) 265-9311,100 N Broadway St,"Monsour, Megan S",KS,"Wichita, ",67202
Attorneys,(316) 291-9708,100 N Broadway St,"Rogers, David E",KS,"Wichita, ",67202
Attorneys,(316) 265-9311,100 N Broadway St,"Ritchie, Anna C",KS,"Wichita, ",67202
Attorneys,(316) 265-9311,100 N Broadway St,"Lippelmann, Mark A",KS,"Wichita, ",67202
Attorneys,(316) 265-9311,100 N Broadway St,"Oliver Jr, William L",KS,"Wichita, ",67202
Attorneys,(316) 265-9311,100 N Broadway St,"Wiggins, Zach K",KS,"Wichita, ",67202
Attorneys,(316) 265-9311,100 N Broadway St,"Longhofer, Doug L",KS,"Wichita, ",67202
Attorneys,(316) 265-7741,100 N Broadway St # 950,Buck Cory R,KS,"Wichita, ",67202
Attorneys,(316) 265-7741,100 N Broadway St # 950,Netherton Stephen H,KS,"Wichita, ",67202
"Attorneys,Legal Service Plans",(316) 265-7741,100 N Broadway St # 950,Troutt Randy J,KS,"Wichita, ",67202
Attorneys,(316) 265-9311,100 N Broadway St # 500,"Drumright, Greg A",KS,"Wichita, ",67202
"Attorneys,Legal Service Plans",(316) 265-7741,100 N Broadway St # 950,Martens Kim R,KS,"Wichita, ",67202
"Attorneys,Legal Service Plans",(316) 265-7741,100 N Broadway St # 950,La Forge Bradley J,KS,"Wichita, ",67202
Attorneys,(316) 291-9507,100 N Broadway St # 700,"Hurst, Christopher",KS,"Wichita, ",67202
,(316) 448-8745,301 N Market St,,KS,"Wichita, ",67202
,(316) 347-7872,212 N Market St,,KS,"Wichita, ",67202
,(316) 262-5500,229 E William St,,KS,"Wichita, ",67202
,(316) 283-7490,111 E 7th St,,KS,"Newton, ",67114
,,,,,,
"Attorneys,General Practice Attorneys",(316) 267-0235,100 N Main St,Collins & Collins,KS,"Wichita, ",67202
Attorneys,(316) 263-8882,106 W Douglas Ave,"Arbuckle, Barry L, JD",KS,"Wichita, ",67202
Attorneys,(316) 265-7841,106 W Douglas Ave,"Blanchard, Patrick C, JD",KS,"Wichita, ",67202
Attorneys,(316) 265-7841,106 W Douglas Ave # 923,Young Jr Glenn D,KS,"Wichita, ",67202
Attorneys,(316) 265-7841,106 W Douglas Ave # 923,"Bogle Jr, Joe M",KS,"Wichita, ",67202
Attorneys,(316) 265-7841,106 W Douglas Ave,"Wells, William A, JD",KS,"Wichita, ",67202
Attorneys,(316) 267-1229,106 W Douglas Ave,"Just, Vernon D, JD",KS,"Wichita, ",67202
"Attorneys,Family Law Attorneys",(316) 265-0650,807 N Waco Ave,Cameron Law Office,KS,"Wichita, ",67203
Attorneys,(316) 262-5181,120 S Market St # 100,Glaves Connie,KS,"Wichita, ",67202
Attorneys,(316) 262-5181,120 S Market St,Irby Curtis M,KS,"Wichita, ",67202
Attorneys,(316) 263-8238,200 W Douglas Ave,Borniger Thomas D,KS,"Wichita, ",67202
"Attorneys,Legal Service Plans",(316) 264-2023,200 W Douglas Ave,Maughan & Maughan LC,KS,"Wichita, ",67202
"Attorneys,General Practice Attorneys",(316) 303-9616,200 W Douglas Ave,Nichols H Michael Atty At Law,KS,"Wichita, ",67202
"Attorneys,General Practice Attorneys",(316) 613-2800,200 W Douglas Ave,Boisseau Eldon L Law Office of,KS,"Wichita, ",67202
Attorneys,(316) 265-9311,100 N Broadway St,"Spahn, Jeff C",KS,"Wichita, ",67202
Attorneys,(316) 265-9311,100 N Broadway St # 500,"Bruce, George C",KS,"Wichita, ",67202
Attorneys,(316) 265-9311,100 N Broadway St,"Jennings, Lora M",KS,"Wichita, ",67202
"Attorneys,Legal Service Plans",(316) 265-7741,100 N Broadway St # 950,Newman Jon E,KS,"Wichita, ",67202
Attorneys,(316) 265-9311,100 N Broadway St # 500,"Wetta, Dennis P",KS,"Wichita, ",67202
Attorneys,(316) 265-9311,100 N Broadway St,"Smith, Stanford J",KS,"Wichita, ",67202
"Attorneys,Legal Service Plans",(316) 265-7741,100 N Broadway St,Gribble Don D,KS,"Wichita, ",67202
Attorneys,(316) 265-7741,100 N Broadway St Ste 950,Back Daniel K Attorney,KS,"Wichita, ",67202
Attorneys,(316) 265-9311,100 N Broadway St,"Wooding, David S, JD",KS,"Wichita, ",67202
Attorneys,(316) 265-9311,100 N Broadway St,"Jones, Michael G",KS,"Wichita, ",67202
Attorneys,(316) 265-7741,100 N Broadway St # 950,Hite Richard C,KS,"Wichita, ",67202
Attorneys,(316) 265-9311,100 N Broadway St # 500,"Griffin, W Rick",KS,"Wichita, ",67202
Attorneys,(316) 265-9311,100 N Broadway St,"Mcpherson, Lisa A",KS,"Wichita, ",67202
"Attorneys,Legal Service Plans",(316) 265-7741,100 N Broadway St,Birzer Gwynne E,KS,"Wichita, ",67202
"Attorneys,Legal Service Plans",(316) 265-7741,100 N Broadway St # 950,Wheeler Vince P,KS,"Wichita, ",67202
"Attorneys,Legal Service Plans",(316) 265-7741,100 N Broadway St # 950,Hill Scott M,KS,"Wichita, ",67202
,(316) 448-8745,301 N Market St,,KS,"Wichita, ",67202
,(316) 347-7872,212 N Market St,,KS,"Wichita, ",67202
,(316) 262-5500,229 E William St,,KS,"Wichita, ",67202
,(316) 283-7490,111 E 7th St,,KS,"Newton, ",67114
,,,,,,
"Attorneys,Bankruptcy Services",(316) 558-3750,200 W Douglas Ave,Newell Law Office,KS,"Wichita, ",67202
"Attorneys,Legal Service Plans",(316) 264-3300,200 W Douglas Ave,Bailey Rick,KS,"Wichita, ",67202
Attorneys,(316) 264-2800,200 W Douglas Ave,"Monnat, Dan, JD",KS,"Wichita, ",67202
Attorneys,(316) 267-1562,200 W Douglas Ave,"Withers, Peters",KS,"Wichita, ",67202
Attorneys,(316) 267-1562,200 W Douglas Ave,"Schremmer, Joseph A",KS,"Wichita, ",67202
Attorneys,(800) 580-9335,200 W Douglas Ave,"White, Timothy, JD",KS,"Wichita, ",67202
"Attorneys,Legal Service Plans",(316) 264-3300,200 W Douglas Ave,Ellis Susan,KS,"Wichita, ",67202
"Attorneys,Legal Service Plans",(316) 448-6226,200 W Douglas Ave # 900,Martin Tammy M,KS,"Wichita, ",67202
"Attorneys,Legal Service Plans",(316) 262-8911,200 W Douglas Ave,Hartenstein Eric,KS,"Wichita, ",67202
"Attorneys,Legal Service Plans",(316) 260-5119,105 S Broadway St,Phillips Daniel H,KS,"Wichita, ",67202
"Attorneys,General Practice Attorneys",(316) 613-2000,105 S Broadway St Suite 460,T R McLemore Law Office,KS,"Wichita, ",67202
"Attorneys,Legal Service Plans",(316) 263-7228,105 S Broadway St # 540,Wood Thomas A,KS,"Wichita, ",67202
Attorneys,(316) 265-2635,105 S Broadway St,A Vaughn Tolle,KS,"Wichita, ",67202
"Attorneys,Legal Service Plans",(316) 267-1281,833 N Waco Ave,Dakan William E,KS,"Wichita, ",67203
"Attorneys,Legal Service Plans",(316) 267-1281,833 N Waco Ave,Harper Kurt A,KS,"Wichita, ",67203
"Attorneys,Legal Service Plans",(316) 267-1281,833 N Waco Ave,Sherwood Harper Dakan Unruh & Pratt LC,KS,"Wichita, ",67203
Attorneys,(316) 267-1281,833 N Waco Ave,Unruh Terry L,KS,"Wichita, ",67203
Attorneys,(316) 267-1281,833 N Waco Ave,Sherwood Roger,KS,"Wichita, ",67203
"Attorneys,Legal Service Plans",(316) 267-1281,833 N Waco Ave,Pratt Corlin J,KS,"Wichita, ",67203
Attorneys,(316) 263-5851,300 W Douglas Ave Ste 500,James Richard Atty,KS,"Wichita, ",67202
"Attorneys,General Practice Attorneys",(316) 269-0960,300 W Douglas Ave Ste 960,Najim Law Office PA,KS,"Wichita, ",67202
"Attorneys,General Practice Attorneys",(316) 267-2871,300 W Douglas Ave # 1000,Orsi Peter J,KS,"Wichita, ",67202
Attorneys,(316) 263-5851,300 W Douglas Ave,"Devaughn, Dustin",KS,"Wichita, ",67202
"Attorneys,Legal Service Plans",(316) 264-9137,300 W Douglas Ave # 430,Davis Ashley A,KS,"Wichita, ",67202
"Attorneys,Criminal Law Attorneys",(316) 264-9137,300 W Douglas Ave,"Cranmer, Douglas C, JD",KS,"Wichita, ",67202
Attorneys,(316) 264-9137,300 W Douglas Ave,"Lasswell, Gerald D",KS,"Wichita, ",67202
Attorneys,(316) 267-5267,300 W Douglas Ave,"Kuhn, Kris J, JD",KS,"Wichita, ",67202
Attorneys,(316) 263-5851,300 W Douglas Ave # 500,Schaefer Matthew J,KS,"Wichita, ",67202
"Attorneys,General Practice Attorneys",(316) 267-5267,300 W Douglas Ave,ARN Mullins Unruh Kuhn Wilson,KS,"Wichita, ",67202
Attorneys,(316) 263-5851,300 W Douglas Ave # 500,Donley P Kelly,KS,"Wichita, ",67202
,(316) 347-7872,212 N Market St,,KS,"Wichita, ",67202
,(316) 283-7490,111 E 7th St,,KS,"Newton, ",67114
,(316) 262-5500,229 E William St,,KS,"Wichita, ",67202
,(316) 448-8745,301 N Market St,,KS,"Wichita, ",67202
,,,,,,
"Attorneys,Legal Service Plans",(316) 265-7741,100 N Broadway St # 950,Hawkins Jerry D,KS,"Wichita, ",67202
"Attorneys,Legal Service Plans",(316) 264-4981,100 N Broadway St,Ross Foundation,KS,"Wichita, ",67202
"Attorneys,Legal Service Plans",(316) 269-2100,200 W Douglas Ave,Wallace Saunders Austin Brown Enochs,KS,"Wichita, ",67202
"Attorneys,Legal Service Plans",(316) 264-3300,200 W Douglas Ave,Carmichael John L,KS,"Wichita, ",67202
"Attorneys,Legal Service Plans",(316) 303-0100,200 W Douglas Ave # 900,Case D Michael,KS,"Wichita, ",67202
Attorneys,(316) 267-1562,200 W Douglas Ave # 1010,"Pfaff, Alan R",KS,"Wichita, ",67202
"Attorneys,Legal Service Plans",(316) 264-3300,200 W Douglas Ave,Emerson Jeffrey R,KS,"Wichita, ",67202
"Attorneys,Legal Service Plans",(316) 448-6226,200 W Douglas Ave,Zimmerman William H,KS,"Wichita, ",67202
"Attorneys,Legal Service Plans",(316) 303-0100,200 W Douglas Ave # 900,Pate Chris J,KS,"Wichita, ",67202
"Attorneys,Bankruptcy Services",(316) 448-6364,200 W Douglas Ave,Allison & Newell,KS,"Wichita, ",67202
"Attorneys,Legal Service Plans",(316) 448-6226,200 W Douglas Ave,Saidian Susan G,KS,"Wichita, ",67202
"Attorneys,Legal Service Plans",(316) 267-1562,200 W Douglas Ave # 1010,Mc Givern Sean M,KS,"Wichita, ",67202
"Attorneys,Legal Service Plans",(316) 264-2800,200 W Douglas Ave # 830,Tiddle Trevor,KS,"Wichita, ",67202
"Attorneys,Legal Service Plans",(316) 303-0100,200 W Douglas Ave,Waggoner Justin M,KS,"Wichita, ",67202
Attorneys,(316) 264-2800,200 W Douglas Ave # 830,"Mcconnell, Jon, JD",KS,"Wichita, ",67202
Attorneys,(316) 264-3300,200 W Douglas Ave,"Bowen, Joan, JD",KS,"Wichita, ",67202
"Attorneys,Legal Service Plans",(316) 264-2800,200 W Douglas Ave # 830,Intagliata Sal,KS,"Wichita, ",67202
"Attorneys,Legal Service Plans",(316) 267-1562,200 W Douglas Ave # 1010,Elliot Nathan R,KS,"Wichita, ",67202
"Attorneys,Legal Service Plans",(316) 264-3300,200 W Douglas Ave,"Wetta, Trent H",KS,"Wichita, ",67202
Attorneys,(316) 262-6222,200 W Douglas Ave # 600,Lisk Sandrine,KS,"Wichita, ",67202
Attorneys,(316) 269-2100,200 W Douglas Ave # 400,Streit Mike,KS,"Wichita, ",67202
"Attorneys,Bankruptcy Services",(316) 558-3750,200 W Douglas Ave # 250,Newell Sarah,KS,"Wichita, ",67202
Attorneys,(316) 264-9137,200 W Douglas Ave # 100,"Street, Elizabeth A",KS,"Wichita, ",67202
Attorneys,(316) 448-6226,200 W Douglas Ave,"Moses, David H, JD",KS,"Wichita, ",67202
Attorneys,(316) 267-1562,200 W Douglas Ave,"Peterson, Linda K",KS,"Wichita, ",67202
Attorneys,(316) 267-1562,200 W Douglas Ave # 1010,Pike John G,KS,"Wichita, ",67202
Attorneys,(316) 263-4949,200 W Douglas Ave,Law Office Of Cheryl Roberts,KS,"Wichita, ",67202
Attorneys,(316) 665-7475,200 W Douglas Ave,Bankruptcy Help Wichita,KS,"Wichita, ",67202
Attorneys,(316) 264-2800,200 W Douglas Ave # 830,Hunter Robb,KS,"Wichita, ",67202
Attorneys,(316) 303-1775,200 W Douglas Ave,Pistotnik Collins Tamara Attorney at Law,KS,"Wichita, ",67202
,(316) 448-8745,301 N Market St,,KS,"Wichita, ",67202
,(316) 347-7872,212 N Market St,,KS,"Wichita, ",67202
,(316) 283-7490,111 E 7th St,,KS,"Newton, ",67114
,(316) 262-5500,229 E William St,,KS,"Wichita, ",67202
,,,,,,
Attorneys,(316) 263-5851,300 W Douglas Ave,Rakestraw Dallas L,KS,"Wichita, ",67202
"Attorneys,General Practice Attorneys",(316) 267-2871,300 W Douglas Ave,Madden & Orsi Law Office,KS,"Wichita, ",67202
"Attorneys,General Practice Attorneys",(316) 347-8888,300 W Douglas Ave Ste 500,Devaughn James Injury Lawyers,KS,"Wichita, ",67202
Attorneys,(316) 267-2871,300 W Douglas Ave,"Fitts, Bruce B",KS,"Wichita, ",67202
Attorneys,(316) 263-5851,300 W Douglas Ave,McMaster Kevin M,KS,"Wichita, ",67202
Attorneys,(316) 263-5851,300 W Douglas Ave # 500,Keeley Edward L,KS,"Wichita, ",67202
Attorneys,(316) 265-7600,300 W Douglas Ave,"Rider, Ann T, JD",KS,"Wichita, ",67202
Attorneys,(316) 263-5851,300 W Douglas Ave,Sanders Scott E,KS,"Wichita, ",67202
Attorneys,(316) 263-5851,300 W Douglas Ave,"Glaassen, Cody G",KS,"Wichita, ",67202
"Attorneys,Legal Service Plans",(316) 264-9137,300 W Douglas Ave # 430,Carman Brian R,KS,"Wichita, ",67202
"Attorneys,Legal Service Plans",(316) 264-9137,300 W Douglas Ave # 430,"Lowe, Jeffrey N",KS,"Wichita, ",67202
Attorneys,(316) 264-9137,300 W Douglas Ave # 430,"Olson, Matthew J",KS,"Wichita, ",67202
Attorneys,(316) 267-5267,300 W Douglas Ave,"Nodgaard, John C, JD",KS,"Wichita, ",67202
Attorneys,(316) 267-5267,300 W Douglas Ave,"Unruh Jr, Milo M, JD",KS,"Wichita, ",67202
Attorneys,(316) 265-7600,300 W Douglas Ave # 500,Brown Robert C,KS,"Wichita, ",67202
Attorneys,(316) 239-6200,300 W Douglas Ave,Calcara Watkins C H T D,KS,"Wichita, ",67202
Attorneys,(316) 263-5851,300 W Douglas Ave,"Snook, Donald H",KS,"Wichita, ",67202
"Bankruptcy Services,Attorneys",(316) 267-8677,300 W Douglas Ave,Milby Dana M PA,KS,"Wichita, ",67202
Attorneys,(316) 263-5851,300 W Douglas Ave # 500,Burnett Vincent A,KS,"Wichita, ",67202
Attorneys,(316) 440-4882,300 W Douglas Ave # 430,Martin Robert G,KS,"Wichita, ",67202
Attorneys,(316) 721-1111,300 W Douglas Ave # 430,Sherwood Diane,KS,"Wichita, ",67202
"Attorneys,General Practice Attorneys",(316) 303-1220,906 N Main St # 3,Wilson Michael T,KS,"Wichita, ",67203
"Attorneys,Legal Service Plans",(316) 267-5261,906 N Main St,Roach Mike,KS,"Wichita, ",67203
"Attorneys,Legal Service Plans",(316) 265-5245,901 N Broadway St,Macias Richard A,KS,"Wichita, ",67214
Attorneys,(316) 262-5103,901 N Broadway St,Dodd Herbert,KS,"Wichita, ",67214
"Attorneys,Legal Service Plans",(316) 262-4753,901 N Broadway St,Lyon Ronald A,KS,"Wichita, ",67214
"Attorneys,Legal Service Plans",(316) 267-6130,940 N Main St,Ramsay Andrea M,KS,"Wichita, ",67203
"Attorneys,Legal Service Plans",(316) 264-4348,940 N Main St,Johnson David N,KS,"Wichita, ",67203
"Attorneys,Legal Service Plans",(316) 269-0746,940 N Main St,McDowell Chartered,KS,"Wichita, ",67203
Attorneys,(316) 267-7361,209 E William St,Madden Dixie F,KS,"Wichita, ",67202
,(316) 283-7490,111 E 7th St,,KS,"Newton, ",67114
,(316) 262-5500,229 E William St,,KS,"Wichita, ",67202
,(316) 347-7872,212 N Market St,,KS,"Wichita, ",67202
,(316) 448-8745,301 N Market St,,KS,"Wichita, ",67202
,,,,,,
Attorneys,(316) 267-8777,209 E William St # 103,Montemayor Marcos A,KS,"Wichita, ",67202
Attorneys,(316) 267-8777,209 E William St # 103,Bitner Jeffery B,KS,"Wichita, ",67202
"Attorneys,Legal Service Plans",(316) 262-6272,229 E William St,Law Office of Marc C Davis,KS,"Wichita, ",67202
Attorneys,(316) 247-0663,229 E William St,"Eron, David P, JD",KS,"Wichita, ",67202
Attorneys,(316) 247-0663,229 E William St,"Rockett, Jeffrey W, JD",KS,"Wichita, ",67202
Attorneys,(316) 247-6676,300 N Mead St # 200,Maloney Kristen W,KS,"Wichita, ",67202
Attorneys,(316) 262-2671,300 N Mead St # 200,"Docking, Emily C",KS,"Wichita, ",67202
Attorneys,(316) 247-6676,300 N Mead St # 200,"Peck, Ryan M",KS,"Wichita, ",67202
Attorneys,(316) 247-6676,300 N Mead St # 200,"Peterson, Ken M",KS,"Wichita, ",67202
Attorneys,(316) 247-6676,300 N Mead St # 200,"Sorensen Jr, William B, JD",KS,"Wichita, ",67202
Attorneys,(316) 247-6676,300 N Mead St # 200,"Worth, Diane S",KS,"Wichita, ",67202
Attorneys,(316) 247-6676,300 N Mead St # 200,Schrag Susan R,KS,"Wichita, ",67202
Attorneys,(316) 247-6676,300 N Mead St # 200,"Hofer, Joshua J",KS,"Wichita, ",67202
Attorneys,(316) 262-2671,300 N Mead St # 200,"Goos, Clinton M",KS,"Wichita, ",67202
Attorneys,(316) 247-6676,300 N Mead St # 200,"Schwartz, A J, JD",KS,"Wichita, ",67202
Attorneys,(316) 247-6676,300 N Mead St # 200,"Wohlford, Will B",KS,"Wichita, ",67202
Attorneys,(316) 247-6676,300 N Mead St # 200,Theis Roger L,KS,"Wichita, ",67202
Attorneys,(316) 247-6676,300 N Mead St # 200,Young James D,KS,"Wichita, ",67202
Attorneys,(316) 262-2671,300 N Mead St # 200,Carmichael Jeffery L,KS,"Wichita, ",67202
Attorneys,(316) 247-6676,300 N Mead St # 200,Coykendall Robert W,KS,"Wichita, ",67202
Attorneys,(316) 247-6676,300 N Mead St # 200,"Braun, Shannon M",KS,"Wichita, ",67202
Attorneys,(316) 247-6676,300 N Mead St # 200,Kear Richard A,KS,"Wichita, ",67202
Attorneys,(316) 247-6676,300 N Mead St # 200,"Ward, Janet Huck, JD",KS,"Wichita, ",67202
Attorneys,(316) 247-6676,300 N Mead St # 200,"Anderson, Robert K, JD",KS,"Wichita, ",67202
Attorneys,(316) 247-6676,300 N Mead St # 200,"Wheeler, Kristen D",KS,"Wichita, ",67202
Attorneys,(316) 247-6676,300 N Mead St # 200,"Hoffman, Megan L",KS,"Wichita, ",67202
Attorneys,(316) 247-6676,300 N Mead St # 200,"Harris, Jeremy W",KS,"Wichita, ",67202
Attorneys,(316) 262-2671,300 N Mead St # 200,Johnson John W,KS,"Wichita, ",67202
Attorneys,(316) 247-6676,300 N Mead St # 200,"Swartz, Karl R",KS,"Wichita, ",67202
Attorneys,(316) 247-6676,300 N Mead St # 200,"Brock, Ralph R",KS,"Wichita, ",67202
,(316) 262-5500,229 E William St,,KS,"Wichita, ",67202
,(316) 347-7872,212 N Market St,,KS,"Wichita, ",67202
,(316) 448-8745,301 N Market St,,KS,"Wichita, ",67202
,(316) 283-7490,111 E 7th St,,KS,"Newton, ",67114
,,,,,,
Attorneys,(316) 247-6676,300 N Mead St # 200,"Herzik, Kelly S, JD",KS,"Wichita, ",67202
Attorneys,(316) 247-6676,300 N Mead St # 200,"Schlatter, Jonathan A",KS,"Wichita, ",67202
Attorneys,(316) 247-6676,300 N Mead St # 200,"Borniger, Christopher",KS,"Wichita, ",67202
Attorneys,(316) 262-2671,300 N Mead St,"Michaud, Cameron V, JD",KS,"Wichita, ",67202
Attorneys,(972) 479-0903,214 S Main St,Gustavson R William Atty,KS,"Wichita, ",67202
"Attorneys,Legal Service Plans",(316) 269-3477,221 S Broadway St,Barbara Michael,KS,"Wichita, ",67202
Attorneys,(316) 264-2800,221 S Broadway St,"Riddle, Trevor, JD",KS,"Wichita, ",67202
Attorneys,(316) 264-2800,221 S Broadway St,Intagliata Sal,KS,"Wichita, ",67202
Attorneys,(316) 448-6242,221 S Broadway St,"Reynolds, Robert W, JD",KS,"Wichita, ",67202
"Legal Service Plans,Attorneys",(316) 269-3200,221 S. Broadway Ste 501,"Scimeca, S A Tim",KS,"Wichita, ",67202
Attorneys,(316) 264-2800,221 S Broadway St,"Spurrier, Stan, JD",KS,"Wichita, ",67202
Attorneys,(316) 267-6000,622 E Douglas Ave,Moore Martin LC,KS,"Wichita, ",67202
Attorneys,(316) 267-6000,622 E Douglas Ave,Martin Coy M,KS,"Wichita, ",67202
Attorneys,(316) 263-0505,221 S Topeka St,"Albin, Gary, JD",KS,"Wichita, ",67202
Attorneys,(316) 263-2067,221 S Topeka St,"King, Todd, JD",KS,"Wichita, ",67202
Attorneys,(316) 263-0505,221 S Topeka St,"Brennan, Sean, JD",KS,"Wichita, ",67202
Attorneys,(316) 263-0505,221 S Topeka St,"Douglas, Norman, JD",KS,"Wichita, ",67202
Attorneys,(316) 263-0505,221 S Topeka St,James Cline Law Office,KS,"Wichita, ",67202
Attorneys,(316) 660-7550,940 N Waco Ave,Stark David J,KS,"Wichita, ",67203
"Attorneys,Legal Service Plans",(316) 263-9662,1005 N Market St,Crockett & Gilhousen,KS,"Wichita, ",67214
"Attorneys,Legal Service Plans",(316) 262-4857,1005 N Market St,Delhotal Van R,KS,"Wichita, ",67214
"Attorneys,General Practice Attorneys",(316) 425-7680,1005 N Market St,William F Kluge Attorney at Law,KS,"Wichita, ",67214
Attorneys,(316) 262-1880,1005 N Market St,Thompson P,KS,"Wichita, ",67214
Attorneys,(316) 440-4055,1005 N Market St,Shaver Robert E Attorney,KS,"Wichita, ",67214
"Attorneys,General Practice Attorneys",(316) 264-8857,221 S Broadway St,Law Office Of James T McIntyre,KS,"Wichita, ",67202
"Attorneys,Legal Service Plans",(316) 267-3296,1020 N Main St,Arabia Paul,KS,"Wichita, ",67203
Attorneys,(316) 267-3296,1020 N Main St,Shawver Kent,KS,"Wichita, ",67203
Attorneys,(316) 267-3296,1020 N Main St,Lazzo Michael,KS,"Wichita, ",67203
Attorneys,(316) 265-6600,1020 N Main St # A,"Dewey, Jeff",KS,"Wichita, ",67203
"Attorneys,General Practice Attorneys",(316) 265-2598,333 E English St,Law Office of Michael Whalen,KS,"Wichita, ",67202
,(316) 283-7490,111 E 7th St,,KS,"Newton, ",67114
,(316) 262-5500,229 E William St,,KS,"Wichita, ",67202
,(316) 347-7872,212 N Market St,,KS,"Wichita, ",67202
,(316) 448-8745,301 N Market St,,KS,"Wichita, ",67202
,,,,,,
Attorneys,(316) 682-8500,218 N Mosley St,Fahrenholtz Terri Atty,KS,"Wichita, ",67202
"Attorneys,General Practice Attorneys",(316) 665-7535,218 N Mosley St,Alexander & Casey Attys,KS,"Wichita, ",67202
"Attorneys,Legal Service Plans",(316) 682-8500,218 N Mosley St,Gott Law,KS,"Wichita, ",67202
"Attorneys,Consumer Law Attorneys",(316) 266-4058,218 N Mosley,Graybill & Hazlelwood,KS,"Wichita, ",67202
Attorneys,(316) 665-7535,218 N Mosley St,"Casey, Paula Kidd, JD",KS,"Wichita, ",67202
Attorneys,(316) 263-4281,329 S Topeka St,"Mcmaster, F C",KS,"Wichita, ",67202
Attorneys,(316) 262-8900,1041 N Waco Ave,Lautz Law Group,KS,"Wichita, ",67203
"Attorneys,Legal Service Plans",(316) 833-1154,1041 N Waco Ave,"Cooper, Shannon L. Attorney at Law",KS,"Wichita, ",67203
Attorneys,(316) 264-3500,142 N Mosley St,"Webb, Dennis D",KS,"Wichita, ",67202
Attorneys,(316) 260-8668,110 E Waterman St,"Earnest, Patrick, JD",KS,"Wichita, ",67202
Attorneys,(316) 260-8668,110 E Waterman St,"Gray, Catharine, JD",KS,"Wichita, ",67202
Attorneys,(316) 265-6795,110 E Waterman St,"Gray, David, JD",KS,"Wichita, ",67202
Attorneys,(316) 558-3540,100 E Waterman St,Stultz Jennifer Law Office Of,KS,"Wichita, ",67202
Attorneys,(316) 267-1600,926 1/2 E Douglas Ave,Edward D Heath Jr Law Office,KS,"Wichita, ",67202
Attorneys,(316) 269-9099,805 W Franklin St,Law Off Of W Eisenbise,KS,"Wichita, ",67203
"Attorneys,Legal Service Plans",(316) 263-5601,1223 E 1st St N,Samaniego Richard,KS,"Wichita, ",67214
"Attorneys,Legal Service Plans",(316) 267-6102,1108 N Jefferson St,Moulos Ernest H,KS,"Wichita, ",67203
"Attorneys,Legal Service Plans",(316) 263-2453,608 One Main Pl,Jordan John W,KS,"Wichita, ",67202
Attorneys,(316) 262-0028,1225 N Market St # 100,Eric Kidwell,KS,"Wichita, ",67214
Attorneys,(316) 347-8773,515 S Commerce St,"Loyd, Richard A",KS,"Wichita, ",67202
Attorneys,(316) 262-2600,322 S Mosley St,James R Pratt Attorney,KS,"Wichita, ",67202
Attorneys,(316) 263-0505,1333 N Broadway St # C,King Todd,KS,"Wichita, ",67214
"Attorneys,Bankruptcy Services",(316) 263-7979,1631 E 1st St N,"Stephens, Terry S",KS,"Wichita, ",67214
"Attorneys,Legal Service Plans",(316) 262-5400,1631 E 1st St N,Schoenhofer Mark Attorney at Law,KS,"Wichita, ",67214
Attorneys,(316) 263-7770,449 N McLean Blvd,Henry & Mathewson PA,KS,"Wichita, ",67203
Attorneys,(316) 869-0292,449 N McLean Blvd,Kathleen R Reeves Atty PA,KS,"Wichita, ",67203
Attorneys,(316) 263-7770,449 N McLean Blvd,Henry Elizabeth L,KS,"Wichita, ",67203
"Attorneys,General Practice Attorneys",(316) 869-0292,449 N Mclean Blvd,Fletcher Andrew B,KS,"Wichita, ",67203
Attorneys,(316) 371-8156,928 S Broadway St,"Ruane, James P",KS,"Wichita, ",67211
Attorneys,(316) 262-2331,1502 N Broadway St,"Smith, Kevin M, JD",KS,"Wichita, ",67214
,(316) 448-8745,301 N Market St,,KS,"Wichita, ",67202
,(316) 262-5500,229 E William St,,KS,"Wichita, ",67202
,(316) 283-7490,111 E 7th St,,KS,"Newton, ",67114
,(316) 347-7872,212 N Market St,,KS,"Wichita, ",67202
,,,,,,
Attorneys,(316) 269-9100,1514 N Broadway St,Immigration Solutions,KS,"Wichita, ",67214
"Attorneys,General Practice Attorneys",(316) 269-0809,1540 N Broadway St Ste 104,Michael Peloquin Law Office,KS,"Wichita, ",67214
"Attorneys,General Practice Attorneys",(316) 264-2154,1540 N Broadway St,David P Leon Attorney at Law,KS,"Wichita, ",67214
"Attorneys,General Practice Attorneys",(316) 263-0783,1540 N Broadway St # 101,Smith Michelle D,KS,"Wichita, ",67214
Attorneys,(316) 263-5661,1540 N Broadway St,"Johnson, Fred A, JD",KS,"Wichita, ",67214
Attorneys,(316) 303-1775,200 W Douglas Ave,Collins Tamara J,KS,"Wichita, ",67202
Attorneys,(316) 247-9046,1009 S Broadway St,"Appling, Marvin R",KS,"Wichita, ",67211
Attorneys,(316) 262-3445,1009 S Broadway St,Slape & Howard,KS,"Wichita, ",67211
Attorneys,(316) 247-9046,1009 S Broadway St,Howard Garry L,KS,"Wichita, ",67211
Attorneys,(316) 247-9046,1009 S Broadway St,"Slape, Phillip B, JD",KS,"Wichita, ",67211
Attorneys,(316) 247-9046,1009 S Broadway St,"Stevens, Kenneth M, JD",KS,"Wichita, ",67211
Attorneys,(316) 247-9046,1009 S Broadway St,"Voegeli, Jonathan E",KS,"Wichita, ",67211
"Attorneys,Legal Service Plans",(316) 263-7337,1009 S Broadway St,Cook Marvin R,KS,"Wichita, ",67211
"Attorneys,Legal Service Plans",(316) 267-6557,850 N Woodrow Ave,Wix William J,KS,"Wichita, ",67203
Attorneys,(316) 263-5661,359 S Hydraulic St,"Busch, Andrew E",KS,"Wichita, ",67211
"Attorneys,General Practice Attorneys",(316) 269-5297,1851 N Broadway St,Garcia Law Office,KS,"Wichita, ",67214
Attorneys,(316) 269-5297,1851 N Broadway St # C,Garcia Vincent J,KS,"Wichita, ",67214
"Attorneys,General Practice Attorneys",(316) 263-8251,1359 S Broadway St,Bryson E Mills Law Office,KS,"Wichita, ",67211
"Attorneys,General Practice Attorneys",(316) 685-0236,2525 E Central Ave,Geeding Law Office,KS,"Wichita, ",67214
"Attorneys,General Practice Attorneys",(316) 558-5770,2627 E Central Ave,Jihyun Kim Law Office,KS,"Wichita, ",67214
Attorneys,(316) 712-0186,2831 E Central Ave,"Brave, Stephen",KS,"Wichita, ",67214
Attorneys,(316) 712-0186,2831 E Central Ave,"Randall, Christopher",KS,"Wichita, ",67214
"Attorneys,Legal Service Plans",(316) 689-8035,2831 E Central Ave,Collignon,KS,"Wichita, ",67214
Attorneys,(316) 712-0186,2831 E Central Ave,"Collins, Tamara Jo",KS,"Wichita, ",67214
Attorneys,(316) 712-0186,2831 E Central Ave,Accident Attorney Brad & Brian,KS,"Wichita, ",67214
Attorneys,(316) 265-5245,1831 N Woodrow Ave,"Macias, Richard A, JD",KS,"Wichita, ",67203
"Attorneys,Legal Service Plans",(316) 652-0076,2924 E Douglas Ave,James Barbara L,KS,"Wichita, ",67214
"Attorneys,General Practice Attorneys",(316) 267-4322,1919 N Amidon Ave,Brown Duane Law Office,KS,"Wichita, ",67203
"Attorneys,Legal Service Plans",(316) 831-9989,1919 N Amidon Ave # 212,Jones Gary K,KS,"Wichita, ",67203
Attorneys,(316) 260-9650,1999 N Amidon Ave,Coultis Estate & Elder Law,KS,"Wichita, ",67203
,(316) 347-7872,212 N Market St,,KS,"Wichita, ",67202
,(316) 448-8745,301 N Market St,,KS,"Wichita, ",67202
,(316) 283-7490,111 E 7th St,,KS,"Newton, ",67114
,(316) 262-5500,229 E William St,,KS,"Wichita, ",67202
,,,,,,
Attorneys,(316) 264-8000,3330 W Douglas Ave,"Lehman, J Michael",KS,"Wichita, ",67203
Attorneys,(316) 665-7516,3330 W Douglas Ave,"Johnson, Petra H",KS,"Wichita, ",67203
"Attorneys,Legal Service Plans",(316) 264-8000,3330 W Douglas Ave,Bruce Bruce & Lehman,KS,"Wichita, ",67203
Attorneys,(316) 665-7516,3330 W Douglas Ave,"Bruce, Eric D",KS,"Wichita, ",67203
Attorneys,(316) 665-7516,3330 W Douglas Ave,Bankruptcy Wichita Kansas,KS,"Wichita, ",67203
Attorneys,(316) 665-7516,3330 W Douglas Ave,"Holt, James D",KS,"Wichita, ",67203
Attorneys,(316) 264-0146,3330 W Douglas Ave,K S Advocates,KS,"Wichita, ",67203
Attorneys,(316) 831-9989,1920 N Richmond St,Gary K Jones Law Office,KS,"Wichita, ",67203
Attorneys,(316) 267-0235,214 N Bluff St,"Collins, Robert M",KS,"Wichita, ",67208
"Attorneys,Legal Service Plans",(316) 683-5500,405 S Roosevelt St,Schmidt Donna M,KS,"Wichita, ",67218
Attorneys,(316) 927-3283,171 S Fountain St,Ranallo Trish & Tom,KS,"Wichita, ",67218
Attorneys,(316) 687-0006,1148 S Hillside St,Williams Barbara Holt Scsw,KS,"Wichita, ",67211
Attorneys,(316) 683-8677,315 N Broadview St,"Nickel, David W",KS,"Wichita, ",67208
Attorneys,(316) 682-0797,228 N Broadview St,"Shawver, N T",KS,"Wichita, ",67208
Attorneys,(316) 260-1633,2015 W Rita St,Roger Reidmiller Law Office,KS,"Wichita, ",67213
Attorneys,(316) 684-2274,301 N Crestway St,"Scott, Gerald W",KS,"Wichita, ",67208
Attorneys,(316) 943-2026,1024 N West St,Kowalski Law Office,KS,"Wichita, ",67203
Attorneys,(316) 942-6377,3829 W 13th St N,"Brown, T E",KS,"Wichita, ",67203
"Attorneys,Legal Service Plans",(316) 252-0036,4601 E Douglas Ave,Edward J Hund Attorney At Law,KS,"Wichita, ",67218
Attorneys,(316) 347-7858,4601 E Douglas Ave,Steven M. Tilton - Attorney At Law,KS,"Wichita, ",67218
Attorneys,(316) 347-7858,4601 E Douglas Ave,Jason C Robbins - Attorney At Law,KS,"Wichita, ",67218
Attorneys,(316) 252-0024,4601 E Douglas Ave,"Hund, Edward J, JD",KS,"Wichita, ",67218
Attorneys,(316) 337-5610,4601 E Douglas Ave,"Coyle, M Duane",KS,"Wichita, ",67218
Attorneys,(316) 425-7222,4601 E Douglas Ave,Slane Creecy & Winters,KS,"Wichita, ",67218
Attorneys,(888) 818-0555,4601 E Douglas Ave.,Steven M.Tilton – Attorney At Law,KS,"Wichita, ",67218
Attorneys,(316) 269-4183,2808 W Oriole Dr,Van Fleet G Nelson,KS,"Wichita, ",67204
Attorneys,(316) 265-3394,285 S Dellrose St,Staver Loleta,KS,"Wichita, ",67218
Attorneys,(316) 265-3394,285 S Dellrose St,Sublett Law,KS,"Wichita, ",67218
"Legal Document Assistance,Attorneys",(316) 312-2859,4031 E Harry St,Patton Paralegal,KS,"Wichita, ",67218
"Attorneys,General Practice Attorneys",(316) 943-2222,4425 W Zoo Blvd # 5,Law Office of Derek Park,KS,"Wichita, ",67212
,(316) 262-5500,229 E William St,,KS,"Wichita, ",67202
,(316) 347-7872,212 N Market St,,KS,"Wichita, ",67202
,(316) 283-7490,111 E 7th St,,KS,"Newton, ",67114
,(316) 448-8745,301 N Market St,,KS,"Wichita, ",67202
,,,,,,
Attorneys,(316) 529-4223,4625 W Central Ave,Fox & Associates,KS,"Wichita, ",67212
"Attorneys,Legal Service Plans",(316) 683-9540,1650 S Georgetown St,"Barrett, Russell N",KS,"Wichita, ",67218
"Attorneys,Legal Service Plans",(316) 522-8260,2935 S Seneca St,Griffith William R Atty,KS,"Wichita, ",67217
Attorneys,(316) 269-2626,3505 N Topeka St,Carver Blanton & Brehm,KS,"Wichita, ",67219
"Attorneys,Legal Service Plans",(316) 688-5777,5017 E 21st St N,Davis Oneil,KS,"Wichita, ",67208
Probate Law Attorneys,(316) 686-2000,6135 E Central Ave,Kirby Linda D,KS,"Wichita, ",67208
Attorneys,(316) 686-7314,400 N Woodlawn St,"Flynn, Joseph P",KS,"Wichita, ",67208
"Attorneys,Legal Service Plans",(316) 265-0797,545 N Woodlawn St,Pollak Creath L,KS,"Wichita, ",67208
"Attorneys,Legal Service Plans",(316) 265-0797,545 N Woodlawn St,Wilson Kathy E,KS,"Wichita, ",67208
Attorneys,(316) 425-3613,2822 E 31st St S,"Hecox, Steve",KS,"Wichita, ",67216
"Attorneys,General Practice Attorneys",(316) 263-8573,4324 E Norwood Ln,Johnston Law Offices Fax,KS,"Wichita, ",67220
Attorneys,(316) 616-0312,915 N Brookfield St,"Townsley, Chan P",KS,"Wichita, ",67206
Legal Service Plans,(316) 686-6113,2628 S Oliver St,Snider & Seiwert Attorneys at Law,KS,"Wichita, ",67210
Attorneys,(316) 686-6113,2628 S Oliver St,"Seiwert, Joseph, JD",KS,"Wichita, ",67210
"Attorneys,Legal Service Plans",(316) 558-8002,5838 W 21st St N,Mitchell Alexander,KS,"Wichita, ",67205
Attorneys,(316) 260-9720,1938 N Woodlawn St,"O'Brien, Christopher, JD",KS,"Wichita, ",67208
Attorneys,(316) 682-8500,2024 N Woodlawn St,"Fahrenholtz, Terri",KS,"Wichita, ",67208
Attorneys,(316) 682-8500,2024 N Woodlawn St,"Retzlaff, Kristina",KS,"Wichita, ",67208
Attorneys,(316) 616-0312,2024 N Woodlawn St,Townsley Chan P,KS,"Wichita, ",67208
Attorneys,(316) 269-0809,6700 W Central Ave,Peloquin Law Office,KS,"Wichita, ",67212
Attorneys,(316) 269-0809,6700 W Central Ave,Professional Services,KS,"Wichita, ",67212
Attorneys,(316) 682-4790,1002 N Lawrence Ln,"Nodgaard, John C",KS,"Wichita, ",67206
Attorneys,(316) 265-6300,151 S Whittier St,"Weibe, Cal, JD",KS,"Wichita, ",67207
"Attorneys,Legal Service Plans",(316) 687-3700,151 S Whittier St,Strickler Eric,KS,"Wichita, ",67207
"Attorneys,Legal Service Plans",(316) 689-4268,111 S Whittier St,Dwyer Sean M,KS,"Wichita, ",67207
"Attorneys,Legal Service Plans",(316) 681-4412,111 S Whittier St,DeWitt Donald D,KS,"Wichita, ",67207
Attorneys,(316) 682-3969,1634 N Lawrence Ct,"Pilgreen, Terry C",KS,"Wichita, ",67206
Attorneys,(316) 683-9888,502 N Rutland St,"Higgins, William P",KS,"Wichita, ",67206
"Attorneys,Legal Service Plans",(316) 618-3800,2420 N Woodlawn Blvd,"Lacey, Dennis V",KS,"Wichita, ",67220
Attorneys,(316) 618-3800,2420 N Woodlawn Blvd # 100K,Nelson Clark R,KS,"Wichita, ",67220
,(316) 448-8745,301 N Market St,,KS,"Wichita, ",67202
,(316) 347-7872,212 N Market St,,KS,"Wichita, ",67202
,(316) 262-5500,229 E William St,,KS,"Wichita, ",67202
,(316) 283-7490,111 E 7th St,,KS,"Newton, ",67114
,,,,,,
"Attorneys,Legal Service Plans",(316) 618-3800,2420 N Woodlawn Blvd,Gunderson Scott J,KS,"Wichita, ",67220
Attorneys,(316) 685-1747,7520 E Norfolk Cir,Hund Edward J,KS,"Wichita, ",67206
Attorneys,(316) 685-7837,126 N Brendonwood Ct,"Foster, Richard T",KS,"Wichita, ",67206
Attorneys,(316) 832-0444,2243 N Bramblewood St # 1304,"Jones, Michael L",KS,"Wichita, ",67226
Attorneys,(316) 636-4314,626 N Doreen Ct,"Beck, Donald L",KS,"Wichita, ",67206
"Attorneys,Legal Service Plans",(316) 683-9080,7701F E Kellogg Dr,Howell James T,KS,"Wichita, ",67207
Attorneys,(316) 685-5911,7701 E Kellogg Dr,City Code,KS,"Wichita, ",67207
Attorneys,(316) 683-9080,7701 E Kellogg Dr # 415,Giroux Daniel B,KS,"Wichita, ",67207
Attorneys,(316) 683-9080,7701 E Kellogg Dr # 415,"Casey, Derek, JD",KS,"Wichita, ",67207
Attorneys,(316) 683-9080,7701 E Kellogg Dr,"Craig, Walter W",KS,"Wichita, ",67207
Attorneys,(316) 685-5911,7701 E Kellogg Dr # 700,Kleeman Larry,KS,"Wichita, ",67207
Attorneys,(316) 684-4700,7701 E Kellogg Dr,"Regan, Patrick J",KS,"Wichita, ",67207
"Attorneys,Business Law Attorneys",(316) 683-9080,7701 E Kellogg Dr,Prochaska Scott & Craig,KS,"Wichita, ",67207
"Attorneys,Legal Service Plans",(316) 630-8100,295 N Rock Rd,"Ritchie, Samuel D",KS,"Wichita, ",67206
Attorneys,(316) 652-0168,1445 N Rock Rd Ste 250,Network Results Atty,KS,"Wichita, ",67206
"Attorneys,Legal Service Plans",(316) 685-2245,1861 N Rock Rd,Lee Robert R,KS,"Wichita, ",67206
Attorneys,(316) 361-7271,1861 N Rock Rd,"Wilson, Steve R, JD",KS,"Wichita, ",67206
Attorneys,(316) 361-7271,1861 N Rock Rd,Wilson Lee Gurney Carmichael,KS,"Wichita, ",67206
"Attorneys,Legal Service Plans",(316) 685-2245,1861 N Rock Rd,Hess Charles W,KS,"Wichita, ",67206
"Attorneys,Legal Service Plans",(316) 685-2245,1861 N Rock Rd,Gurney Lawrence M,KS,"Wichita, ",67206
Attorneys,(316) 838-4142,4806 N Bison St,"Peer, Rodney R",KS,"Wichita, ",67204
"Attorneys,General Practice Attorneys",(316) 751-1300,7570 W 21st St N,Langhofer Law Office,KS,"Wichita, ",67205
Attorneys,(316) 854-2098,7570 W 21st St N,Tim J Larson PA,KS,"Wichita, ",67205
Attorneys,(316) 854-2098,7570 W 21st St N,Brown Logan M,KS,"Wichita, ",67205
Attorneys,(316) 247-9735,7570 W 21st St N,Wichita Wills & Trusts,KS,"Wichita, ",67205
"Attorneys,General Practice Attorneys",(316) 269-4215,559 N Longford Ln,Sevart & Sevart,KS,"Wichita, ",67206
Attorneys,(316) 263-5959,8100 E 22nd St N,Law Office of Snow & Edwards,KS,"Wichita, ",67226
Attorneys,(316) 688-1166,8100 E 22nd St N,"Hull, Anne H",KS,"Wichita, ",67226
"Attorneys,Legal Service Plans",(316) 682-7381,8100 E 22nd St N # 2300-2,Simmons Ray E,KS,"Wichita, ",67226
"Attorneys,Legal Service Plans",(316) 688-1166,8100 E 22nd St N,Shuart Blake A,KS,"Wichita, ",67226
,(316) 283-7490,111 E 7th St,,KS,"Newton, ",67114
,(316) 448-8745,301 N Market St,,KS,"Wichita, ",67202
,(316) 347-7872,212 N Market St,,KS,"Wichita, ",67202
,(316) 262-5500,229 E William St,,KS,"Wichita, ",67202
,,,,,,
"Attorneys,General Practice Attorneys",(316) 688-1166,8100 E 22nd St N,"Foulston, Steven L",KS,"Wichita, ",67226
"Attorneys,Legal Service Plans",(316) 688-1166,8100 E 22nd St N,Back Daniel K,KS,"Wichita, ",67226
"Attorneys,General Practice Attorneys",(316) 682-7381,8100 E 22nd St N,Ayesh Law Offices,KS,"Wichita, ",67226
"Attorneys,Legal Service Plans",(316) 688-1166,8100 E 22nd St N,"Hayes, J Darin",KS,"Wichita, ",67226
Attorneys,(316) 609-7900,8301 E 21st St N,Rupe Alan L,KS,"Wichita, ",67206
"Attorneys,Legal Service Plans",(316) 262-4000,8301 E 21st St N # 450,Rathbun Randall K,KS,"Wichita, ",67206
Attorneys,(316) 262-4000,8301 E 21st St N # 450,Mc Inteer Jack S,KS,"Wichita, ",67206
"Attorneys,Legal Service Plans",(316) 262-4000,8301 E 21st St N # 450,"Hoffman, Nathan R",KS,"Wichita, ",67206
"Attorneys,General Practice Attorneys",(316) 262-4000,8301 E 21st St N # 450,Atterbury Tony L,KS,"Wichita, ",67206
Attorneys,(316) 262-4000,8301 E 21st St N # 450,Gillen Dennis L,KS,"Wichita, ",67206
Attorneys,(316) 262-4000,8301 E 21st St N # 450,"Gordon, Molly",KS,"Wichita, ",67206
"Attorneys,Legal Service Plans",(316) 262-4000,8301 E 21st St N # 450,Steincamp Charles C,KS,"Wichita, ",67206
"Attorneys,Legal Service Plans",(316) 262-4000,8301 E 21st St N # 450,Nickel David W,KS,"Wichita, ",67206
Attorneys,(316) 268-9944,1037 S Eastern St,"Hurlstone, Jose, JD",KS,"Wichita, ",67207
Attorneys,(316) 522-8260,2634 N Dublin Cir,"Griffith, William R, JD",KS,"Wichita, ",67226
Attorneys,(316) 685-3955,31 N Cypress Dr,Jacobs Steven L,KS,"Wichita, ",67206
Attorneys,(316) 685-2808,26 N Cypress Dr,"Garretson, Thomas P",KS,"Wichita, ",67206
"Attorneys,General Practice Attorneys",(316) 267-2000,8621 E 21st St N,Hinkle Law Firm,KS,"Wichita, ",67206
Attorneys,(316) 267-2000,8621 E 21st St N,Peare Dan C Arty,KS,"Wichita, ",67206
Attorneys,(316) 267-2000,8621 E 21st St N,"Ward, L Dale",KS,"Wichita, ",67206
Attorneys,(316) 267-2000,8621 E 21st St N # 200,"Gill, Hugh W",KS,"Wichita, ",67206
Attorneys,(316) 267-2000,8621 E 21st St N,"Pohl, J Scott",KS,"Wichita, ",67206
Attorneys,(316) 832-2244,3211 W Keywest Ct,"Iacovetta, Ronald",KS,"Wichita, ",67204
Attorneys,(316) 722-3391,962 N Tyler Rd,Bruce Bruce & Lehman,KS,"Wichita, ",67212
Attorneys,(316) 262-2018,917 W 52nd St N,Ingram Verlin A,KS,"Wichita, ",67204
"Attorneys,General Practice Attorneys",(316) 630-8100,2959 N Rock Rd,"Langworthy, Paula D",KS,"Wichita, ",67226
"Attorneys,Legal Service Plans",(316) 630-8100,2959 N Rock Rd,Triplett Woolf & Garretson,KS,"Wichita, ",67226
Attorneys,(316) 630-8100,2959 N Rock Rd,"Deines, Brandon W",KS,"Wichita, ",67226
Attorneys,(316) 630-8100,2959 N Rock Rd,"Fry, Terry E, JD",KS,"Wichita, ",67226
"Attorneys,Legal Service Plans",(316) 630-8100,2959 N Rock Rd,"Garretson, Thomas P, JD",KS,"Wichita, ",67226
,(316) 283-7490,111 E 7th St,,KS,"Newton, ",67114
,(316) 347-7872,212 N Market St,,KS,"Wichita, ",67202
,(316) 262-5500,229 E William St,,KS,"Wichita, ",67202
,(316) 448-8745,301 N Market St,,KS,"Wichita, ",67202
,,,,,,
Attorneys,(316) 263-6300,8623 E 32nd St N # 100,Mansfield Aaron,KS,"Wichita, ",67226
Attorneys,(316) 263-3200,1635 N Waterfront Pkwy # 200,Martin & Churchill,KS,"Wichita, ",67206
Attorneys,(316) 265-8591,1635 N Waterfront Pkwy,"Stout, Bradley A",KS,"Wichita, ",67206
"Attorneys,Business Law Attorneys",(316) 265-8591,1635 N Waterfront Pkwy,Adams Jones Law Firm PA,KS,"Wichita, ",67206
Attorneys,(316) 265-8591,1635 N Waterfront Pkwy,"Seeber, John S",KS,"Wichita, ",67206
Attorneys,(316) 265-8591,1635 N Waterfront Pkwy,Cannady Micheal P,KS,"Wichita, ",67206
Attorneys,(316) 265-8591,1635 N Waterfront Pkwy,"Najim, Harry L",KS,"Wichita, ",67206
Attorneys,(316) 265-8591,1635 N Waterfront Pkwy # 200,Buckley Mert,KS,"Wichita, ",67206
Attorneys,(316) 265-8591,1635 N Waterfront Pkwy,"Hill, Donald E",KS,"Wichita, ",67206
Attorneys,(316) 265-8591,1635 N Waterfront Pkwy,"Malone, Clifford L",KS,"Wichita, ",67206
Attorneys,(316) 265-8591,1635 N Waterfront Pkwy,"Hughes, Patrick B",KS,"Wichita, ",67206
Attorneys,(316) 265-8591,1635 N Waterfront Pkwy,"Vines, Monte",KS,"Wichita, ",67206
Attorneys,(316) 268-7948,1625 N Waterfront Pkwy,"Scheck, Stephanie N",KS,"Wichita, ",67206
"Legal Service Plans,Attorneys",(316) 265-8800,1625 N Waterfront Pkwy,Stinson Morrison Hecker LLP,KS,"Wichita, ",67206
Attorneys,(316) 268-7922,1625 N Waterfront Pkwy,Gamelson Family Partnership LP,KS,"Wichita, ",67206
Attorneys,(316) 268-7926,1625 N Waterfront Pkwy # 300,"Langhofer, Tyson C",KS,"Wichita, ",67206
Attorneys,(316) 268-7946,1625 N Waterfront Pkwy # 300,"Kieffer, Jarrod C",KS,"Wichita, ",67206
Attorneys,(316) 268-7968,1625 N Waterfront Pkwy,Roth Robert J Atty,KS,"Wichita, ",67206
Attorneys,(316) 268-7944,1625 N Waterfront Pkwy # 300,Vetter John A,KS,"Wichita, ",67206
Attorneys,(316) 268-7922,1625 N Waterfront Pkwy # 300,"Meeker, Larry K - Stenson Morrison",KS,"Wichita, ",67206
Attorneys,(316) 268-7974,1625 N Waterfront Pkwy # 300,"Kennedy, Court T",KS,"Wichita, ",67206
Attorneys,(316) 265-8800,1625 N Waterfront Pkwy,Stinson Leonard Street LLP,KS,"Wichita, ",67206
Attorneys,(316) 268-7930,1625 N Waterfront Pkwy,"Preheim, Lynn D, JD",KS,"Wichita, ",67206
Attorneys,(316) 268-7924,1625 N Waterfront Pkwy,"Pollak, Joshua A",KS,"Wichita, ",67206
Attorneys,(316) 268-7931,1625 N Waterfront Pkwy,Jack C Marvin Attorney,KS,"Wichita, ",67206
Attorneys,(316) 609-7900,1605 N Waterfront Pkwy # 150,Rupe Alan L,KS,"Wichita, ",67206
Attorneys,(316) 609-7900,1605 N Waterfront Pkwy,Kutak Rock,KS,"Wichita, ",67206
Attorneys,(316) 269-0960,1635 N Waterfront Pkwy # 200,Najim Law Offices,KS,"Wichita, ",67206
Attorneys,(316) 268-7933,1625 N Waterfront Pkwy,Kennalley Michael,KS,"Wichita, ",67206
Attorneys,(316) 291-9506,1551 N Waterfront Pkwy,"Haag, Frederick L",KS,"Wichita, ",67206
,(316) 283-7490,111 E 7th St,,KS,"Newton, ",67114
,(316) 448-8745,301 N Market St,,KS,"Wichita, ",67202
,(316) 262-5500,229 E William St,,KS,"Wichita, ",67202
,(316) 347-7872,212 N Market St,,KS,"Wichita, ",67202
,,,,,,
"Attorneys,Legal Service Plans",(316) 630-8100,2959 N Rock Rd,"Kovar, Andrew N",KS,"Wichita, ",67226
Attorneys,(316) 630-8100,2959 N Rock Rd,"Davis, Emily N",KS,"Wichita, ",67226
"Attorneys,Legal Service Plans",(316) 630-8100,2959 N Rock Rd,"Carson, Mary F, JD",KS,"Wichita, ",67226
Attorneys,(316) 630-8100,2959 N Rock Rd,"Goering, Jeffery E",KS,"Wichita, ",67226
Attorneys,(316) 630-8100,2959 N Rock Rd,"Hellwig, Ross E",KS,"Wichita, ",67226
"Attorneys,Legal Service Plans",(316) 630-8100,2959 N Rock Rd,"Heffron, Tyler E",KS,"Wichita, ",67226
Attorneys,(316) 630-8100,2959 N Rock Rd,"Pirner, Rachael K, JD",KS,"Wichita, ",67226
Attorneys,(316) 630-8100,2959 N Rock Rd,"Fellows-Cline, Amy, JD",KS,"Wichita, ",67226
Attorneys,(316) 630-8100,2959 N Rock Rd Ste 300,"Patton, Tad, JD",KS,"Wichita, ",67226
Attorneys,(316) 630-8100,2959 N Rock Rd,"Casey, Derek S",KS,"Wichita, ",67226
Attorneys,(316) 630-8100,2959 N Rock Rd,"Klaus, J T, JD",KS,"Wichita, ",67226
"Attorneys,Legal Service Plans",(316) 630-8100,2959 N Rock Rd,"Metz, Eric B, JD",KS,"Wichita, ",67226
"Attorneys,Legal Service Plans",(316) 630-8100,2959 N Rock Rd,"Rogers, Jerald W",KS,"Wichita, ",67226
Attorneys,(316) 630-8100,2959 N Rock Rd,"Dahlgren, Jeffery",KS,"Wichita, ",67226
Attorneys,(316) 630-8100,2959 N Rock Rd,"Harnden, Ron H, JD",KS,"Wichita, ",67226
Attorneys,(316) 630-8100,2959 N Rock Rd,"Leonard, Jeffrey D, JD",KS,"Wichita, ",67226
Attorneys,(316) 630-8100,2959 N Rock Rd,T W G Firm,KS,"Wichita, ",67226
"Attorneys,Legal Service Plans",(316) 630-8100,2959 N Rock Rd,McKee Timothy E,KS,"Wichita, ",67226
"Attorneys,General Practice Attorneys",(316) 773-3270,7909 W Meadow Knoll Cir,Law Office Of Robert Blinn,KS,"Wichita, ",67205
Attorneys,(316) 613-2500,9435 E Central Ave,Robert P Burns Attorney,KS,"Wichita, ",67206
Attorneys,(316) 838-4487,5441 N Porter Ave,Lester Charles,KS,"Wichita, ",67204
"Attorneys,General Practice Attorneys",(316) 269-2323,2020 N Tyler Rd,Vernon Kirby A,KS,"Wichita, ",67212
Attorneys,(316) 247-9046,2121 N Tyler Rd,"Slape, Phillip B, JD",KS,"Wichita, ",67212
Attorneys,(316) 262-8466,9410 E Bedell St,"Dickson, Richard L",KS,"Wichita, ",67207
"Attorneys,Legal Service Plans",(316) 684-2929,3500 N Rock Rd,Biggs Law Group Lc,KS,"Wichita, ",67226
"Attorneys,Legal Service Plans",(316) 684-2929,3500 N Rock Rd,Paul Tyler,KS,"Wichita, ",67226
"Attorneys,Bankruptcy Services",(316) 768-4111,3500 N Rock Rd,"Lazzo, Mark J",KS,"Wichita, ",67226
Attorneys,(316) 684-2929,3500 N Rock Rd Ste 1100,Biggs Michael,KS,"Wichita, ",67226
"Attorneys,Legal Service Plans",(316) 686-9998,3500 N Rock Rd,David Morris PA,KS,"Wichita, ",67226
Attorneys,(316) 634-4700,9333 E 21st St N,"Toomey, Catherine",KS,"Wichita, ",67206
,(316) 448-8745,301 N Market St,,KS,"Wichita, ",67202
,(316) 347-7872,212 N Market St,,KS,"Wichita, ",67202
,(316) 283-7490,111 E 7th St,,KS,"Newton, ",67114
,(316) 262-5500,229 E William St,,KS,"Wichita, ",67202
,,,,,,
Attorneys,(316) 291-9717,1551 N Waterfront Pkwy,Mindy J Olson Law Office,KS,"Wichita, ",67206
Attorneys,(316) 267-6371,1551 N Waterfront Pkwy # 100,Foulston Siefkin LLP,KS,"Wichita, ",67206
Attorneys,(316) 291-9584,1551 N Waterfront Pkwy # 100,Amy S Lemley Attorneys,KS,"Wichita, ",67206
Attorneys,(316) 291-9756,1551 N Waterfront Pkwy # 100,Jason P Lacey Attorney,KS,"Wichita, ",67206
Attorneys,(316) 291-9583,1551 N Waterfront Pkwy,"Rapp, Larry G",KS,"Wichita, ",67206
Attorneys,(316) 291-9535,1551 N Waterfront Pkwy,"Ewy, Richard D",KS,"Wichita, ",67206
Attorneys,(316) 291-9513,1551 N Waterfront Pkwy # 100,Jeffery A Jordon,KS,"Wichita, ",67206
Attorneys,(316) 291-9591,1551 N Waterfront Pkwy,"Ross, Martha A",KS,"Wichita, ",67206
Attorneys,(316) 291-9541,1551 N Waterfront Pkwy,Jay F Fowler Attorney,KS,"Wichita, ",67206
Attorneys,(316) 291-9586,1551 N Waterfront Pkwy # 100,Trisha A Thelen Attys At Law,KS,"Wichita, ",67206
Attorneys,(316) 291-9736,1551 N Waterfront Pkwy,Stewart T Weaver Attorney,KS,"Wichita, ",67206
Attorneys,(316) 291-9519,1551 N Waterfront Pkwy # 100,"Focht, Jack",KS,"Wichita, ",67206
Attorneys,(316) 291-9716,1551 N Waterfront Pkwy,Byers Boyd A,KS,"Wichita, ",67206
Attorneys,(316) 291-9743,1551 N Waterfront Pkwy,"Norton, Michael J",KS,"Wichita, ",67206
Attorneys,(316) 291-9551,1551 N Waterfront Pkwy,"Efflandt, Charles P",KS,"Wichita, ",67206
Attorneys,(316) 291-9504,1551 N Waterfront Pkwy,"Cupps, Terry C",KS,"Wichita, ",67206
Attorneys,(316) 291-9773,1551 N Waterfront Pkwy,"Dyer, Holly A",KS,"Wichita, ",67206
Attorneys,(316) 291-9722,1551 N Waterfront Pkwy # 100,"Rector, Jay M - Foulston Seifkin Llp",KS,"Wichita, ",67206
Attorneys,(316) 291-9530,1551 N Waterfront Pkwy # 100,"West, Craig W",KS,"Wichita, ",67206
Attorneys,(316) 291-9556,1551 N Waterfront Pkwy,"Matthews, William P",KS,"Wichita, ",67206
Attorneys,(316) 291-9776,1551 N Waterfront Pkwy,"Todesco, Todd N",KS,"Wichita, ",67206
Attorneys,(316) 291-9709,1551 N Waterfront Pkwy # 100,"Goering, Jim H",KS,"Wichita, ",67206
Attorneys,(316) 291-9518,1551 N Waterfront Pkwy # 100,"Wead, Shannon D",KS,"Wichita, ",67206
Attorneys,(316) 291-9555,1551 N Waterfront Pkwy,"Rhodes, Forrest T",KS,"Wichita, ",67206
Attorneys,(316) 291-9554,1551 N Waterfront Pkwy # 100,"Hesse, Karl N - Foulston Siefken Llp",KS,"Wichita, ",67206
Attorneys,(316) 291-9546,1551 N Waterfront Pkwy,"Matthews, Carolyn L",KS,"Wichita, ",67206
Attorneys,(316) 291-9767,1551 N Waterfront Pkwy,"Voth Blankensh, Patricia A",KS,"Wichita, ",67206
Attorneys,(316) 291-9532,1551 N Waterfront Pkwy,"Andeel, Stanley G",KS,"Wichita, ",67206
Attorneys,(316) 291-9521,1551 N Waterfront Pkwy,"Kerwick, Stephen M",KS,"Wichita, ",67206
Attorneys,(316) 267-6371,1551 N Waterfront Pkwy # 100,"Bell, Shannon L",KS,"Wichita, ",67206
,(316) 283-7490,111 E 7th St,,KS,"Newton, ",67114
,(316) 262-5500,229 E William St,,KS,"Wichita, ",67202
,(316) 448-8745,301 N Market St,,KS,"Wichita, ",67202
,(316) 347-7872,212 N Market St,,KS,"Wichita, ",67202
,,,,,,
Attorneys,(316) 291-9552,1551 N Waterfront Pkwy,"Woodin, Charles J",KS,"Wichita, ",67206
Attorneys,(316) 291-9725,1551 N Waterfront Pkwy # 100,"Traster, David M - Foulston Siefkin",KS,"Wichita, ",67206
Attorneys,(316) 267-6371,1551 N Waterfront Pkwy # 100,"Hurst, Christopher",KS,"Wichita, ",67206
Attorneys,(316) 291-9565,1551 N Waterfront Pkwy # 100,"Arellano, Christopher - Foulston & Sieskin",KS,"Wichita, ",67206
Attorneys,(316) 291-9530,1551 N Waterfront Pkwy # 100,Arnel Kevin,KS,"Wichita, ",67206
Attorneys,(316) 291-9538,1551 N Waterfront Pkwy,Gordon G Kirsten Attorney,KS,"Wichita, ",67206
Attorneys,(316) 291-9774,1551 N Waterfront Pkwy,Harvey R Sorensen Attorney,KS,"Wichita, ",67206
Attorneys,(316) 291-9768,1551 N Waterfront Pkwy,"Bennett Aziere, Brooke",KS,"Wichita, ",67206
Attorneys,(316) 291-9559,1551 N Waterfront Pkwy,"Baalmann, Francis J",KS,"Wichita, ",67206
Attorneys,(316) 291-9578,1551 N Waterfront Pkwy # 100,"Palecki, Scott C",KS,"Wichita, ",67206
Attorneys,(316) 291-9542,1551 N Waterfront Pkwy,"Nolan, Andrew J",KS,"Wichita, ",67206
Attorneys,(316) 722-7638,9408 W Wyncroft St,"Williams, Ronald P",KS,"Wichita, ",67205
Attorneys,(316) 681-3232,9313 E 34th St N,"Kirk, Albert",KS,"Wichita, ",67226
Attorneys,(316) 263-8600,10521 W Foxchase St,Birch Morris D,KS,"Wichita, ",67212
Attorneys,(316) 263-8600,10521 W Foxchase St,Birch Law Office,KS,"Wichita, ",67212
Attorneys,(316) 260-9650,2330 N Maize Rd,Coultis Estate & Elder Law,KS,"Wichita, ",67205
"Attorneys,Legal Service Plans",(316) 613-2008,2548 N Maize Ct,McCafferty Law Group,KS,"Wichita, ",67205
Attorneys,(316) 729-7745,10708 W Rita Ct,Kevin M Smith Law Offices,KS,"Wichita, ",67209
Attorneys,(316) 685-5911,12201 E Tipperary St,City Code Financial,KS,"Wichita, ",67206
Attorneys,(316) 347-8888,12219 E Central Ave # 250,James Richard W.,KS,"Wichita, ",67206
Attorneys,(316) 347-8888,12219 E Central Ave,"Claassen, Cody",KS,"Wichita, ",67206
"Attorneys,Legal Service Plans",(316) 260-6538,11940 W Central Ave,Clark Kenneth M,KS,"Wichita, ",67212
Accident & Property Damage Attorneys,(316) 264-1548,129 East 2nd St.,Bill Cummings Wichita DUI Attorney,KS,"Wichita, ",67202
"Attorneys,Legal Service Plans",(316) 733-6446,550 N 159th St E,Huelskamp Terrence L PA,KS,"Wichita, ",67230
Attorneys,(316) 733-9313,550 N 159th St E,"McKean, John P",KS,"Wichita, ",67230
Attorneys,(316) 239-6005,550 N 159th St E # 205,Angelo Law Office,KS,"Wichita, ",67230
Attorneys,(316) 734-6543,,Kansas Legal Solutions Pro,KS,"Wichita, ",67218
Attorneys,(316) 263-4000,PO Box 2427,"Cornett, Robert T",KS,"Wichita, ",67201
Attorneys,(316) 262-8498,,Rumsey & Cleary Law Office,KS,"Wichita, ",67211
Attorneys,(316) 393-4198,,"Hunter, Clayton",KS,"Wichita, ",67202
,(316) 448-8745,301 N Market St,,KS,"Wichita, ",67202
,(316) 347-7872,212 N Market St,,KS,"Wichita, ",67202
,(316) 283-7490,111 E 7th St,,KS,"Newton, ",67114
,(316) 262-5500,229 E William St,,KS,"Wichita, ",67202
,,,,,,
Attorneys,(316) 269-1188,,Palmer James R,KS,"Wichita, ",67202
"Attorneys,Family Law Attorneys",(316) 265-3285,830 N Main St,Lambdin Lambdin & Fraser CHTD,KS,"Wichita, ",67203
Social Security & Disability Law...,(316) 263-2173,800 N Market St,Johnston Law Offices,KS,"Wichita, ",67214
Business Bankruptcy Law Attorneys,(316) 558-3750,200 W Douglas Ave Ste 250,"Todd M. Allison & Sarah L. Newell, Attorneys at Law",KS,"Wichita, ",67202
"Divorce Attorneys,Attorneys",(316) 262-4481,154 N Emporia St,Soderberg Ann,KS,"Wichita, ",67202
"Justice Courts,Attorneys,State Government",(316) 660-9750,1900 E Morris St,Sedgwick County Corrections,KS,"Wichita, ",67211
Corporation & Partnership Law Attorneys,(316) 683-9080,"7701 E. Kellogg, Ste. 415","Prochaska, Giroux & Howell LLC.",KS,"Wichita, ",67207
"Estate Planning Attorneys,Attorneys",(316) 264-3700,229 E William St,Toomey Pilgreen,KS,"Wichita, ",67202
Justice Courts,(316) 660-3600,535 N Main St # 1,Sedgwick County Adult Dvrsn,KS,"Wichita, ",67203
"Family Law Attorneys,Attorneys",(316) 265-6600,727 N Waco Ave,Dewey & Lund LLP,KS,"Wichita, ",67203
Corporation & Partnership Law Attorneys,(316) 267-2212,345 N Riverview St,Render Kamas Lc,KS,"Wichita, ",67203
"Estate Planning Attorneys,Attorneys",(316) 265-9311,100 N Broadway St # 500,"Rose, Ronald B - Martin Pringle Llp",KS,"Wichita, ",67202
"Legal Service Plans,Attorneys",(316) 267-1562,200 W Douglas Ave # 1010,Gough Steven D,KS,"Wichita, ",67202
"Bankruptcy Services,Attorneys",(316) 263-6895,3500 N Rock Rd,Lazzo Law Bankruptcy Attorney,KS,"Wichita, ",67226
"Criminal Law Attorneys,Attorneys",(316) 315-4400,401 N Market St,U S Government Chief US Probation Officer,KS,"Wichita, ",67202
"Insurance Attorneys,Legal Service Plans",(316) 263-0001,532 N Market St,Roger Riedmiller Law Office,KS,"Wichita, ",67214
"Estate Planning Attorneys,Attorneys",(316) 264-6192,320 N Main St,Hampton Consulting Corp,KS,"Wichita, ",67202
"Tax Attorneys,Attorneys",(316) 267-0331,301 N Main St # 600,"Austerman, Gary M, JD",KS,"Wichita, ",67202
"Estate Planning Attorneys,Attorneys",(316) 263-8294,301 N Main St # 600,"Haag, Hellen L - Bever Dye",KS,"Wichita, ",67202
"General Practice Attorneys,Attorneys",(316) 269-6586,301 N Main St Ste 1200,U S Government Attorney US,KS,"Wichita, ",67202
"Estate Planning Attorneys,Attorneys",(316) 263-8294,301 N Main St # 600,"Flesher, Jack D, JD",KS,"Wichita, ",67202
"Federal Government,Attorneys",(316) 269-6445,301 N Main St,Federal Public Defender,KS,"Wichita, ",67202
"Legal Service Plans,Attorneys",(316) 264-7321,301 N Main St Ste 1300,Gilliland & Hayes,KS,"Wichita, ",67202
Workers Compensation Assistance,(316) 261-5400,301 N Main St,Shores Williamson & Associates,KS,"Wichita, ",67202
"Immigration Law Attorneys,Attorneys",(316) 264-0282,437 N Topeka St,Immigration & Refuge Service,KS,"Wichita, ",67202
Attorneys Referral & Information...,(316) 265-4457,310 W Central Ave,"Kidd, Roger C, JD",KS,"Wichita, ",67202
"Legal Service Plans,Attorneys",(316) 263-1315,310 E 2nd St N,Kansas Legal Services,KS,"Wichita, ",67202
"Divorce Attorneys,Attorneys",(316) 263-8844,608 N Broadway St,Molamphy Dennis,KS,"Wichita, ",67214
"Arbitration Services,Attorneys",(316) 262-6466,634 N Broadway St,"Shawver, N.Trip",KS,"Wichita, ",67214
"Legal Service Plans,Attorneys",(316) 265-3393,355 N Waco St Ste 175,Womack Jon S,KS,"Wichita, ",67202
,(316) 283-7490,111 E 7th St,,KS,"Newton, ",67114
,(316) 448-8745,301 N Market St,,KS,"Wichita, ",67202
,(316) 347-7872,212 N Market St,,KS,"Wichita, ",67202
,(316) 262-5500,229 E William St,,KS,"Wichita, ",67202
,,,,,,
Social Security Consultants...,(800) 580-9335,355 N Waco St,Aaa Disability Advocates Pc,KS,"Wichita, ",67202
"Legal Service Plans,Attorneys",(316) 263-4949,212 N Market St Ste 310,Roberts Cheryl J,KS,"Wichita, ",67202
"Legal Service Plans,Attorneys",(316) 269-1331,212 N Market St Ste 308,Hoke Charles E,KS,"Wichita, ",67202
"Accountants-Certified Public,Attorneys",(316) 265-4877,201 N Main St,White-Soward & Claassen,KS,"Wichita, ",67202
"Legal Service Plans,Attorneys",(316) 267-4878,200 E 1st St N,"Price, Randall J, JD",KS,"Wichita, ",67202
"Mediation Services,Attorneys",(316) 265-7697,200 N Broadway St,Midland Mediation & Settlement Services,KS,"Wichita, ",67202
"Legal Service Plans,Attorneys",(316) 265-9681,200 N Broadway St,Kansas Legal Services,KS,"Wichita, ",67202
"Divorce Attorneys,Attorneys",(316) 265-7272,727 N Waco Ave # 560,"Clark, Renee",KS,"Wichita, ",67203
Social Security & Disability Law...,(316) 252-1592,727 N Waco Ave # 200,Hammond Zongker & Farris,KS,"Wichita, ",67203
Social Security & Disability Law...,(316) 263-3841,345 N Riverview St,Disability Professionals,KS,"Wichita, ",67203
Family Law Attorneys,(316) 265-4222,150 N Main St # 515,"Arst, David G Arst & Arst PA",KS,"Wichita, ",67202
"Legal Service Plans,Attorneys",(316) 267-5267,R H Garvey Bldg,Unruh Milo M Jr,KS,"Wichita, ",67201
"Legal Service Plans,Attorneys",(316) 267-5267,R H Garvey Blgd,Nodgaard John C,KS,"Wichita, ",67201
"Immigration Law Attorneys,Attorneys",(800) 365-2355,2022 Swift Ave,Immigration Law Clinic-Allan H. Bell,KS,"Wichita, ",67147
"Legal Service Plans,Attorneys",(316) 267-5267,R H Garvey Bldg,Wilson Roger K,KS,"Wichita, ",67201
"Personal Injury Law Attorneys,Attorneys",(316) 712-0363,135 N Main St,Hodge Ray & Assoc,KS,"Wichita, ",67202
"Patent, Trademark & Copyright Law...",(316) 263-6400,125 N Market St,"Blinn, Robert",KS,"Wichita, ",67202
Social Security Consultants...,(800) 580-9335,200 E Douglas Ave,A A A Disability Advocates,KS,"Wichita, ",67202
"Divorce Attorneys,Attorneys",(316) 262-4481,154 N Emporia St,Cleary Mike,KS,"Wichita, ",67202
"Divorce Attorneys,Attorneys",(316) 262-4481,154 N Emporia St,Turley Stephen M,KS,"Wichita, ",67202
"Bankruptcy Services,Attorneys",(316) 267-5293,200 W Douglas Ave,Smith Shay Farmer Wetta,KS,"Wichita, ",67202
"Legal Service Plans,Attorneys",(316) 267-5293,200 W Douglas Ave Ste 350,Martin Keith E,KS,"Wichita, ",67202
"Legal Service Plans,Attorneys",(316) 265-7741,100 N Broadway St # 950,Chalmers Arthur S,KS,"Wichita, ",67202
"Estate Planning Attorneys,Attorneys",(316) 265-7741,100 N Broadway St,Hite Fanning & Honeyman,KS,"Wichita, ",67202
"Immigration Law Attorneys,Attorneys",(316) 262-6222,200 W Douglas Ave,Immigration Law Office,KS,"Wichita, ",67202
"Legal Service Plans,Attorneys",(316) 264-3300,200 W Douglas Ave # 300,Schmidt Kari,KS,"Wichita, ",67202
"Legal Service Plans,Attorneys",(316) 264-3300,200 W Douglas Ave Ste 300,Von Achen Jon,KS,"Wichita, ",67202
"Arbitration Services,Attorneys",(316) 266-4986,200 W Douglas Ave,Midland Mediation & Settlement,KS,"Wichita, ",67202
"Mediation Services,Attorneys",(316) 721-1111,300 W Douglas Ave,Conflict Resolution Center,KS,"Wichita, ",67202
"Bankruptcy Services,Attorneys",(316) 262-1041,901 N Broadway St,Stan Kenny Law Office,KS,"Wichita, ",67214
,(316) 262-5500,229 E William St,,KS,"Wichita, ",67202
,(316) 283-7490,111 E 7th St,,KS,"Newton, ",67114
,(316) 347-7872,212 N Market St,,KS,"Wichita, ",67202
,(316) 448-8745,301 N Market St,,KS,"Wichita, ",67202
,,,,,,
"General Practice Attorneys,Attorneys",(316) 262-5103,901 N Broadway St,Dodd and Godwin,KS,"Wichita, ",67214
"Personal Injury Law Attorneys,Attorneys",(866) 263-0505,221 S Topeka St,Accident Recovery Team,KS,"Wichita, ",67202
Social Security & Disability Law...,(316) 263-0198,221 S Topeka St,Disability Advocates of Kansas,KS,"Wichita, ",67202
"Bankruptcy Services,Attorneys",(316) 303-9445,221 S Broadway St,"Orsi, Peter",KS,"Wichita, ",67202
"Divorce Assistance,Attorneys",(316) 265-6606,1020 N Main St,Dewey and Lund LLP,KS,"Wichita, ",67203
"Insurance Attorneys,Attorneys",(316) 682-8500,218 N Mosley St,Brennan Law Group PA,KS,"Wichita, ",67202
"Divorce Attorneys,Attorneys",(316) 262-7777,216 N Mosley St,Guy & Guy,KS,"Wichita, ",67202
Civil Litigation & Trial Law Attorneys,(316) 267-8181,1041 N Waco Ave,Beall Mitchell & Sullivan,KS,"Wichita, ",67203
"Accountants-Certified Public,Bookkeeping",(316) 264-7203,1401 E Douglas Ave,Dunning James E,KS,"Wichita, ",67211
"Personal Injury Law Attorneys,Attorneys",(316) 262-7771,928 S Broadway St,Car Accident Injury Law Center,KS,"Wichita, ",67211
Insurance Attorneys,(316) 262-2331,1502 N Broadway St,Ace Law,KS,"Wichita, ",67214
Workers Compensation Assistance,(316) 838-1119,1514 N Broadway St,Diane F Barger Law Offices,KS,"Wichita, ",67214
"Insurance Attorneys,Attorneys",(316) 262-5400,2300 E Douglas Ave,"Schoenhofer, Mark T, JD",KS,"Wichita, ",67214
"Litigation & Tort Attorneys,Attorneys",(316) 733-2723,2831 E Central Ave,Affiliated Attorneys-Pistotnik,KS,"Wichita, ",67214
"Bankruptcy Services,Attorneys",(316) 944-4800,3161 W Maple St,Sanchez Wayne L,KS,"Wichita, ",67213
"General Practice Attorneys,Attorneys",(316) 558-3540,131 N Glendale St,Stultz Jennifer L.,KS,"Wichita, ",67208
"Divorce Assistance,Attorneys",(316) 522-4749,2935 S Seneca St,Cather William,KS,"Wichita, ",67217
"General Practice Attorneys,Attorneys",(316) 262-5175,1600 Fairfield Ln,Calvin McMillan Law Office,KS,"Wichita, ",67208
"Legal Service Plans,Attorneys",(316) 265-0797,545 N Woodlawn St,Minter & Pollak Law Firm,KS,"Wichita, ",67208
"Estate Planning Attorneys,Attorneys",(316) 260-9720,1938 N Woodlawn St,Brown Dengler & O'Brien,KS,"Wichita, ",67208
"Insurance Attorneys,Attorneys",(316) 682-8500,2024 N Woodlawn St,Brennan Law Group,KS,"Wichita, ",67208
"Insurance Attorneys,Attorneys",(316) 267-4140,2024 N Woodlawn St,Larry Wall Trial Law,KS,"Wichita, ",67208
"Insurance Attorneys,Attorneys",(316) 264-9730,111 S Whittier St,Jack Peggs Law Office,KS,"Wichita, ",67207
"Accountants-Certified Public,Attorneys",(316) 636-9450,8080 E Central Ave Ste 230,Grider and Company,KS,"Wichita, ",67206
"Insurance Attorneys,Attorneys",(316) 684-4400,1833 N Rock Road Ct,Brad Pistotnik Law PA,KS,"Wichita, ",67206
Attorneys Referral & Information...,(316) 685-1112,2250 N Rock Rd,Legal Self-Kits,KS,"Wichita, ",67226
"Accountants-Certified Public,Attorneys",(316) 636-9450,8100 E 22nd St N # 2100-3,Grider & Company P A,KS,"Wichita, ",67226
"Legal Service Plans,Attorneys",(316) 262-4000,8301 E 21st St N Ste 450,McMurray Molly,KS,"Wichita, ",67206
"Legal Service Plans,Attorneys",(316) 630-8100,2959 N Rock Rd Ste 300,Fry Terry E,KS,"Wichita, ",67226
"Legal Service Plans,Attorneys",(316) 630-8100,2959 N Rock Rd Ste 300,Rosson Shane,KS,"Wichita, ",67226
,(316) 347-7872,212 N Market St,,KS,"Wichita, ",67202
,(316) 283-7490,111 E 7th St,,KS,"Newton, ",67114
,(316) 448-8745,301 N Market St,,KS,"Wichita, ",67202
,(316) 262-5500,229 E William St,,KS,"Wichita, ",67202
,,,,,,
Social Security Consultants...,(316) 263-6300,8623 E 32nd St N,Social Security Disability Attorney,KS,"Wichita, ",67226
"Insurance Attorneys,Attorneys",(316) 263-6300,8623 E 32nd St N,Parmele Law Firm,KS,"Wichita, ",67226
"Litigation & Tort Attorneys,Attorneys",(316) 291-9576,1551 N Waterfront Pkwy # 100,James M Armstrong Attorney,KS,"Wichita, ",67206
"Accountants-Certified Public,Attorneys",(316) 315-0222,4246 N Sweet Bay St,John G Cate & Associates,KS,"Wichita, ",67226
"Accountants-Certified Public,Attorneys",(316) 265-3231,8300 E Thorn Dr,Grant Thornton LLP,KS,"Wichita, ",67226
"Legal Service Plans,Attorneys",(316) 733-8414,75 E Via Verde St,Churchill W. Stanley,KS,"Wichita, ",67230
"Legal Service Plans,Attorneys",(316) 262-8466,146 N Lamar Ave,Dickson Richard L,KS,"Wichita, ",67201
"Management Consultants,Attorneys",(316) 266-4111,,AAA Accident Attorney Association,KS,"Wichita, ",67226
"Legal Service Plans,Attorneys",(316) 213-9247,,Stalcup Randy,KS,"Wichita, ",67201
Attorneys,(316) 686-1477,5 E Douglas Ave,McKinney Law Firm,KS,"Eastborough, ",67207
"Attorneys,Legal Service Plans",(316) 686-1477,5 E Douglas Ave,Wichita Litigation Group,KS,"Eastborough, ",67207
Attorneys,(316) 683-7749,5 E Douglas Ave,"Mckinney, Donald A",KS,"Eastborough, ",67207
Attorneys,(316) 759-3590,53285 Pratt Ct # 810,Smith John,KS,"McConnell Afb, ",67221
Attorneys,(316) 239-6005,6809 E Summerside Pl,Angelo Law Office,KS,"Bel Aire, ",67226
"Attorneys,Legal Service Plans",(316) 264-0228,241 Champion St,"Batt, Roger, JD",KS,"Haysville, ",67060
Attorneys Referral & Information...,(316) 788-0901,7145 S Blueberry Ln,Association 4 Honest Attorneys,KS,"Derby, ",67037
"Attorneys,Criminal Law Attorneys",(316) 201-4141,216 W Main St,Hudlin Law Office,KS,"Valley Center, ",67147
"Attorneys,Legal Service Plans",(316) 755-2707,300 W Main St,Harris Thomas D,KS,"Valley Center, ",67147
Attorneys,(316) 788-8609,831 E Morningview St,Mcleland Mary,KS,"Derby, ",67037
"Attorneys,Legal Service Plans",(316) 789-0090,205 W Crestway Ave,James A Peter & Associates PA,KS,"Derby, ",67037
"Attorneys,Legal Service Plans",(316) 789-9956,111 N Baltimore Ave,Mills Russell L,KS,"Derby, ",67037
Attorneys,(316) 788-5564,111 N Baltimore Ave,"Rider, Kevin V",KS,"Derby, ",67037
"Attorneys,Legal Service Plans",(316) 788-4994,111 N Baltimore Ave,Swenson Bruce A,KS,"Derby, ",67037
Attorneys,(316) 788-5564,111 N Baltimore Ave,"Mcferson, Donald G, JD",KS,"Derby, ",67037
"Attorneys,Legal Service Plans",(316) 788-1551,111 S Baltimore Ave,Griffith & Griffith,KS,"Derby, ",67037
Attorneys,(316) 733-5727,1003 S Ginkgo Ln,"Reynolds, Robert W",KS,"Andover, ",67002
"Attorneys,Divorce Attorneys",(316) 789-0909,1721 E Osage Rd Suite 400,Burrow Law Office,KS,"Derby, ",67037
Attorneys,(316) 462-9711,1721 E Osage Rd,"Burrow, Arlene M, JD",KS,"Derby, ",67037
"Attorneys,Legal Service Plans",(316) 733-0223,16112 E Stanton Rd,Robrahn Edward B,KS,"Andover, ",67002
Attorneys,(316) 776-0740,15416 SW 150th St,Cox Ray,KS,"Rose Hill, ",67133
,(316) 262-5500,229 E William St,,KS,"Wichita, ",67202
,(316) 283-7490,111 E 7th St,,KS,"Newton, ",67114
,(316) 448-8745,301 N Market St,,KS,"Wichita, ",67202
,(316) 347-7872,212 N Market St,,KS,"Wichita, ",67202
,,,,,,
Attorneys,(316) 759-3590,53285 Pratt Ct,Usaf Law Center,KS,"McConnell Afb, ",67221
Attorneys,(316) 263-2173,PO Box 459,"The Johnston Law Offices, P.A., VLO",KS,"Kechi, ",67067
Attorneys,(316) 737-7382,PO Box 515,Eicher Holistic Legal Counsel,KS,"Andover, ",67002
Attorneys,(620) 584-6746,,Russell L Mills Attorney,KS,"Clearwater, ",67026
Attorneys,(316) 775-1075,,Eldon L Boisseau Law Office,KS,"Augusta, ",67010
"Attorneys,Legal Service Plans",(316) 321-2900,,King Richard C,KS,"El Dorado, ",67042
Attorneys,(316) 265-0650,1502 N. Broadway St.,Cameron Law Office,,"Wichita, ",67214
"Attorneys,General Practice Attorneys",(316) 321-4300,,Connell & Connell,KS,"El Dorado, ",67042
Credit Repair Service,(316) 755-9764,,We R 1 Marketing,,,
Attorneys,(316) 265-3394,,Law Office of Steven Sublett,,,
Attorneys,(316) 262-5500,,Eron Law Office PA,,,
"Attorneys,Legal Service Plans",(316) 789-8990,,Hurtig Becky C,,,
"Attorneys,Legal Service Plans",(316) 291-3555,,Bumgardner Jeffrey,,,
"Attorneys,General Practice Attorneys",(316) 262-7771,,Hogan Paul Law Office of,,,
"Attorneys,Legal Service Plans",(316) 683-5512,,Jacqueline K Levings Atty At Law,,,
"Legal Service Plans,Attorneys",(316) 777-0111,116 W Main Ave,Grant Russell E,KS,"Derby, ",67037
"Litigation & Tort Attorneys,Attorneys",(316) 283-4560,,Somers Robb & Robb,KS,"Newton, ",67114
"Family Law Attorneys,Legal Service Plans",(316) 409-1846,,Kansans For Family Rights Now!,,,
"Criminal Law Attorneys,Attorneys",(316) 262-9400,,DUI Defense Team,,,
Attorneys,(316) 281-4183,727 N. Waco Ste. 585 Ave,Powell Law Office,KS,"Wichita, ",66203
,(316) 448-8745,301 N Market St,,KS,"Wichita, ",67202
,(316) 347-7872,212 N Market St,,KS,"Wichita, ",67202
,(316) 283-7490,111 E 7th St,,KS,"Newton, ",67114
,(316) 262-5500,229 E William St,,KS,"Wichita, ",67202
,,,,,,
